[{"model": "cities.city", "pk": 1, "fields": {"name": "\u0433. \u0410\u0434\u044b\u0433\u0435\u0439\u0441\u043a", "postal_code": "385200", "region": 1}}, {"model": "cities.city", "pk": 2, "fields": {"name": "\u0433. \u041c\u0430\u0439\u043a\u043e\u043f", "postal_code": "385000", "region": 1}}, {"model": "cities.city", "pk": 3, "fields": {"name": "\u0433. \u0413\u043e\u0440\u043d\u043e-\u0410\u043b\u0442\u0430\u0439\u0441\u043a", "postal_code": "649000", "region": 2}}, {"model": "cities.city", "pk": 4, "fields": {"name": "\u0433. \u0410\u043b\u0435\u0439\u0441\u043a", "postal_code": "658125", "region": 3}}, {"model": "cities.city", "pk": 5, "fields": {"name": "\u0433. \u0411\u0430\u0440\u043d\u0430\u0443\u043b", "postal_code": "656000", "region": 3}}, {"model": "cities.city", "pk": 6, "fields": {"name": "\u0433. \u0411\u0435\u043b\u043e\u043a\u0443\u0440\u0438\u0445\u0430", "postal_code": "659900", "region": 3}}, {"model": "cities.city", "pk": 7, "fields": {"name": "\u0433. \u0411\u0438\u0439\u0441\u043a", "postal_code": "659300", "region": 3}}, {"model": "cities.city", "pk": 8, "fields": {"name": "\u0433. \u0413\u043e\u0440\u043d\u044f\u043a", "postal_code": "658420", "region": 3}}, {"model": "cities.city", "pk": 9, "fields": {"name": "\u0433. \u0417\u0430\u0440\u0438\u043d\u0441\u043a", "postal_code": "659100", "region": 3}}, {"model": "cities.city", "pk": 10, "fields": {"name": "\u0433. \u0417\u043c\u0435\u0438\u043d\u043e\u0433\u043e\u0440\u0441\u043a", "postal_code": "658480", "region": 3}}, {"model": "cities.city", "pk": 11, "fields": {"name": "\u0433. \u041a\u0430\u043c\u0435\u043d\u044c-\u043d\u0430-\u041e\u0431\u0438", "postal_code": "658700", "region": 3}}, {"model": "cities.city", "pk": 12, "fields": {"name": "\u0433. \u041d\u043e\u0432\u043e\u0430\u043b\u0442\u0430\u0439\u0441\u043a", "postal_code": "658041", "region": 3}}, {"model": "cities.city", "pk": 13, "fields": {"name": "\u0433. \u0420\u0443\u0431\u0446\u043e\u0432\u0441\u043a", "postal_code": "658200", "region": 3}}, {"model": "cities.city", "pk": 14, "fields": {"name": "\u0433. \u0421\u043b\u0430\u0432\u0433\u043e\u0440\u043e\u0434", "postal_code": "658820", "region": 3}}, {"model": "cities.city", "pk": 15, "fields": {"name": "\u0433. \u042f\u0440\u043e\u0432\u043e\u0435", "postal_code": "658837", "region": 3}}, {"model": "cities.city", "pk": 16, "fields": {"name": "\u0433. \u0411\u0435\u043b\u043e\u0433\u043e\u0440\u0441\u043a", "postal_code": "676805", "region": 4}}, {"model": "cities.city", "pk": 17, "fields": {"name": "\u0433. \u0411\u043b\u0430\u0433\u043e\u0432\u0435\u0449\u0435\u043d\u0441\u043a", "postal_code": "675000", "region": 4}}, {"model": "cities.city", "pk": 18, "fields": {"name": "\u0433. \u0417\u0430\u0432\u0438\u0442\u0438\u043d\u0441\u043a", "postal_code": "676870", "region": 4}}, {"model": "cities.city", "pk": 19, "fields": {"name": "\u0433. \u0417\u0435\u044f", "postal_code": "676151", "region": 4}}, {"model": "cities.city", "pk": 20, "fields": {"name": "\u0433. \u0420\u0430\u0439\u0447\u0438\u0445\u0438\u043d\u0441\u043a", "postal_code": "676770", "region": 4}}, {"model": "cities.city", "pk": 21, "fields": {"name": "\u0433. \u0421\u0432\u043e\u0431\u043e\u0434\u043d\u044b\u0439", "postal_code": "676450", "region": 4}}, {"model": "cities.city", "pk": 22, "fields": {"name": "\u0433. \u0421\u043a\u043e\u0432\u043e\u0440\u043e\u0434\u0438\u043d\u043e", "postal_code": "676011", "region": 4}}, {"model": "cities.city", "pk": 23, "fields": {"name": "\u0433. \u0422\u044b\u043d\u0434\u0430", "postal_code": "676280", "region": 4}}, {"model": "cities.city", "pk": 24, "fields": {"name": "\u0433. \u0426\u0438\u043e\u043b\u043a\u043e\u0432\u0441\u043a\u0438\u0439", "postal_code": "676470", "region": 4}}, {"model": "cities.city", "pk": 25, "fields": {"name": "\u0433. \u0428\u0438\u043c\u0430\u043d\u043e\u0432\u0441\u043a", "postal_code": "676301", "region": 4}}, {"model": "cities.city", "pk": 26, "fields": {"name": "\u0433. \u0410\u0440\u0445\u0430\u043d\u0433\u0435\u043b\u044c\u0441\u043a", "postal_code": "\u0433 \u0410\u0440\u0445\u0430\u043d\u0433\u0435\u043b\u044c\u0441\u043a", "region": 5}}, {"model": "cities.city", "pk": 27, "fields": {"name": "\u0433. \u0412\u0435\u043b\u044c\u0441\u043a", "postal_code": "165150", "region": 5}}, {"model": "cities.city", "pk": 28, "fields": {"name": "\u0433. \u041a\u0430\u0440\u0433\u043e\u043f\u043e\u043b\u044c", "postal_code": "164110", "region": 5}}, {"model": "cities.city", "pk": 29, "fields": {"name": "\u0433. \u041a\u043e\u0440\u044f\u0436\u043c\u0430", "postal_code": "165650", "region": 5}}, {"model": "cities.city", "pk": 30, "fields": {"name": "\u0433. \u041a\u043e\u0442\u043b\u0430\u0441", "postal_code": "165300", "region": 5}}, {"model": "cities.city", "pk": 31, "fields": {"name": "\u0433. \u041c\u0435\u0437\u0435\u043d\u044c", "postal_code": "164750", "region": 5}}, {"model": "cities.city", "pk": 32, "fields": {"name": "\u0433. \u041c\u0438\u0440\u043d\u044b\u0439", "postal_code": "164170", "region": 5}}, {"model": "cities.city", "pk": 33, "fields": {"name": "\u0433. \u041d\u043e\u0432\u043e\u0434\u0432\u0438\u043d\u0441\u043a", "postal_code": "164900", "region": 5}}, {"model": "cities.city", "pk": 34, "fields": {"name": "\u0433. \u041d\u044f\u043d\u0434\u043e\u043c\u0430", "postal_code": "164200", "region": 5}}, {"model": "cities.city", "pk": 35, "fields": {"name": "\u0433. \u041e\u043d\u0435\u0433\u0430", "postal_code": "164840", "region": 5}}, {"model": "cities.city", "pk": 36, "fields": {"name": "\u0433. \u0421\u0435\u0432\u0435\u0440\u043e\u0434\u0432\u0438\u043d\u0441\u043a", "postal_code": "164500", "region": 5}}, {"model": "cities.city", "pk": 37, "fields": {"name": "\u0433. \u0421\u043e\u043b\u044c\u0432\u044b\u0447\u0435\u0433\u043e\u0434\u0441\u043a", "postal_code": "165330", "region": 5}}, {"model": "cities.city", "pk": 38, "fields": {"name": "\u0433. \u0428\u0435\u043d\u043a\u0443\u0440\u0441\u043a", "postal_code": "165160", "region": 5}}, {"model": "cities.city", "pk": 39, "fields": {"name": "\u0433. \u0410\u0441\u0442\u0440\u0430\u0445\u0430\u043d\u044c", "postal_code": "414000", "region": 6}}, {"model": "cities.city", "pk": 40, "fields": {"name": "\u0433. \u0410\u0445\u0442\u0443\u0431\u0438\u043d\u0441\u043a", "postal_code": "416500", "region": 6}}, {"model": "cities.city", "pk": 41, "fields": {"name": "\u0433. \u0417\u043d\u0430\u043c\u0435\u043d\u0441\u043a", "postal_code": "416540", "region": 6}}, {"model": "cities.city", "pk": 42, "fields": {"name": "\u0433. \u041a\u0430\u043c\u044b\u0437\u044f\u043a", "postal_code": "416340", "region": 6}}, {"model": "cities.city", "pk": 43, "fields": {"name": "\u0433. \u041d\u0430\u0440\u0438\u043c\u0430\u043d\u043e\u0432", "postal_code": "416111", "region": 6}}, {"model": "cities.city", "pk": 44, "fields": {"name": "\u0433. \u0425\u0430\u0440\u0430\u0431\u0430\u043b\u0438", "postal_code": "416010", "region": 6}}, {"model": "cities.city", "pk": 45, "fields": {"name": "\u0433. \u0410\u0433\u0438\u0434\u0435\u043b\u044c", "postal_code": "452920", "region": 7}}, {"model": "cities.city", "pk": 46, "fields": {"name": "\u0433. \u0411\u0430\u0439\u043c\u0430\u043a", "postal_code": "453630", "region": 7}}, {"model": "cities.city", "pk": 47, "fields": {"name": "\u0433. \u0411\u0435\u043b\u0435\u0431\u0435\u0439", "postal_code": "452000", "region": 7}}, {"model": "cities.city", "pk": 48, "fields": {"name": "\u0433. \u0411\u0435\u043b\u043e\u0440\u0435\u0446\u043a", "postal_code": "453500", "region": 7}}, {"model": "cities.city", "pk": 49, "fields": {"name": "\u0433. \u0411\u0438\u0440\u0441\u043a", "postal_code": "452450", "region": 7}}, {"model": "cities.city", "pk": 50, "fields": {"name": "\u0433. \u0411\u043b\u0430\u0433\u043e\u0432\u0435\u0449\u0435\u043d\u0441\u043a", "postal_code": "453430", "region": 7}}, {"model": "cities.city", "pk": 51, "fields": {"name": "\u0433. \u0414\u0430\u0432\u043b\u0435\u043a\u0430\u043d\u043e\u0432\u043e", "postal_code": "453400", "region": 7}}, {"model": "cities.city", "pk": 52, "fields": {"name": "\u0433. \u0414\u044e\u0440\u0442\u044e\u043b\u0438", "postal_code": "452320", "region": 7}}, {"model": "cities.city", "pk": 53, "fields": {"name": "\u0433. \u0418\u0448\u0438\u043c\u0431\u0430\u0439", "postal_code": "453200", "region": 7}}, {"model": "cities.city", "pk": 54, "fields": {"name": "\u0433. \u041a\u0443\u043c\u0435\u0440\u0442\u0430\u0443", "postal_code": "453300", "region": 7}}, {"model": "cities.city", "pk": 55, "fields": {"name": "\u0433. \u041c\u0435\u0436\u0433\u043e\u0440\u044c\u0435", "postal_code": "453570", "region": 7}}, {"model": "cities.city", "pk": 56, "fields": {"name": "\u0433. \u041c\u0435\u043b\u0435\u0443\u0437", "postal_code": "453853", "region": 7}}, {"model": "cities.city", "pk": 57, "fields": {"name": "\u0433. \u041d\u0435\u0444\u0442\u0435\u043a\u0430\u043c\u0441\u043a", "postal_code": "452680", "region": 7}}, {"model": "cities.city", "pk": 58, "fields": {"name": "\u0433. \u041e\u043a\u0442\u044f\u0431\u0440\u044c\u0441\u043a\u0438\u0439", "postal_code": "452601", "region": 7}}, {"model": "cities.city", "pk": 59, "fields": {"name": "\u0433. \u0421\u0430\u043b\u0430\u0432\u0430\u0442", "postal_code": "453250", "region": 7}}, {"model": "cities.city", "pk": 60, "fields": {"name": "\u0433. \u0421\u0438\u0431\u0430\u0439", "postal_code": "453830", "region": 7}}, {"model": "cities.city", "pk": 61, "fields": {"name": "\u0433. \u0421\u0442\u0435\u0440\u043b\u0438\u0442\u0430\u043c\u0430\u043a", "postal_code": "453100", "region": 7}}, {"model": "cities.city", "pk": 62, "fields": {"name": "\u0433. \u0422\u0443\u0439\u043c\u0430\u0437\u044b", "postal_code": "452750", "region": 7}}, {"model": "cities.city", "pk": 63, "fields": {"name": "\u0433. \u0423\u0444\u0430", "postal_code": "450000", "region": 7}}, {"model": "cities.city", "pk": 64, "fields": {"name": "\u0433. \u0423\u0447\u0430\u043b\u044b", "postal_code": "453700", "region": 7}}, {"model": "cities.city", "pk": 65, "fields": {"name": "\u0433. \u042f\u043d\u0430\u0443\u043b", "postal_code": "452800", "region": 7}}, {"model": "cities.city", "pk": 66, "fields": {"name": "\u0433. \u0410\u043b\u0435\u043a\u0441\u0435\u0435\u0432\u043a\u0430", "postal_code": "309850", "region": 8}}, {"model": "cities.city", "pk": 67, "fields": {"name": "\u0433. \u0411\u0435\u043b\u0433\u043e\u0440\u043e\u0434", "postal_code": "308000", "region": 8}}, {"model": "cities.city", "pk": 68, "fields": {"name": "\u0433. \u0411\u0438\u0440\u044e\u0447", "postal_code": "309920", "region": 8}}, {"model": "cities.city", "pk": 69, "fields": {"name": "\u0433. \u0412\u0430\u043b\u0443\u0439\u043a\u0438", "postal_code": "309990", "region": 8}}, {"model": "cities.city", "pk": 70, "fields": {"name": "\u0433. \u0413\u0440\u0430\u0439\u0432\u043e\u0440\u043e\u043d", "postal_code": "309370", "region": 8}}, {"model": "cities.city", "pk": 71, "fields": {"name": "\u0433. \u0413\u0443\u0431\u043a\u0438\u043d", "postal_code": "309180", "region": 8}}, {"model": "cities.city", "pk": 72, "fields": {"name": "\u0433. \u041a\u043e\u0440\u043e\u0447\u0430", "postal_code": "309210", "region": 8}}, {"model": "cities.city", "pk": 73, "fields": {"name": "\u0433. \u041d\u043e\u0432\u044b\u0439 \u041e\u0441\u043a\u043e\u043b", "postal_code": "309640", "region": 8}}, {"model": "cities.city", "pk": 74, "fields": {"name": "\u0433. \u0421\u0442\u0430\u0440\u044b\u0439 \u041e\u0441\u043a\u043e\u043b", "postal_code": "309500", "region": 8}}, {"model": "cities.city", "pk": 75, "fields": {"name": "\u0433. \u0421\u0442\u0440\u043e\u0438\u0442\u0435\u043b\u044c", "postal_code": "309070", "region": 8}}, {"model": "cities.city", "pk": 76, "fields": {"name": "\u0433. \u0428\u0435\u0431\u0435\u043a\u0438\u043d\u043e", "postal_code": "309290", "region": 8}}, {"model": "cities.city", "pk": 77, "fields": {"name": "\u0433. \u0411\u0440\u044f\u043d\u0441\u043a", "postal_code": "241000", "region": 9}}, {"model": "cities.city", "pk": 78, "fields": {"name": "\u0433. \u0414\u044f\u0442\u044c\u043a\u043e\u0432\u043e", "postal_code": "242600", "region": 9}}, {"model": "cities.city", "pk": 79, "fields": {"name": "\u0433. \u0416\u0443\u043a\u043e\u0432\u043a\u0430", "postal_code": "242700", "region": 9}}, {"model": "cities.city", "pk": 80, "fields": {"name": "\u0433. \u0417\u043b\u044b\u043d\u043a\u0430", "postal_code": "243600", "region": 9}}, {"model": "cities.city", "pk": 81, "fields": {"name": "\u0433. \u041a\u0430\u0440\u0430\u0447\u0435\u0432", "postal_code": "242500", "region": 9}}, {"model": "cities.city", "pk": 82, "fields": {"name": "\u0433. \u041a\u043b\u0438\u043d\u0446\u044b", "postal_code": "243140", "region": 9}}, {"model": "cities.city", "pk": 83, "fields": {"name": "\u0433. \u041c\u0433\u043b\u0438\u043d", "postal_code": "243220", "region": 9}}, {"model": "cities.city", "pk": 84, "fields": {"name": "\u0433. \u041d\u043e\u0432\u043e\u0437\u044b\u0431\u043a\u043e\u0432", "postal_code": "243020", "region": 9}}, {"model": "cities.city", "pk": 85, "fields": {"name": "\u0433. \u041f\u043e\u0447\u0435\u043f", "postal_code": "243400", "region": 9}}, {"model": "cities.city", "pk": 86, "fields": {"name": "\u0433. \u0421\u0435\u0432\u0441\u043a", "postal_code": "242440", "region": 9}}, {"model": "cities.city", "pk": 87, "fields": {"name": "\u0433. \u0421\u0435\u043b\u044c\u0446\u043e", "postal_code": "241550", "region": 9}}, {"model": "cities.city", "pk": 88, "fields": {"name": "\u0433. \u0421\u0442\u0430\u0440\u043e\u0434\u0443\u0431", "postal_code": "243240", "region": 9}}, {"model": "cities.city", "pk": 89, "fields": {"name": "\u0433. \u0421\u0443\u0440\u0430\u0436", "postal_code": "243500", "region": 9}}, {"model": "cities.city", "pk": 90, "fields": {"name": "\u0433. \u0422\u0440\u0443\u0431\u0447\u0435\u0432\u0441\u043a", "postal_code": "242220", "region": 9}}, {"model": "cities.city", "pk": 91, "fields": {"name": "\u0433. \u0423\u043d\u0435\u0447\u0430", "postal_code": "243300", "region": 9}}, {"model": "cities.city", "pk": 92, "fields": {"name": "\u0433. \u0424\u043e\u043a\u0438\u043d\u043e", "postal_code": "242610", "region": 9}}, {"model": "cities.city", "pk": 93, "fields": {"name": "\u0433. \u0411\u0430\u0431\u0443\u0448\u043a\u0438\u043d", "postal_code": "671230", "region": 10}}, {"model": "cities.city", "pk": 94, "fields": {"name": "\u0433. \u0413\u0443\u0441\u0438\u043d\u043e\u043e\u0437\u0435\u0440\u0441\u043a", "postal_code": "671160", "region": 10}}, {"model": "cities.city", "pk": 95, "fields": {"name": "\u0433. \u0417\u0430\u043a\u0430\u043c\u0435\u043d\u0441\u043a", "postal_code": "671950", "region": 10}}, {"model": "cities.city", "pk": 96, "fields": {"name": "\u0433. \u041a\u044f\u0445\u0442\u0430", "postal_code": "671840", "region": 10}}, {"model": "cities.city", "pk": 97, "fields": {"name": "\u0433. \u0421\u0435\u0432\u0435\u0440\u043e\u0431\u0430\u0439\u043a\u0430\u043b\u044c\u0441\u043a", "postal_code": "671700", "region": 10}}, {"model": "cities.city", "pk": 98, "fields": {"name": "\u0433. \u0423\u043b\u0430\u043d-\u0423\u0434\u044d", "postal_code": "670000", "region": 10}}, {"model": "cities.city", "pk": 99, "fields": {"name": "\u0433. \u0410\u043b\u0435\u043a\u0441\u0430\u043d\u0434\u0440\u043e\u0432", "postal_code": "601650", "region": 11}}, {"model": "cities.city", "pk": 100, "fields": {"name": "\u0433. \u0412\u043b\u0430\u0434\u0438\u043c\u0438\u0440", "postal_code": "600000", "region": 11}}, {"model": "cities.city", "pk": 101, "fields": {"name": "\u0433. \u0412\u044f\u0437\u043d\u0438\u043a\u0438", "postal_code": "601440", "region": 11}}, {"model": "cities.city", "pk": 102, "fields": {"name": "\u0433. \u0413\u043e\u0440\u043e\u0445\u043e\u0432\u0435\u0446", "postal_code": "601480", "region": 11}}, {"model": "cities.city", "pk": 103, "fields": {"name": "\u0433. \u0413\u0443\u0441\u044c-\u0425\u0440\u0443\u0441\u0442\u0430\u043b\u044c\u043d\u044b\u0439", "postal_code": "601500", "region": 11}}, {"model": "cities.city", "pk": 104, "fields": {"name": "\u0433. \u041a\u0430\u043c\u0435\u0448\u043a\u043e\u0432\u043e", "postal_code": "601300", "region": 11}}, {"model": "cities.city", "pk": 105, "fields": {"name": "\u0433. \u041a\u0430\u0440\u0430\u0431\u0430\u043d\u043e\u0432\u043e", "postal_code": "601640", "region": 11}}, {"model": "cities.city", "pk": 106, "fields": {"name": "\u0433. \u041a\u0438\u0440\u0436\u0430\u0447", "postal_code": "601010", "region": 11}}, {"model": "cities.city", "pk": 107, "fields": {"name": "\u0433. \u041a\u043e\u0432\u0440\u043e\u0432", "postal_code": "601900", "region": 11}}, {"model": "cities.city", "pk": 108, "fields": {"name": "\u0433. \u041a\u043e\u043b\u044c\u0447\u0443\u0433\u0438\u043d\u043e", "postal_code": "601780", "region": 11}}, {"model": "cities.city", "pk": 109, "fields": {"name": "\u0433. \u041a\u043e\u0441\u0442\u0435\u0440\u0435\u0432\u043e", "postal_code": "601110", "region": 11}}, {"model": "cities.city", "pk": 110, "fields": {"name": "\u0433. \u041a\u0443\u0440\u043b\u043e\u0432\u043e", "postal_code": "601570", "region": 11}}, {"model": "cities.city", "pk": 111, "fields": {"name": "\u0433. \u041b\u0430\u043a\u0438\u043d\u0441\u043a", "postal_code": "601240", "region": 11}}, {"model": "cities.city", "pk": 112, "fields": {"name": "\u0433. \u041c\u0435\u043b\u0435\u043d\u043a\u0438", "postal_code": "602101", "region": 11}}, {"model": "cities.city", "pk": 113, "fields": {"name": "\u0433. \u041c\u0443\u0440\u043e\u043c", "postal_code": "602205", "region": 11}}, {"model": "cities.city", "pk": 114, "fields": {"name": "\u0433. \u041f\u0435\u0442\u0443\u0448\u043a\u0438", "postal_code": "601140", "region": 11}}, {"model": "cities.city", "pk": 115, "fields": {"name": "\u0433. \u041f\u043e\u043a\u0440\u043e\u0432", "postal_code": "601120", "region": 11}}, {"model": "cities.city", "pk": 116, "fields": {"name": "\u0433. \u0420\u0430\u0434\u0443\u0436\u043d\u044b\u0439", "postal_code": "600910", "region": 11}}, {"model": "cities.city", "pk": 117, "fields": {"name": "\u0433. \u0421\u043e\u0431\u0438\u043d\u043a\u0430", "postal_code": "601201", "region": 11}}, {"model": "cities.city", "pk": 118, "fields": {"name": "\u0433. \u0421\u0442\u0440\u0443\u043d\u0438\u043d\u043e", "postal_code": "601670", "region": 11}}, {"model": "cities.city", "pk": 119, "fields": {"name": "\u0433. \u0421\u0443\u0434\u043e\u0433\u0434\u0430", "postal_code": "601351", "region": 11}}, {"model": "cities.city", "pk": 120, "fields": {"name": "\u0433. \u0421\u0443\u0437\u0434\u0430\u043b\u044c", "postal_code": "601291", "region": 11}}, {"model": "cities.city", "pk": 121, "fields": {"name": "\u0433. \u042e\u0440\u044c\u0435\u0432-\u041f\u043e\u043b\u044c\u0441\u043a\u0438\u0439", "postal_code": "601800", "region": 11}}, {"model": "cities.city", "pk": 122, "fields": {"name": "\u0433. \u0412\u043e\u043b\u0433\u043e\u0433\u0440\u0430\u0434", "postal_code": "400000", "region": 12}}, {"model": "cities.city", "pk": 123, "fields": {"name": "\u0433. \u0412\u043e\u043b\u0436\u0441\u043a\u0438\u0439", "postal_code": "404100", "region": 12}}, {"model": "cities.city", "pk": 124, "fields": {"name": "\u0433. \u0414\u0443\u0431\u043e\u0432\u043a\u0430", "postal_code": "404002", "region": 12}}, {"model": "cities.city", "pk": 125, "fields": {"name": "\u0433. \u0416\u0438\u0440\u043d\u043e\u0432\u0441\u043a", "postal_code": "403790", "region": 12}}, {"model": "cities.city", "pk": 126, "fields": {"name": "\u0433. \u041a\u0430\u043b\u0430\u0447-\u043d\u0430-\u0414\u043e\u043d\u0443", "postal_code": "404500", "region": 12}}, {"model": "cities.city", "pk": 127, "fields": {"name": "\u0433. \u041a\u0430\u043c\u044b\u0448\u0438\u043d", "postal_code": "403870", "region": 12}}, {"model": "cities.city", "pk": 128, "fields": {"name": "\u0433. \u041a\u043e\u0442\u0435\u043b\u044c\u043d\u0438\u043a\u043e\u0432\u043e", "postal_code": "404350", "region": 12}}, {"model": "cities.city", "pk": 129, "fields": {"name": "\u0433. \u041a\u043e\u0442\u043e\u0432\u043e", "postal_code": "403801", "region": 12}}, {"model": "cities.city", "pk": 130, "fields": {"name": "\u0433. \u041a\u0440\u0430\u0441\u043d\u043e\u0441\u043b\u043e\u0431\u043e\u0434\u0441\u043a", "postal_code": "404160", "region": 12}}, {"model": "cities.city", "pk": 131, "fields": {"name": "\u0433. \u041b\u0435\u043d\u0438\u043d\u0441\u043a", "postal_code": "404620", "region": 12}}, {"model": "cities.city", "pk": 132, "fields": {"name": "\u0433. \u041c\u0438\u0445\u0430\u0439\u043b\u043e\u0432\u043a\u0430", "postal_code": "403340", "region": 12}}, {"model": "cities.city", "pk": 133, "fields": {"name": "\u0433. \u041d\u0438\u043a\u043e\u043b\u0430\u0435\u0432\u0441\u043a", "postal_code": "404030", "region": 12}}, {"model": "cities.city", "pk": 134, "fields": {"name": "\u0433. \u041d\u043e\u0432\u043e\u0430\u043d\u043d\u0438\u043d\u0441\u043a\u0438\u0439", "postal_code": "403950", "region": 12}}, {"model": "cities.city", "pk": 135, "fields": {"name": "\u0433. \u041f\u0430\u043b\u043b\u0430\u0441\u043e\u0432\u043a\u0430", "postal_code": "404260", "region": 12}}, {"model": "cities.city", "pk": 136, "fields": {"name": "\u0433. \u041f\u0435\u0442\u0440\u043e\u0432 \u0412\u0430\u043b", "postal_code": "403840", "region": 12}}, {"model": "cities.city", "pk": 137, "fields": {"name": "\u0433. \u0421\u0435\u0440\u0430\u0444\u0438\u043c\u043e\u0432\u0438\u0447", "postal_code": "403441", "region": 12}}, {"model": "cities.city", "pk": 138, "fields": {"name": "\u0433. \u0421\u0443\u0440\u043e\u0432\u0438\u043a\u0438\u043d\u043e", "postal_code": "404410", "region": 12}}, {"model": "cities.city", "pk": 139, "fields": {"name": "\u0433. \u0423\u0440\u044e\u043f\u0438\u043d\u0441\u043a", "postal_code": "403110", "region": 12}}, {"model": "cities.city", "pk": 140, "fields": {"name": "\u0433. \u0424\u0440\u043e\u043b\u043e\u0432\u043e", "postal_code": "403530", "region": 12}}, {"model": "cities.city", "pk": 141, "fields": {"name": "\u0433. \u0411\u0430\u0431\u0430\u0435\u0432\u043e", "postal_code": "162480", "region": 13}}, {"model": "cities.city", "pk": 142, "fields": {"name": "\u0433. \u0411\u0435\u043b\u043e\u0437\u0435\u0440\u0441\u043a", "postal_code": "161200", "region": 13}}, {"model": "cities.city", "pk": 143, "fields": {"name": "\u0433. \u0412\u0435\u043b\u0438\u043a\u0438\u0439 \u0423\u0441\u0442\u044e\u0433", "postal_code": "162390", "region": 13}}, {"model": "cities.city", "pk": 144, "fields": {"name": "\u0433. \u0412\u043e\u043b\u043e\u0433\u0434\u0430", "postal_code": "160000", "region": 13}}, {"model": "cities.city", "pk": 145, "fields": {"name": "\u0433. \u0412\u044b\u0442\u0435\u0433\u0440\u0430", "postal_code": "162900", "region": 13}}, {"model": "cities.city", "pk": 146, "fields": {"name": "\u0433. \u0413\u0440\u044f\u0437\u043e\u0432\u0435\u0446", "postal_code": "162000", "region": 13}}, {"model": "cities.city", "pk": 147, "fields": {"name": "\u0433. \u041a\u0430\u0434\u043d\u0438\u043a\u043e\u0432", "postal_code": "162107", "region": 13}}, {"model": "cities.city", "pk": 148, "fields": {"name": "\u0433. \u041a\u0438\u0440\u0438\u043b\u043b\u043e\u0432", "postal_code": "161100", "region": 13}}, {"model": "cities.city", "pk": 149, "fields": {"name": "\u0433. \u041a\u0440\u0430\u0441\u0430\u0432\u0438\u043d\u043e", "postal_code": "162341", "region": 13}}, {"model": "cities.city", "pk": 150, "fields": {"name": "\u0433. \u041d\u0438\u043a\u043e\u043b\u044c\u0441\u043a", "postal_code": "161440", "region": 13}}, {"model": "cities.city", "pk": 151, "fields": {"name": "\u0433. \u0421\u043e\u043a\u043e\u043b", "postal_code": "162129", "region": 13}}, {"model": "cities.city", "pk": 152, "fields": {"name": "\u0433. \u0422\u043e\u0442\u044c\u043c\u0430", "postal_code": "161300", "region": 13}}, {"model": "cities.city", "pk": 153, "fields": {"name": "\u0433. \u0423\u0441\u0442\u044e\u0436\u043d\u0430", "postal_code": "162840", "region": 13}}, {"model": "cities.city", "pk": 154, "fields": {"name": "\u0433. \u0425\u0430\u0440\u043e\u0432\u0441\u043a", "postal_code": "162250", "region": 13}}, {"model": "cities.city", "pk": 155, "fields": {"name": "\u0433. \u0427\u0435\u0440\u0435\u043f\u043e\u0432\u0435\u0446", "postal_code": "162600", "region": 13}}, {"model": "cities.city", "pk": 156, "fields": {"name": "\u0433. \u0411\u043e\u0431\u0440\u043e\u0432", "postal_code": "397700", "region": 14}}, {"model": "cities.city", "pk": 157, "fields": {"name": "\u0433. \u0411\u043e\u0433\u0443\u0447\u0430\u0440", "postal_code": "396790", "region": 14}}, {"model": "cities.city", "pk": 158, "fields": {"name": "\u0433. \u0411\u043e\u0440\u0438\u0441\u043e\u0433\u043b\u0435\u0431\u0441\u043a", "postal_code": "397160", "region": 14}}, {"model": "cities.city", "pk": 159, "fields": {"name": "\u0433. \u0411\u0443\u0442\u0443\u0440\u043b\u0438\u043d\u043e\u0432\u043a\u0430", "postal_code": "397500", "region": 14}}, {"model": "cities.city", "pk": 160, "fields": {"name": "\u0433. \u0412\u043e\u0440\u043e\u043d\u0435\u0436", "postal_code": "394000", "region": 14}}, {"model": "cities.city", "pk": 161, "fields": {"name": "\u0433. \u041a\u0430\u043b\u0430\u0447", "postal_code": "397600", "region": 14}}, {"model": "cities.city", "pk": 162, "fields": {"name": "\u0433. \u041b\u0438\u0441\u043a\u0438", "postal_code": "397904", "region": 14}}, {"model": "cities.city", "pk": 163, "fields": {"name": "\u0433. \u041d\u043e\u0432\u043e\u0432\u043e\u0440\u043e\u043d\u0435\u0436", "postal_code": "396070", "region": 14}}, {"model": "cities.city", "pk": 164, "fields": {"name": "\u0433. \u041d\u043e\u0432\u043e\u0445\u043e\u043f\u0435\u0440\u0441\u043a", "postal_code": "397400", "region": 14}}, {"model": "cities.city", "pk": 165, "fields": {"name": "\u0433. \u041e\u0441\u0442\u0440\u043e\u0433\u043e\u0436\u0441\u043a", "postal_code": "397837", "region": 14}}, {"model": "cities.city", "pk": 166, "fields": {"name": "\u0433. \u041f\u0430\u0432\u043b\u043e\u0432\u0441\u043a", "postal_code": "396420", "region": 14}}, {"model": "cities.city", "pk": 167, "fields": {"name": "\u0433. \u041f\u043e\u0432\u043e\u0440\u0438\u043d\u043e", "postal_code": "397350", "region": 14}}, {"model": "cities.city", "pk": 168, "fields": {"name": "\u0433. \u0420\u043e\u0441\u0441\u043e\u0448\u044c", "postal_code": "396650", "region": 14}}, {"model": "cities.city", "pk": 169, "fields": {"name": "\u0433. \u0421\u0435\u043c\u0438\u043b\u0443\u043a\u0438", "postal_code": "396900", "region": 14}}, {"model": "cities.city", "pk": 170, "fields": {"name": "\u0433. \u042d\u0440\u0442\u0438\u043b\u044c", "postal_code": "397030", "region": 14}}, {"model": "cities.city", "pk": 171, "fields": {"name": "\u0433. \u0411\u0443\u0439\u043d\u0430\u043a\u0441\u043a", "postal_code": "368220", "region": 15}}, {"model": "cities.city", "pk": 172, "fields": {"name": "\u0433. \u0414\u0430\u0433\u0435\u0441\u0442\u0430\u043d\u0441\u043a\u0438\u0435 \u041e\u0433\u043d\u0438", "postal_code": "368670", "region": 15}}, {"model": "cities.city", "pk": 173, "fields": {"name": "\u0433. \u0414\u0435\u0440\u0431\u0435\u043d\u0442", "postal_code": "368000", "region": 15}}, {"model": "cities.city", "pk": 174, "fields": {"name": "\u0433. \u0418\u0437\u0431\u0435\u0440\u0431\u0430\u0448", "postal_code": "368500", "region": 15}}, {"model": "cities.city", "pk": 175, "fields": {"name": "\u0433. \u041a\u0430\u0441\u043f\u0438\u0439\u0441\u043a", "postal_code": "368300", "region": 15}}, {"model": "cities.city", "pk": 176, "fields": {"name": "\u0433. \u041a\u0438\u0437\u0438\u043b\u044e\u0440\u0442", "postal_code": "368120", "region": 15}}, {"model": "cities.city", "pk": 177, "fields": {"name": "\u0433. \u041a\u0438\u0437\u043b\u044f\u0440", "postal_code": "368830", "region": 15}}, {"model": "cities.city", "pk": 178, "fields": {"name": "\u0433. \u041c\u0430\u0445\u0430\u0447\u043a\u0430\u043b\u0430", "postal_code": "367000", "region": 15}}, {"model": "cities.city", "pk": 179, "fields": {"name": "\u0433. \u0425\u0430\u0441\u0430\u0432\u044e\u0440\u0442", "postal_code": "368000", "region": 15}}, {"model": "cities.city", "pk": 180, "fields": {"name": "\u0433. \u042e\u0436\u043d\u043e-\u0421\u0443\u0445\u043e\u043a\u0443\u043c\u0441\u043a", "postal_code": "368890", "region": 15}}, {"model": "cities.city", "pk": 181, "fields": {"name": "\u0433. \u0411\u0438\u0440\u043e\u0431\u0438\u0434\u0436\u0430\u043d", "postal_code": "679002", "region": 16}}, {"model": "cities.city", "pk": 182, "fields": {"name": "\u0433. \u041e\u0431\u043b\u0443\u0447\u044c\u0435", "postal_code": "679100", "region": 16}}, {"model": "cities.city", "pk": 183, "fields": {"name": "\u0433. \u0411\u0430\u043b\u0435\u0439", "postal_code": "673450", "region": 17}}, {"model": "cities.city", "pk": 184, "fields": {"name": "\u0433. \u0411\u043e\u0440\u0437\u044f", "postal_code": "674600", "region": 17}}, {"model": "cities.city", "pk": 185, "fields": {"name": "\u0433. \u041a\u0440\u0430\u0441\u043d\u043e\u043a\u0430\u043c\u0435\u043d\u0441\u043a", "postal_code": "674670", "region": 17}}, {"model": "cities.city", "pk": 186, "fields": {"name": "\u0433. \u041c\u043e\u0433\u043e\u0447\u0430", "postal_code": "673730", "region": 17}}, {"model": "cities.city", "pk": 187, "fields": {"name": "\u0433. \u041d\u0435\u0440\u0447\u0438\u043d\u0441\u043a", "postal_code": "673400", "region": 17}}, {"model": "cities.city", "pk": 188, "fields": {"name": "\u0433. \u041f\u0435\u0442\u0440\u043e\u0432\u0441\u043a-\u0417\u0430\u0431\u0430\u0439\u043a\u0430\u043b\u044c\u0441\u043a\u0438\u0439", "postal_code": "673000", "region": 17}}, {"model": "cities.city", "pk": 189, "fields": {"name": "\u0433. \u0421\u0440\u0435\u0442\u0435\u043d\u0441\u043a", "postal_code": "673500", "region": 17}}, {"model": "cities.city", "pk": 190, "fields": {"name": "\u0433. \u0425\u0438\u043b\u043e\u043a", "postal_code": "673200", "region": 17}}, {"model": "cities.city", "pk": 191, "fields": {"name": "\u0433. \u0427\u0438\u0442\u0430", "postal_code": "672000", "region": 17}}, {"model": "cities.city", "pk": 192, "fields": {"name": "\u0433. \u0428\u0438\u043b\u043a\u0430", "postal_code": "673303", "region": 17}}, {"model": "cities.city", "pk": 193, "fields": {"name": "\u0433. \u0412\u0438\u0447\u0443\u0433\u0430", "postal_code": "155330", "region": 18}}, {"model": "cities.city", "pk": 194, "fields": {"name": "\u0433. \u0413\u0430\u0432\u0440\u0438\u043b\u043e\u0432 \u041f\u043e\u0441\u0430\u0434", "postal_code": "155000", "region": 18}}, {"model": "cities.city", "pk": 195, "fields": {"name": "\u0433. \u0417\u0430\u0432\u043e\u043b\u0436\u0441\u043a", "postal_code": "155410", "region": 18}}, {"model": "cities.city", "pk": 196, "fields": {"name": "\u0433. \u0418\u0432\u0430\u043d\u043e\u0432\u043e", "postal_code": "153000", "region": 18}}, {"model": "cities.city", "pk": 197, "fields": {"name": "\u0433. \u041a\u0438\u043d\u0435\u0448\u043c\u0430", "postal_code": "155800", "region": 18}}, {"model": "cities.city", "pk": 198, "fields": {"name": "\u0433. \u041a\u043e\u043c\u0441\u043e\u043c\u043e\u043b\u044c\u0441\u043a", "postal_code": "155150", "region": 18}}, {"model": "cities.city", "pk": 199, "fields": {"name": "\u0433. \u041a\u043e\u0445\u043c\u0430", "postal_code": "153510", "region": 18}}, {"model": "cities.city", "pk": 200, "fields": {"name": "\u0433. \u041d\u0430\u0432\u043e\u043b\u043e\u043a\u0438", "postal_code": "155830", "region": 18}}, {"model": "cities.city", "pk": 201, "fields": {"name": "\u0433. \u041f\u043b\u0435\u0441", "postal_code": "155555", "region": 18}}, {"model": "cities.city", "pk": 202, "fields": {"name": "\u0433. \u041f\u0440\u0438\u0432\u043e\u043b\u0436\u0441\u043a", "postal_code": "155550", "region": 18}}, {"model": "cities.city", "pk": 203, "fields": {"name": "\u0433. \u041f\u0443\u0447\u0435\u0436", "postal_code": "155360", "region": 18}}, {"model": "cities.city", "pk": 204, "fields": {"name": "\u0433. \u0420\u043e\u0434\u043d\u0438\u043a\u0438", "postal_code": "155250", "region": 18}}, {"model": "cities.city", "pk": 205, "fields": {"name": "\u0433. \u0422\u0435\u0439\u043a\u043e\u0432\u043e", "postal_code": "155040", "region": 18}}, {"model": "cities.city", "pk": 206, "fields": {"name": "\u0433. \u0424\u0443\u0440\u043c\u0430\u043d\u043e\u0432", "postal_code": "155520", "region": 18}}, {"model": "cities.city", "pk": 207, "fields": {"name": "\u0433. \u0428\u0443\u044f", "postal_code": "155900", "region": 18}}, {"model": "cities.city", "pk": 208, "fields": {"name": "\u0433. \u042e\u0436\u0430", "postal_code": "155630", "region": 18}}, {"model": "cities.city", "pk": 209, "fields": {"name": "\u0433. \u042e\u0440\u044c\u0435\u0432\u0435\u0446", "postal_code": "155450", "region": 18}}, {"model": "cities.city", "pk": 210, "fields": {"name": "\u0433. \u041a\u0430\u0440\u0430\u0431\u0443\u043b\u0430\u043a", "postal_code": "386230", "region": 19}}, {"model": "cities.city", "pk": 211, "fields": {"name": "\u0433. \u041c\u0430\u0433\u0430\u0441", "postal_code": "386001", "region": 19}}, {"model": "cities.city", "pk": 212, "fields": {"name": "\u0433. \u041c\u0430\u043b\u0433\u043e\u0431\u0435\u043a", "postal_code": "386300", "region": 19}}, {"model": "cities.city", "pk": 213, "fields": {"name": "\u0433. \u041d\u0430\u0437\u0440\u0430\u043d\u044c", "postal_code": "386100", "region": 19}}, {"model": "cities.city", "pk": 214, "fields": {"name": "\u0433. \u0421\u0443\u043d\u0436\u0430", "postal_code": "386200", "region": 19}}, {"model": "cities.city", "pk": 215, "fields": {"name": "\u0433. \u0410\u043b\u0437\u0430\u043c\u0430\u0439", "postal_code": "665160", "region": 20}}, {"model": "cities.city", "pk": 216, "fields": {"name": "\u0433. \u0410\u043d\u0433\u0430\u0440\u0441\u043a", "postal_code": "665800", "region": 20}}, {"model": "cities.city", "pk": 217, "fields": {"name": "\u0433. \u0411\u0430\u0439\u043a\u0430\u043b\u044c\u0441\u043a", "postal_code": "665930", "region": 20}}, {"model": "cities.city", "pk": 218, "fields": {"name": "\u0433. \u0411\u0438\u0440\u044e\u0441\u0438\u043d\u0441\u043a", "postal_code": "665050", "region": 20}}, {"model": "cities.city", "pk": 219, "fields": {"name": "\u0433. \u0411\u043e\u0434\u0430\u0439\u0431\u043e", "postal_code": "666901", "region": 20}}, {"model": "cities.city", "pk": 220, "fields": {"name": "\u0433. \u0411\u0440\u0430\u0442\u0441\u043a", "postal_code": "665700", "region": 20}}, {"model": "cities.city", "pk": 221, "fields": {"name": "\u0433. \u0412\u0438\u0445\u043e\u0440\u0435\u0432\u043a\u0430", "postal_code": "665770", "region": 20}}, {"model": "cities.city", "pk": 222, "fields": {"name": "\u0433. \u0416\u0435\u043b\u0435\u0437\u043d\u043e\u0433\u043e\u0440\u0441\u043a-\u0418\u043b\u0438\u043c\u0441\u043a\u0438\u0439", "postal_code": "665650", "region": 20}}, {"model": "cities.city", "pk": 223, "fields": {"name": "\u0433. \u0417\u0438\u043c\u0430", "postal_code": "665382", "region": 20}}, {"model": "cities.city", "pk": 224, "fields": {"name": "\u0433. \u0418\u0440\u043a\u0443\u0442\u0441\u043a", "postal_code": "664000", "region": 20}}, {"model": "cities.city", "pk": 225, "fields": {"name": "\u0433. \u041a\u0438\u0440\u0435\u043d\u0441\u043a", "postal_code": "666700", "region": 20}}, {"model": "cities.city", "pk": 226, "fields": {"name": "\u0433. \u041d\u0438\u0436\u043d\u0435\u0443\u0434\u0438\u043d\u0441\u043a", "postal_code": "665100", "region": 20}}, {"model": "cities.city", "pk": 227, "fields": {"name": "\u0433. \u0421\u0430\u044f\u043d\u0441\u043a", "postal_code": "666300", "region": 20}}, {"model": "cities.city", "pk": 228, "fields": {"name": "\u0433. \u0421\u0432\u0438\u0440\u0441\u043a", "postal_code": "665420", "region": 20}}, {"model": "cities.city", "pk": 229, "fields": {"name": "\u0433. \u0421\u043b\u044e\u0434\u044f\u043d\u043a\u0430", "postal_code": "665902", "region": 20}}, {"model": "cities.city", "pk": 230, "fields": {"name": "\u0433. \u0422\u0430\u0439\u0448\u0435\u0442", "postal_code": "665000", "region": 20}}, {"model": "cities.city", "pk": 231, "fields": {"name": "\u0433. \u0422\u0443\u043b\u0443\u043d", "postal_code": "665250", "region": 20}}, {"model": "cities.city", "pk": 232, "fields": {"name": "\u0433. \u0423\u0441\u043e\u043b\u044c\u0435-\u0421\u0438\u0431\u0438\u0440\u0441\u043a\u043e\u0435", "postal_code": "665450", "region": 20}}, {"model": "cities.city", "pk": 233, "fields": {"name": "\u0433. \u0423\u0441\u0442\u044c-\u0418\u043b\u0438\u043c\u0441\u043a", "postal_code": "666671", "region": 20}}, {"model": "cities.city", "pk": 234, "fields": {"name": "\u0433. \u0423\u0441\u0442\u044c-\u041a\u0443\u0442", "postal_code": "666780", "region": 20}}, {"model": "cities.city", "pk": 235, "fields": {"name": "\u0433. \u0427\u0435\u0440\u0435\u043c\u0445\u043e\u0432\u043e", "postal_code": "665400", "region": 20}}, {"model": "cities.city", "pk": 236, "fields": {"name": "\u0433. \u0428\u0435\u043b\u0435\u0445\u043e\u0432", "postal_code": "666031", "region": 20}}, {"model": "cities.city", "pk": 237, "fields": {"name": "\u0433. \u0411\u0430\u043a\u0441\u0430\u043d", "postal_code": "361500", "region": 21}}, {"model": "cities.city", "pk": 238, "fields": {"name": "\u0433. \u041c\u0430\u0439\u0441\u043a\u0438\u0439", "postal_code": "361110", "region": 21}}, {"model": "cities.city", "pk": 239, "fields": {"name": "\u0433. \u041d\u0430\u043b\u044c\u0447\u0438\u043a", "postal_code": "360000", "region": 21}}, {"model": "cities.city", "pk": 240, "fields": {"name": "\u0433. \u041d\u0430\u0440\u0442\u043a\u0430\u043b\u0430", "postal_code": "361330", "region": 21}}, {"model": "cities.city", "pk": 241, "fields": {"name": "\u0433. \u041f\u0440\u043e\u0445\u043b\u0430\u0434\u043d\u044b\u0439", "postal_code": "361040", "region": 21}}, {"model": "cities.city", "pk": 242, "fields": {"name": "\u0433. \u0422\u0435\u0440\u0435\u043a", "postal_code": "361200", "region": 21}}, {"model": "cities.city", "pk": 243, "fields": {"name": "\u0433. \u0422\u044b\u0440\u043d\u044b\u0430\u0443\u0437", "postal_code": "361621", "region": 21}}, {"model": "cities.city", "pk": 244, "fields": {"name": "\u0433. \u0427\u0435\u0433\u0435\u043c", "postal_code": "361400", "region": 21}}, {"model": "cities.city", "pk": 245, "fields": {"name": "\u0433. \u0411\u0430\u0433\u0440\u0430\u0442\u0438\u043e\u043d\u043e\u0432\u0441\u043a", "postal_code": "238420", "region": 22}}, {"model": "cities.city", "pk": 246, "fields": {"name": "\u0433. \u0411\u0430\u043b\u0442\u0438\u0439\u0441\u043a", "postal_code": "238520", "region": 22}}, {"model": "cities.city", "pk": 247, "fields": {"name": "\u0433. \u0413\u0432\u0430\u0440\u0434\u0435\u0439\u0441\u043a", "postal_code": "238210", "region": 22}}, {"model": "cities.city", "pk": 248, "fields": {"name": "\u0433. \u0413\u0443\u0440\u044c\u0435\u0432\u0441\u043a", "postal_code": "238300", "region": 22}}, {"model": "cities.city", "pk": 249, "fields": {"name": "\u0433. \u0413\u0443\u0441\u0435\u0432", "postal_code": "238050", "region": 22}}, {"model": "cities.city", "pk": 250, "fields": {"name": "\u0433. \u0417\u0435\u043b\u0435\u043d\u043e\u0433\u0440\u0430\u0434\u0441\u043a", "postal_code": "238326", "region": 22}}, {"model": "cities.city", "pk": 251, "fields": {"name": "\u0433. \u041a\u0430\u043b\u0438\u043d\u0438\u043d\u0433\u0440\u0430\u0434", "postal_code": "236001", "region": 22}}, {"model": "cities.city", "pk": 252, "fields": {"name": "\u0433. \u041a\u0440\u0430\u0441\u043d\u043e\u0437\u043d\u0430\u043c\u0435\u043d\u0441\u043a", "postal_code": "238730", "region": 22}}, {"model": "cities.city", "pk": 253, "fields": {"name": "\u0433. \u041b\u0430\u0434\u0443\u0448\u043a\u0438\u043d", "postal_code": "238460", "region": 22}}, {"model": "cities.city", "pk": 254, "fields": {"name": "\u0433. \u041c\u0430\u043c\u043e\u043d\u043e\u0432\u043e", "postal_code": "238450", "region": 22}}, {"model": "cities.city", "pk": 255, "fields": {"name": "\u0433. \u041d\u0435\u043c\u0430\u043d", "postal_code": "238710", "region": 22}}, {"model": "cities.city", "pk": 256, "fields": {"name": "\u0433. \u041d\u0435\u0441\u0442\u0435\u0440\u043e\u0432", "postal_code": "238010", "region": 22}}, {"model": "cities.city", "pk": 257, "fields": {"name": "\u0433. \u041e\u0437\u0435\u0440\u0441\u043a", "postal_code": "238120", "region": 22}}, {"model": "cities.city", "pk": 258, "fields": {"name": "\u0433. \u041f\u0438\u043e\u043d\u0435\u0440\u0441\u043a\u0438\u0439", "postal_code": "238590", "region": 22}}, {"model": "cities.city", "pk": 259, "fields": {"name": "\u0433. \u041f\u043e\u043b\u0435\u0441\u0441\u043a", "postal_code": "238630", "region": 22}}, {"model": "cities.city", "pk": 260, "fields": {"name": "\u0433. \u041f\u0440\u0430\u0432\u0434\u0438\u043d\u0441\u043a", "postal_code": "238400", "region": 22}}, {"model": "cities.city", "pk": 261, "fields": {"name": "\u0433. \u041f\u0440\u0438\u043c\u043e\u0440\u0441\u043a", "postal_code": "238510", "region": 22}}, {"model": "cities.city", "pk": 262, "fields": {"name": "\u0433. \u0421\u0432\u0435\u0442\u043b\u043e\u0433\u043e\u0440\u0441\u043a", "postal_code": "238560", "region": 22}}, {"model": "cities.city", "pk": 263, "fields": {"name": "\u0433. \u0421\u0432\u0435\u0442\u043b\u044b\u0439", "postal_code": "238340", "region": 22}}, {"model": "cities.city", "pk": 264, "fields": {"name": "\u0433. \u0421\u043b\u0430\u0432\u0441\u043a", "postal_code": "238600", "region": 22}}, {"model": "cities.city", "pk": 265, "fields": {"name": "\u0433. \u0421\u043e\u0432\u0435\u0442\u0441\u043a", "postal_code": "238750", "region": 22}}, {"model": "cities.city", "pk": 266, "fields": {"name": "\u0433. \u0427\u0435\u0440\u043d\u044f\u0445\u043e\u0432\u0441\u043a", "postal_code": "238150", "region": 22}}, {"model": "cities.city", "pk": 267, "fields": {"name": "\u0433. \u0413\u043e\u0440\u043e\u0434\u043e\u0432\u0438\u043a\u043e\u0432\u0441\u043a", "postal_code": "359050", "region": 23}}, {"model": "cities.city", "pk": 268, "fields": {"name": "\u0433. \u041b\u0430\u0433\u0430\u043d\u044c", "postal_code": "359220", "region": 23}}, {"model": "cities.city", "pk": 269, "fields": {"name": "\u0433. \u042d\u043b\u0438\u0441\u0442\u0430", "postal_code": "358000", "region": 23}}, {"model": "cities.city", "pk": 270, "fields": {"name": "\u0433. \u0411\u0430\u043b\u0430\u0431\u0430\u043d\u043e\u0432\u043e", "postal_code": "249000", "region": 24}}, {"model": "cities.city", "pk": 271, "fields": {"name": "\u0433. \u0411\u0435\u043b\u043e\u0443\u0441\u043e\u0432\u043e", "postal_code": "249160", "region": 24}}, {"model": "cities.city", "pk": 272, "fields": {"name": "\u0433. \u0411\u043e\u0440\u043e\u0432\u0441\u043a", "postal_code": "249010", "region": 24}}, {"model": "cities.city", "pk": 273, "fields": {"name": "\u0433. \u0415\u0440\u043c\u043e\u043b\u0438\u043d\u043e", "postal_code": "249026", "region": 24}}, {"model": "cities.city", "pk": 274, "fields": {"name": "\u0433. \u0416\u0438\u0437\u0434\u0440\u0430", "postal_code": "249340", "region": 24}}, {"model": "cities.city", "pk": 275, "fields": {"name": "\u0433. \u0416\u0443\u043a\u043e\u0432", "postal_code": "249190", "region": 24}}, {"model": "cities.city", "pk": 276, "fields": {"name": "\u0433. \u041a\u0430\u043b\u0443\u0433\u0430", "postal_code": "248000", "region": 24}}, {"model": "cities.city", "pk": 277, "fields": {"name": "\u0433. \u041a\u0438\u0440\u043e\u0432", "postal_code": "249440", "region": 24}}, {"model": "cities.city", "pk": 278, "fields": {"name": "\u0433. \u041a\u043e\u0437\u0435\u043b\u044c\u0441\u043a", "postal_code": "249720", "region": 24}}, {"model": "cities.city", "pk": 279, "fields": {"name": "\u0433. \u041a\u043e\u043d\u0434\u0440\u043e\u0432\u043e", "postal_code": "249830", "region": 24}}, {"model": "cities.city", "pk": 280, "fields": {"name": "\u0433. \u041a\u0440\u0435\u043c\u0435\u043d\u043a\u0438", "postal_code": "249185", "region": 24}}, {"model": "cities.city", "pk": 281, "fields": {"name": "\u0433. \u041b\u044e\u0434\u0438\u043d\u043e\u0432\u043e", "postal_code": "249400", "region": 24}}, {"model": "cities.city", "pk": 282, "fields": {"name": "\u0433. \u041c\u0430\u043b\u043e\u044f\u0440\u043e\u0441\u043b\u0430\u0432\u0435\u0446", "postal_code": "249091", "region": 24}}, {"model": "cities.city", "pk": 283, "fields": {"name": "\u0433. \u041c\u0435\u0434\u044b\u043d\u044c", "postal_code": "249950", "region": 24}}, {"model": "cities.city", "pk": 284, "fields": {"name": "\u0433. \u041c\u0435\u0449\u043e\u0432\u0441\u043a", "postal_code": "249240", "region": 24}}, {"model": "cities.city", "pk": 285, "fields": {"name": "\u0433. \u041c\u043e\u0441\u0430\u043b\u044c\u0441\u043a", "postal_code": "249930", "region": 24}}, {"model": "cities.city", "pk": 286, "fields": {"name": "\u0433. \u041e\u0431\u043d\u0438\u043d\u0441\u043a", "postal_code": "249030", "region": 24}}, {"model": "cities.city", "pk": 287, "fields": {"name": "\u0433. \u0421\u043e\u0441\u0435\u043d\u0441\u043a\u0438\u0439", "postal_code": "249710", "region": 24}}, {"model": "cities.city", "pk": 288, "fields": {"name": "\u0433. \u0421\u043f\u0430\u0441-\u0414\u0435\u043c\u0435\u043d\u0441\u043a", "postal_code": "249610", "region": 24}}, {"model": "cities.city", "pk": 289, "fields": {"name": "\u0433. \u0421\u0443\u0445\u0438\u043d\u0438\u0447\u0438", "postal_code": "249270", "region": 24}}, {"model": "cities.city", "pk": 290, "fields": {"name": "\u0433. \u0422\u0430\u0440\u0443\u0441\u0430", "postal_code": "249100", "region": 24}}, {"model": "cities.city", "pk": 291, "fields": {"name": "\u0433. \u042e\u0445\u043d\u043e\u0432", "postal_code": "249910", "region": 24}}, {"model": "cities.city", "pk": 292, "fields": {"name": "\u0433. \u0412\u0438\u043b\u044e\u0447\u0438\u043d\u0441\u043a", "postal_code": "684090", "region": 25}}, {"model": "cities.city", "pk": 293, "fields": {"name": "\u0433. \u0415\u043b\u0438\u0437\u043e\u0432\u043e", "postal_code": "684000", "region": 25}}, {"model": "cities.city", "pk": 294, "fields": {"name": "\u0433. \u041f\u0435\u0442\u0440\u043e\u043f\u0430\u0432\u043b\u043e\u0432\u0441\u043a-\u041a\u0430\u043c\u0447\u0430\u0442\u0441\u043a\u0438\u0439", "postal_code": "683000", "region": 25}}, {"model": "cities.city", "pk": 295, "fields": {"name": "\u0433. \u041a\u0430\u0440\u0430\u0447\u0430\u0435\u0432\u0441\u043a", "postal_code": "369200", "region": 26}}, {"model": "cities.city", "pk": 296, "fields": {"name": "\u0433. \u0422\u0435\u0431\u0435\u0440\u0434\u0430", "postal_code": "369212", "region": 26}}, {"model": "cities.city", "pk": 297, "fields": {"name": "\u0433. \u0423\u0441\u0442\u044c-\u0414\u0436\u0435\u0433\u0443\u0442\u0430", "postal_code": "369300", "region": 26}}, {"model": "cities.city", "pk": 298, "fields": {"name": "\u0433. \u0427\u0435\u0440\u043a\u0435\u0441\u0441\u043a", "postal_code": "369000", "region": 26}}, {"model": "cities.city", "pk": 299, "fields": {"name": "\u0433. \u0411\u0435\u043b\u043e\u043c\u043e\u0440\u0441\u043a", "postal_code": "186500", "region": 27}}, {"model": "cities.city", "pk": 300, "fields": {"name": "\u0433. \u041a\u0435\u043c\u044c", "postal_code": "186610", "region": 27}}, {"model": "cities.city", "pk": 301, "fields": {"name": "\u0433. \u041a\u043e\u043d\u0434\u043e\u043f\u043e\u0433\u0430", "postal_code": "186220", "region": 27}}, {"model": "cities.city", "pk": 302, "fields": {"name": "\u0433. \u041a\u043e\u0441\u0442\u043e\u043c\u0443\u043a\u0448\u0430", "postal_code": "186930", "region": 27}}, {"model": "cities.city", "pk": 303, "fields": {"name": "\u0433. \u041b\u0430\u0445\u0434\u0435\u043d\u043f\u043e\u0445\u044c\u044f", "postal_code": "186730", "region": 27}}, {"model": "cities.city", "pk": 304, "fields": {"name": "\u0433. \u041c\u0435\u0434\u0432\u0435\u0436\u044c\u0435\u0433\u043e\u0440\u0441\u043a", "postal_code": "186350", "region": 27}}, {"model": "cities.city", "pk": 305, "fields": {"name": "\u0433. \u041e\u043b\u043e\u043d\u0435\u0446", "postal_code": "186000", "region": 27}}, {"model": "cities.city", "pk": 306, "fields": {"name": "\u0433. \u041f\u0435\u0442\u0440\u043e\u0437\u0430\u0432\u043e\u0434\u0441\u043a", "postal_code": "185000", "region": 27}}, {"model": "cities.city", "pk": 307, "fields": {"name": "\u0433. \u041f\u0438\u0442\u043a\u044f\u0440\u0430\u043d\u0442\u0430", "postal_code": "186810", "region": 27}}, {"model": "cities.city", "pk": 308, "fields": {"name": "\u0433. \u041f\u0443\u0434\u043e\u0436", "postal_code": "186150", "region": 27}}, {"model": "cities.city", "pk": 309, "fields": {"name": "\u0433. \u0421\u0435\u0433\u0435\u0436\u0430", "postal_code": "186420", "region": 27}}, {"model": "cities.city", "pk": 310, "fields": {"name": "\u0433. \u0421\u043e\u0440\u0442\u0430\u0432\u0430\u043b\u0430", "postal_code": "186790", "region": 27}}, {"model": "cities.city", "pk": 311, "fields": {"name": "\u0433. \u0421\u0443\u043e\u044f\u0440\u0432\u0438", "postal_code": "186870", "region": 27}}, {"model": "cities.city", "pk": 312, "fields": {"name": "\u0433. \u0410\u043d\u0436\u0435\u0440\u043e-\u0421\u0443\u0434\u0436\u0435\u043d\u0441\u043a", "postal_code": "652470", "region": 28}}, {"model": "cities.city", "pk": 313, "fields": {"name": "\u0433. \u0411\u0435\u043b\u043e\u0432\u043e", "postal_code": "652600", "region": 28}}, {"model": "cities.city", "pk": 314, "fields": {"name": "\u0433. \u0411\u0435\u0440\u0435\u0437\u043e\u0432\u0441\u043a\u0438\u0439", "postal_code": "652420", "region": 28}}, {"model": "cities.city", "pk": 315, "fields": {"name": "\u0433. \u0413\u0443\u0440\u044c\u0435\u0432\u0441\u043a", "postal_code": "652780", "region": 28}}, {"model": "cities.city", "pk": 316, "fields": {"name": "\u0433. \u041a\u0430\u043b\u0442\u0430\u043d", "postal_code": "652740", "region": 28}}, {"model": "cities.city", "pk": 317, "fields": {"name": "\u0433. \u041a\u0435\u043c\u0435\u0440\u043e\u0432\u043e", "postal_code": "650000", "region": 28}}, {"model": "cities.city", "pk": 318, "fields": {"name": "\u0433. \u041a\u0438\u0441\u0435\u043b\u0435\u0432\u0441\u043a", "postal_code": "652700", "region": 28}}, {"model": "cities.city", "pk": 319, "fields": {"name": "\u0433. \u041b\u0435\u043d\u0438\u043d\u0441\u043a-\u041a\u0443\u0437\u043d\u0435\u0446\u043a\u0438\u0439", "postal_code": "652500", "region": 28}}, {"model": "cities.city", "pk": 320, "fields": {"name": "\u0433. \u041c\u0430\u0440\u0438\u0438\u043d\u0441\u043a", "postal_code": "652150", "region": 28}}, {"model": "cities.city", "pk": 321, "fields": {"name": "\u0433. \u041c\u0435\u0436\u0434\u0443\u0440\u0435\u0447\u0435\u043d\u0441\u043a", "postal_code": "652870", "region": 28}}, {"model": "cities.city", "pk": 322, "fields": {"name": "\u0433. \u041c\u044b\u0441\u043a\u0438", "postal_code": "652840", "region": 28}}, {"model": "cities.city", "pk": 323, "fields": {"name": "\u0433. \u041d\u043e\u0432\u043e\u043a\u0443\u0437\u043d\u0435\u0446\u043a", "postal_code": "654000", "region": 28}}, {"model": "cities.city", "pk": 324, "fields": {"name": "\u0433. \u041e\u0441\u0438\u043d\u043d\u0438\u043a\u0438", "postal_code": "652800", "region": 28}}, {"model": "cities.city", "pk": 325, "fields": {"name": "\u0433. \u041f\u043e\u043b\u044b\u0441\u0430\u0435\u0432\u043e", "postal_code": "652560", "region": 28}}, {"model": "cities.city", "pk": 326, "fields": {"name": "\u0433. \u041f\u0440\u043e\u043a\u043e\u043f\u044c\u0435\u0432\u0441\u043a", "postal_code": "652701", "region": 28}}, {"model": "cities.city", "pk": 327, "fields": {"name": "\u0433. \u0421\u0430\u043b\u0430\u0438\u0440", "postal_code": "652770", "region": 28}}, {"model": "cities.city", "pk": 328, "fields": {"name": "\u0433. \u0422\u0430\u0439\u0433\u0430", "postal_code": "652400", "region": 28}}, {"model": "cities.city", "pk": 329, "fields": {"name": "\u0433. \u0422\u0430\u0448\u0442\u0430\u0433\u043e\u043b", "postal_code": "652990", "region": 28}}, {"model": "cities.city", "pk": 330, "fields": {"name": "\u0433. \u0422\u043e\u043f\u043a\u0438", "postal_code": "652300", "region": 28}}, {"model": "cities.city", "pk": 331, "fields": {"name": "\u0433. \u042e\u0440\u0433\u0430", "postal_code": "652050", "region": 28}}, {"model": "cities.city", "pk": 332, "fields": {"name": "\u0433. \u0411\u0435\u043b\u0430\u044f \u0425\u043e\u043b\u0443\u043d\u0438\u0446\u0430", "postal_code": "613200", "region": 29}}, {"model": "cities.city", "pk": 333, "fields": {"name": "\u0433. \u0412\u044f\u0442\u0441\u043a\u0438\u0435 \u041f\u043e\u043b\u044f\u043d\u044b", "postal_code": "612960", "region": 29}}, {"model": "cities.city", "pk": 334, "fields": {"name": "\u0433. \u0417\u0443\u0435\u0432\u043a\u0430", "postal_code": "612410", "region": 29}}, {"model": "cities.city", "pk": 335, "fields": {"name": "\u0433. \u041a\u0438\u0440\u043e\u0432", "postal_code": "610000", "region": 29}}, {"model": "cities.city", "pk": 336, "fields": {"name": "\u0433. \u041a\u0438\u0440\u043e\u0432\u043e-\u0427\u0435\u043f\u0435\u0446\u043a", "postal_code": "613040", "region": 29}}, {"model": "cities.city", "pk": 337, "fields": {"name": "\u0433. \u041a\u0438\u0440\u0441", "postal_code": "612820", "region": 29}}, {"model": "cities.city", "pk": 338, "fields": {"name": "\u0433. \u041a\u043e\u0442\u0435\u043b\u044c\u043d\u0438\u0447", "postal_code": "612600", "region": 29}}, {"model": "cities.city", "pk": 339, "fields": {"name": "\u0433. \u041b\u0443\u0437\u0430", "postal_code": "613980", "region": 29}}, {"model": "cities.city", "pk": 340, "fields": {"name": "\u0433. \u041c\u0430\u043b\u043c\u044b\u0436", "postal_code": "612920", "region": 29}}, {"model": "cities.city", "pk": 341, "fields": {"name": "\u0433. \u041c\u0443\u0440\u0430\u0448\u0438", "postal_code": "613710", "region": 29}}, {"model": "cities.city", "pk": 342, "fields": {"name": "\u0433. \u041d\u043e\u043b\u0438\u043d\u0441\u043a", "postal_code": "613440", "region": 29}}, {"model": "cities.city", "pk": 343, "fields": {"name": "\u0433. \u041e\u043c\u0443\u0442\u043d\u0438\u043d\u0441\u043a", "postal_code": "612740", "region": 29}}, {"model": "cities.city", "pk": 344, "fields": {"name": "\u0433. \u041e\u0440\u043b\u043e\u0432", "postal_code": "612270", "region": 29}}, {"model": "cities.city", "pk": 345, "fields": {"name": "\u0433. \u0421\u043b\u043e\u0431\u043e\u0434\u0441\u043a\u043e\u0439", "postal_code": "613150", "region": 29}}, {"model": "cities.city", "pk": 346, "fields": {"name": "\u0433. \u0421\u043e\u0432\u0435\u0442\u0441\u043a", "postal_code": "613341", "region": 29}}, {"model": "cities.city", "pk": 347, "fields": {"name": "\u0433. \u0421\u043e\u0441\u043d\u043e\u0432\u043a\u0430", "postal_code": "612990", "region": 29}}, {"model": "cities.city", "pk": 348, "fields": {"name": "\u0433. \u0423\u0440\u0436\u0443\u043c", "postal_code": "613530", "region": 29}}, {"model": "cities.city", "pk": 349, "fields": {"name": "\u0433. \u042f\u0440\u0430\u043d\u0441\u043a", "postal_code": "612260", "region": 29}}, {"model": "cities.city", "pk": 350, "fields": {"name": "\u0433. \u0412\u043e\u0440\u043a\u0443\u0442\u0430", "postal_code": "169900", "region": 30}}, {"model": "cities.city", "pk": 351, "fields": {"name": "\u0433. \u0412\u0443\u043a\u0442\u044b\u043b", "postal_code": "169570", "region": 30}}, {"model": "cities.city", "pk": 352, "fields": {"name": "\u0433. \u0415\u043c\u0432\u0430", "postal_code": "169200", "region": 30}}, {"model": "cities.city", "pk": 353, "fields": {"name": "\u0433. \u0418\u043d\u0442\u0430", "postal_code": "169840", "region": 30}}, {"model": "cities.city", "pk": 354, "fields": {"name": "\u0433. \u041c\u0438\u043a\u0443\u043d\u044c", "postal_code": "169060", "region": 30}}, {"model": "cities.city", "pk": 355, "fields": {"name": "\u0433. \u041f\u0435\u0447\u043e\u0440\u0430", "postal_code": "169600", "region": 30}}, {"model": "cities.city", "pk": 356, "fields": {"name": "\u0433. \u0421\u043e\u0441\u043d\u043e\u0433\u043e\u0440\u0441\u043a", "postal_code": "169500", "region": 30}}, {"model": "cities.city", "pk": 357, "fields": {"name": "\u0433. \u0421\u044b\u043a\u0442\u044b\u0432\u043a\u0430\u0440", "postal_code": "167000", "region": 30}}, {"model": "cities.city", "pk": 358, "fields": {"name": "\u0433. \u0423\u0441\u0438\u043d\u0441\u043a", "postal_code": "169710", "region": 30}}, {"model": "cities.city", "pk": 359, "fields": {"name": "\u0433. \u0423\u0445\u0442\u0430", "postal_code": "169300", "region": 30}}, {"model": "cities.city", "pk": 360, "fields": {"name": "\u0433. \u0411\u0443\u0439", "postal_code": "157000", "region": 31}}, {"model": "cities.city", "pk": 361, "fields": {"name": "\u0433. \u0412\u043e\u043b\u0433\u043e\u0440\u0435\u0447\u0435\u043d\u0441\u043a", "postal_code": "156901", "region": 31}}, {"model": "cities.city", "pk": 362, "fields": {"name": "\u0433. \u0413\u0430\u043b\u0438\u0447", "postal_code": "157200", "region": 31}}, {"model": "cities.city", "pk": 363, "fields": {"name": "\u0433. \u041a\u043e\u043b\u043e\u0433\u0440\u0438\u0432", "postal_code": "157440", "region": 31}}, {"model": "cities.city", "pk": 364, "fields": {"name": "\u0433. \u041a\u043e\u0441\u0442\u0440\u043e\u043c\u0430", "postal_code": "156000", "region": 31}}, {"model": "cities.city", "pk": 365, "fields": {"name": "\u0433. \u041c\u0430\u043a\u0430\u0440\u044c\u0435\u0432", "postal_code": "157460", "region": 31}}, {"model": "cities.city", "pk": 366, "fields": {"name": "\u0433. \u041c\u0430\u043d\u0442\u0443\u0440\u043e\u0432\u043e", "postal_code": "157300", "region": 31}}, {"model": "cities.city", "pk": 367, "fields": {"name": "\u0433. \u041d\u0435\u0440\u0435\u0445\u0442\u0430", "postal_code": "157800", "region": 31}}, {"model": "cities.city", "pk": 368, "fields": {"name": "\u0433. \u041d\u0435\u044f", "postal_code": "157331", "region": 31}}, {"model": "cities.city", "pk": 369, "fields": {"name": "\u0433. \u0421\u043e\u043b\u0438\u0433\u0430\u043b\u0438\u0447", "postal_code": "157170", "region": 31}}, {"model": "cities.city", "pk": 370, "fields": {"name": "\u0433. \u0427\u0443\u0445\u043b\u043e\u043c\u0430", "postal_code": "157130", "region": 31}}, {"model": "cities.city", "pk": 371, "fields": {"name": "\u0433. \u0428\u0430\u0440\u044c\u044f", "postal_code": "157500", "region": 31}}, {"model": "cities.city", "pk": 372, "fields": {"name": "\u0433. \u0410\u0431\u0438\u043d\u0441\u043a", "postal_code": "353320", "region": 32}}, {"model": "cities.city", "pk": 373, "fields": {"name": "\u0433. \u0410\u043d\u0430\u043f\u0430", "postal_code": "353440", "region": 32}}, {"model": "cities.city", "pk": 374, "fields": {"name": "\u0433. \u0410\u043f\u0448\u0435\u0440\u043e\u043d\u0441\u043a", "postal_code": "352690", "region": 32}}, {"model": "cities.city", "pk": 375, "fields": {"name": "\u0433. \u0410\u0440\u043c\u0430\u0432\u0438\u0440", "postal_code": "352900", "region": 32}}, {"model": "cities.city", "pk": 376, "fields": {"name": "\u0433. \u0411\u0435\u043b\u043e\u0440\u0435\u0447\u0435\u043d\u0441\u043a", "postal_code": "352630", "region": 32}}, {"model": "cities.city", "pk": 377, "fields": {"name": "\u0433. \u0413\u0435\u043b\u0435\u043d\u0434\u0436\u0438\u043a", "postal_code": "353460", "region": 32}}, {"model": "cities.city", "pk": 378, "fields": {"name": "\u0433. \u0413\u043e\u0440\u044f\u0447\u0438\u0439 \u041a\u043b\u044e\u0447", "postal_code": "353288", "region": 32}}, {"model": "cities.city", "pk": 379, "fields": {"name": "\u0433. \u0413\u0443\u043b\u044c\u043a\u0435\u0432\u0438\u0447\u0438", "postal_code": "352190", "region": 32}}, {"model": "cities.city", "pk": 380, "fields": {"name": "\u0433. \u0415\u0439\u0441\u043a", "postal_code": "353680", "region": 32}}, {"model": "cities.city", "pk": 381, "fields": {"name": "\u0433. \u041a\u043e\u0440\u0435\u043d\u043e\u0432\u0441\u043a", "postal_code": "353180", "region": 32}}, {"model": "cities.city", "pk": 382, "fields": {"name": "\u0433. \u041a\u0440\u0430\u0441\u043d\u043e\u0434\u0430\u0440", "postal_code": "350000", "region": 32}}, {"model": "cities.city", "pk": 383, "fields": {"name": "\u0433. \u041a\u0440\u043e\u043f\u043e\u0442\u043a\u0438\u043d", "postal_code": "352380", "region": 32}}, {"model": "cities.city", "pk": 384, "fields": {"name": "\u0433. \u041a\u0440\u044b\u043c\u0441\u043a", "postal_code": "353380", "region": 32}}, {"model": "cities.city", "pk": 385, "fields": {"name": "\u0433. \u041a\u0443\u0440\u0433\u0430\u043d\u0438\u043d\u0441\u043a", "postal_code": "352430", "region": 32}}, {"model": "cities.city", "pk": 386, "fields": {"name": "\u0433. \u041b\u0430\u0431\u0438\u043d\u0441\u043a", "postal_code": "352500", "region": 32}}, {"model": "cities.city", "pk": 387, "fields": {"name": "\u0433. \u041d\u043e\u0432\u043e\u043a\u0443\u0431\u0430\u043d\u0441\u043a", "postal_code": "352240", "region": 32}}, {"model": "cities.city", "pk": 388, "fields": {"name": "\u0433. \u041d\u043e\u0432\u043e\u0440\u043e\u0441\u0441\u0438\u0439\u0441\u043a", "postal_code": "353900", "region": 32}}, {"model": "cities.city", "pk": 389, "fields": {"name": "\u0433. \u041f\u0440\u0438\u043c\u043e\u0440\u0441\u043a\u043e-\u0410\u0445\u0442\u0430\u0440\u0441\u043a", "postal_code": "353860", "region": 32}}, {"model": "cities.city", "pk": 390, "fields": {"name": "\u0433. \u0421\u043b\u0430\u0432\u044f\u043d\u0441\u043a-\u043d\u0430-\u041a\u0443\u0431\u0430\u043d\u0438", "postal_code": "353560", "region": 32}}, {"model": "cities.city", "pk": 391, "fields": {"name": "\u0433. \u0421\u043e\u0447\u0438", "postal_code": "354000", "region": 32}}, {"model": "cities.city", "pk": 392, "fields": {"name": "\u0433. \u0422\u0435\u043c\u0440\u044e\u043a", "postal_code": "353500", "region": 32}}, {"model": "cities.city", "pk": 393, "fields": {"name": "\u0433. \u0422\u0438\u043c\u0430\u0448\u0435\u0432\u0441\u043a", "postal_code": "352700", "region": 32}}, {"model": "cities.city", "pk": 394, "fields": {"name": "\u0433. \u0422\u0438\u0445\u043e\u0440\u0435\u0446\u043a", "postal_code": "352120", "region": 32}}, {"model": "cities.city", "pk": 395, "fields": {"name": "\u0433. \u0422\u0443\u0430\u043f\u0441\u0435", "postal_code": "352800", "region": 32}}, {"model": "cities.city", "pk": 396, "fields": {"name": "\u0433. \u0423\u0441\u0442\u044c-\u041b\u0430\u0431\u0438\u043d\u0441\u043a", "postal_code": "352330", "region": 32}}, {"model": "cities.city", "pk": 397, "fields": {"name": "\u0433. \u0425\u0430\u0434\u044b\u0436\u0435\u043d\u0441\u043a", "postal_code": "352680", "region": 32}}, {"model": "cities.city", "pk": 398, "fields": {"name": "\u0433. \u0410\u0440\u0442\u0435\u043c\u043e\u0432\u0441\u043a", "postal_code": "662951", "region": 33}}, {"model": "cities.city", "pk": 399, "fields": {"name": "\u0433. \u0410\u0447\u0438\u043d\u0441\u043a", "postal_code": "662150", "region": 33}}, {"model": "cities.city", "pk": 400, "fields": {"name": "\u0433. \u0411\u043e\u0433\u043e\u0442\u043e\u043b", "postal_code": "662060", "region": 33}}, {"model": "cities.city", "pk": 401, "fields": {"name": "\u0433. \u0411\u043e\u0440\u043e\u0434\u0438\u043d\u043e", "postal_code": "663980", "region": 33}}, {"model": "cities.city", "pk": 402, "fields": {"name": "\u0433. \u0414\u0438\u0432\u043d\u043e\u0433\u043e\u0440\u0441\u043a", "postal_code": "663081", "region": 33}}, {"model": "cities.city", "pk": 403, "fields": {"name": "\u0433. \u0414\u0443\u0434\u0438\u043d\u043a\u0430", "postal_code": "647000", "region": 33}}, {"model": "cities.city", "pk": 404, "fields": {"name": "\u0433. \u0415\u043d\u0438\u0441\u0435\u0439\u0441\u043a", "postal_code": "663150", "region": 33}}, {"model": "cities.city", "pk": 405, "fields": {"name": "\u0433. \u0416\u0435\u043b\u0435\u0437\u043d\u043e\u0433\u043e\u0440\u0441\u043a", "postal_code": "662970", "region": 33}}, {"model": "cities.city", "pk": 406, "fields": {"name": "\u0433. \u0417\u0430\u043e\u0437\u0435\u0440\u043d\u044b\u0439", "postal_code": "663960", "region": 33}}, {"model": "cities.city", "pk": 407, "fields": {"name": "\u0433. \u0417\u0435\u043b\u0435\u043d\u043e\u0433\u043e\u0440\u0441\u043a", "postal_code": "663690", "region": 33}}, {"model": "cities.city", "pk": 408, "fields": {"name": "\u0433. \u0418\u0433\u0430\u0440\u043a\u0430", "postal_code": "663200", "region": 33}}, {"model": "cities.city", "pk": 409, "fields": {"name": "\u0433. \u0418\u043b\u0430\u043d\u0441\u043a\u0438\u0439", "postal_code": "663800", "region": 33}}, {"model": "cities.city", "pk": 410, "fields": {"name": "\u0433. \u041a\u0430\u043d\u0441\u043a", "postal_code": "663600", "region": 33}}, {"model": "cities.city", "pk": 411, "fields": {"name": "\u0433. \u041a\u043e\u0434\u0438\u043d\u0441\u043a", "postal_code": "663491", "region": 33}}, {"model": "cities.city", "pk": 412, "fields": {"name": "\u0433. \u041a\u0440\u0430\u0441\u043d\u043e\u044f\u0440\u0441\u043a", "postal_code": "660000", "region": 33}}, {"model": "cities.city", "pk": 413, "fields": {"name": "\u0433. \u041b\u0435\u0441\u043e\u0441\u0438\u0431\u0438\u0440\u0441\u043a", "postal_code": "662541", "region": 33}}, {"model": "cities.city", "pk": 414, "fields": {"name": "\u0433. \u041c\u0438\u043d\u0443\u0441\u0438\u043d\u0441\u043a", "postal_code": "662600", "region": 33}}, {"model": "cities.city", "pk": 415, "fields": {"name": "\u0433. \u041d\u0430\u0437\u0430\u0440\u043e\u0432\u043e", "postal_code": "662200", "region": 33}}, {"model": "cities.city", "pk": 416, "fields": {"name": "\u0433. \u041d\u043e\u0440\u0438\u043b\u044c\u0441\u043a", "postal_code": "663300", "region": 33}}, {"model": "cities.city", "pk": 417, "fields": {"name": "\u0433. \u0421\u043e\u0441\u043d\u043e\u0432\u043e\u0431\u043e\u0440\u0441\u043a", "postal_code": "662500", "region": 33}}, {"model": "cities.city", "pk": 418, "fields": {"name": "\u0433. \u0423\u0436\u0443\u0440", "postal_code": "662251", "region": 33}}, {"model": "cities.city", "pk": 419, "fields": {"name": "\u0433. \u0423\u044f\u0440", "postal_code": "663920", "region": 33}}, {"model": "cities.city", "pk": 420, "fields": {"name": "\u0433. \u0428\u0430\u0440\u044b\u043f\u043e\u0432\u043e", "postal_code": "662310", "region": 33}}, {"model": "cities.city", "pk": 421, "fields": {"name": "\u0433. \u042f\u043b\u0442\u0430", "postal_code": "298676", "region": 34}}, {"model": "cities.city", "pk": 422, "fields": {"name": "\u0433. \u0410\u043b\u0443\u0448\u0442\u0430", "postal_code": "298500", "region": 34}}, {"model": "cities.city", "pk": 423, "fields": {"name": "\u0433. \u0410\u0440\u043c\u044f\u043d\u0441\u043a", "postal_code": "296012", "region": 34}}, {"model": "cities.city", "pk": 424, "fields": {"name": "\u0433. \u0411\u0430\u0445\u0447\u0438\u0441\u0430\u0440\u0430\u0439", "postal_code": "298400", "region": 34}}, {"model": "cities.city", "pk": 425, "fields": {"name": "\u0433. \u0411\u0435\u043b\u043e\u0433\u043e\u0440\u0441\u043a", "postal_code": "297600", "region": 34}}, {"model": "cities.city", "pk": 426, "fields": {"name": "\u0433. \u0414\u0436\u0430\u043d\u043a\u043e\u0439", "postal_code": "296100", "region": 34}}, {"model": "cities.city", "pk": 427, "fields": {"name": "\u0433. \u0415\u0432\u043f\u0430\u0442\u043e\u0440\u0438\u044f", "postal_code": "297402", "region": 34}}, {"model": "cities.city", "pk": 428, "fields": {"name": "\u0433. \u041a\u0435\u0440\u0447\u044c", "postal_code": "298300", "region": 34}}, {"model": "cities.city", "pk": 429, "fields": {"name": "\u0433. \u041a\u0440\u0430\u0441\u043d\u043e\u043f\u0435\u0440\u0435\u043a\u043e\u043f\u0441\u043a", "postal_code": "296000", "region": 34}}, {"model": "cities.city", "pk": 430, "fields": {"name": "\u0433. \u0421\u0430\u043a\u0438", "postal_code": "296500", "region": 34}}, {"model": "cities.city", "pk": 431, "fields": {"name": "\u0433. \u0421\u0438\u043c\u0444\u0435\u0440\u043e\u043f\u043e\u043b\u044c", "postal_code": "295000", "region": 34}}, {"model": "cities.city", "pk": 432, "fields": {"name": "\u0433. \u0421\u0442\u0430\u0440\u044b\u0439 \u041a\u0440\u044b\u043c", "postal_code": "297345", "region": 34}}, {"model": "cities.city", "pk": 433, "fields": {"name": "\u0433. \u0421\u0443\u0434\u0430\u043a", "postal_code": "298000", "region": 34}}, {"model": "cities.city", "pk": 434, "fields": {"name": "\u0433. \u0424\u0435\u043e\u0434\u043e\u0441\u0438\u044f", "postal_code": "298100", "region": 34}}, {"model": "cities.city", "pk": 435, "fields": {"name": "\u0433. \u0429\u0435\u043b\u043a\u0438\u043d\u043e", "postal_code": "298213", "region": 34}}, {"model": "cities.city", "pk": 436, "fields": {"name": "\u0433. \u042f\u043b\u0442\u0430", "postal_code": "298600", "region": 34}}, {"model": "cities.city", "pk": 437, "fields": {"name": "\u0433. \u0414\u0430\u043b\u043c\u0430\u0442\u043e\u0432\u043e", "postal_code": "641730", "region": 35}}, {"model": "cities.city", "pk": 438, "fields": {"name": "\u0433. \u041a\u0430\u0442\u0430\u0439\u0441\u043a", "postal_code": "641700", "region": 35}}, {"model": "cities.city", "pk": 439, "fields": {"name": "\u0433. \u041a\u0443\u0440\u0433\u0430\u043d", "postal_code": "640002", "region": 35}}, {"model": "cities.city", "pk": 440, "fields": {"name": "\u0433. \u041a\u0443\u0440\u0442\u0430\u043c\u044b\u0448", "postal_code": "641430", "region": 35}}, {"model": "cities.city", "pk": 441, "fields": {"name": "\u0433. \u041c\u0430\u043a\u0443\u0448\u0438\u043d\u043e", "postal_code": "641600", "region": 35}}, {"model": "cities.city", "pk": 442, "fields": {"name": "\u0433. \u041f\u0435\u0442\u0443\u0445\u043e\u0432\u043e", "postal_code": "641640", "region": 35}}, {"model": "cities.city", "pk": 443, "fields": {"name": "\u0433. \u0428\u0430\u0434\u0440\u0438\u043d\u0441\u043a", "postal_code": "641870", "region": 35}}, {"model": "cities.city", "pk": 444, "fields": {"name": "\u0433. \u0428\u0443\u043c\u0438\u0445\u0430", "postal_code": "641100", "region": 35}}, {"model": "cities.city", "pk": 445, "fields": {"name": "\u0433. \u0429\u0443\u0447\u044c\u0435", "postal_code": "641010", "region": 35}}, {"model": "cities.city", "pk": 446, "fields": {"name": "\u0433. \u0414\u043c\u0438\u0442\u0440\u0438\u0435\u0432", "postal_code": "307500", "region": 36}}, {"model": "cities.city", "pk": 447, "fields": {"name": "\u0433. \u0416\u0435\u043b\u0435\u0437\u043d\u043e\u0433\u043e\u0440\u0441\u043a", "postal_code": "307170", "region": 36}}, {"model": "cities.city", "pk": 448, "fields": {"name": "\u0433. \u041a\u0443\u0440\u0441\u043a", "postal_code": "305000", "region": 36}}, {"model": "cities.city", "pk": 449, "fields": {"name": "\u0433. \u041a\u0443\u0440\u0447\u0430\u0442\u043e\u0432", "postal_code": "307250", "region": 36}}, {"model": "cities.city", "pk": 450, "fields": {"name": "\u0433. \u041b\u044c\u0433\u043e\u0432", "postal_code": "307750", "region": 36}}, {"model": "cities.city", "pk": 451, "fields": {"name": "\u0433. \u041e\u0431\u043e\u044f\u043d\u044c", "postal_code": "306230", "region": 36}}, {"model": "cities.city", "pk": 452, "fields": {"name": "\u0433. \u0420\u044b\u043b\u044c\u0441\u043a", "postal_code": "307370", "region": 36}}, {"model": "cities.city", "pk": 453, "fields": {"name": "\u0433. \u0421\u0443\u0434\u0436\u0430", "postal_code": "307800", "region": 36}}, {"model": "cities.city", "pk": 454, "fields": {"name": "\u0433. \u0424\u0430\u0442\u0435\u0436", "postal_code": "307100", "region": 36}}, {"model": "cities.city", "pk": 455, "fields": {"name": "\u0433. \u0429\u0438\u0433\u0440\u044b", "postal_code": "306509", "region": 36}}, {"model": "cities.city", "pk": 456, "fields": {"name": "\u0433. \u0411\u043e\u043a\u0441\u0438\u0442\u043e\u0433\u043e\u0440\u0441\u043a", "postal_code": "187650", "region": 37}}, {"model": "cities.city", "pk": 457, "fields": {"name": "\u0433. \u0412\u043e\u043b\u043e\u0441\u043e\u0432\u043e", "postal_code": "188410", "region": 37}}, {"model": "cities.city", "pk": 458, "fields": {"name": "\u0433. \u0412\u043e\u043b\u0445\u043e\u0432", "postal_code": "187401", "region": 37}}, {"model": "cities.city", "pk": 459, "fields": {"name": "\u0433. \u0412\u0441\u0435\u0432\u043e\u043b\u043e\u0436\u0441\u043a", "postal_code": "188640", "region": 37}}, {"model": "cities.city", "pk": 460, "fields": {"name": "\u0433. \u0412\u044b\u0431\u043e\u0440\u0433", "postal_code": "188800", "region": 37}}, {"model": "cities.city", "pk": 461, "fields": {"name": "\u0433. \u0412\u044b\u0441\u043e\u0446\u043a", "postal_code": "188909", "region": 37}}, {"model": "cities.city", "pk": 462, "fields": {"name": "\u0433. \u0413\u0430\u0442\u0447\u0438\u043d\u0430", "postal_code": "188300", "region": 37}}, {"model": "cities.city", "pk": 463, "fields": {"name": "\u0433. \u0418\u0432\u0430\u043d\u0433\u043e\u0440\u043e\u0434", "postal_code": "188490", "region": 37}}, {"model": "cities.city", "pk": 464, "fields": {"name": "\u0433. \u041a\u0430\u043c\u0435\u043d\u043d\u043e\u0433\u043e\u0440\u0441\u043a", "postal_code": "188950", "region": 37}}, {"model": "cities.city", "pk": 465, "fields": {"name": "\u0433. \u041a\u0438\u043d\u0433\u0438\u0441\u0435\u043f\u043f", "postal_code": "188455", "region": 37}}, {"model": "cities.city", "pk": 466, "fields": {"name": "\u0433. \u041a\u0438\u0440\u0438\u0448\u0438", "postal_code": "187110", "region": 37}}, {"model": "cities.city", "pk": 467, "fields": {"name": "\u0433. \u041a\u0438\u0440\u043e\u0432\u0441\u043a", "postal_code": "187340", "region": 37}}, {"model": "cities.city", "pk": 468, "fields": {"name": "\u0433. \u041a\u043e\u043c\u043c\u0443\u043d\u0430\u0440", "postal_code": "188320", "region": 37}}, {"model": "cities.city", "pk": 469, "fields": {"name": "\u0433. \u041a\u0443\u0434\u0440\u043e\u0432\u043e", "postal_code": "188691", "region": 37}}, {"model": "cities.city", "pk": 470, "fields": {"name": "\u0433. \u041b\u043e\u0434\u0435\u0439\u043d\u043e\u0435 \u041f\u043e\u043b\u0435", "postal_code": "187700", "region": 37}}, {"model": "cities.city", "pk": 471, "fields": {"name": "\u0433. \u041b\u0443\u0433\u0430", "postal_code": "188230", "region": 37}}, {"model": "cities.city", "pk": 472, "fields": {"name": "\u0433. \u041b\u044e\u0431\u0430\u043d\u044c", "postal_code": "187050", "region": 37}}, {"model": "cities.city", "pk": 473, "fields": {"name": "\u0433. \u041c\u0443\u0440\u0438\u043d\u043e", "postal_code": "188662", "region": 37}}, {"model": "cities.city", "pk": 474, "fields": {"name": "\u0433. \u041d\u0438\u043a\u043e\u043b\u044c\u0441\u043a\u043e\u0435", "postal_code": "187026", "region": 37}}, {"model": "cities.city", "pk": 475, "fields": {"name": "\u0433. \u041d\u043e\u0432\u0430\u044f \u041b\u0430\u0434\u043e\u0433\u0430", "postal_code": "187450", "region": 37}}, {"model": "cities.city", "pk": 476, "fields": {"name": "\u0433. \u041e\u0442\u0440\u0430\u0434\u043d\u043e\u0435", "postal_code": "187330", "region": 37}}, {"model": "cities.city", "pk": 477, "fields": {"name": "\u0433. \u041f\u0438\u043a\u0430\u043b\u0435\u0432\u043e", "postal_code": "187600", "region": 37}}, {"model": "cities.city", "pk": 478, "fields": {"name": "\u0433. \u041f\u043e\u0434\u043f\u043e\u0440\u043e\u0436\u044c\u0435", "postal_code": "187780", "region": 37}}, {"model": "cities.city", "pk": 479, "fields": {"name": "\u0433. \u041f\u0440\u0438\u043c\u043e\u0440\u0441\u043a", "postal_code": "188910", "region": 37}}, {"model": "cities.city", "pk": 480, "fields": {"name": "\u0433. \u041f\u0440\u0438\u043e\u0437\u0435\u0440\u0441\u043a", "postal_code": "188760", "region": 37}}, {"model": "cities.city", "pk": 481, "fields": {"name": "\u0433. \u0421\u0432\u0435\u0442\u043e\u0433\u043e\u0440\u0441\u043a", "postal_code": "188990", "region": 37}}, {"model": "cities.city", "pk": 482, "fields": {"name": "\u0433. \u0421\u0435\u0440\u0442\u043e\u043b\u043e\u0432\u043e", "postal_code": "188650", "region": 37}}, {"model": "cities.city", "pk": 483, "fields": {"name": "\u0433. \u0421\u043b\u0430\u043d\u0446\u044b", "postal_code": "188560", "region": 37}}, {"model": "cities.city", "pk": 484, "fields": {"name": "\u0433. \u0421\u043e\u0441\u043d\u043e\u0432\u044b\u0439 \u0411\u043e\u0440", "postal_code": "188540", "region": 37}}, {"model": "cities.city", "pk": 485, "fields": {"name": "\u0433. \u0421\u044f\u0441\u044c\u0441\u0442\u0440\u043e\u0439", "postal_code": "187420", "region": 37}}, {"model": "cities.city", "pk": 486, "fields": {"name": "\u0433. \u0422\u0438\u0445\u0432\u0438\u043d", "postal_code": "187550", "region": 37}}, {"model": "cities.city", "pk": 487, "fields": {"name": "\u0433. \u0422\u043e\u0441\u043d\u043e", "postal_code": "187000", "region": 37}}, {"model": "cities.city", "pk": 488, "fields": {"name": "\u0433. \u0428\u043b\u0438\u0441\u0441\u0435\u043b\u044c\u0431\u0443\u0440\u0433", "postal_code": "187320", "region": 37}}, {"model": "cities.city", "pk": 489, "fields": {"name": "\u0433. \u0413\u0440\u044f\u0437\u0438", "postal_code": "399050", "region": 38}}, {"model": "cities.city", "pk": 490, "fields": {"name": "\u0433. \u0414\u0430\u043d\u043a\u043e\u0432", "postal_code": "399850", "region": 38}}, {"model": "cities.city", "pk": 491, "fields": {"name": "\u0433. \u0415\u043b\u0435\u0446", "postal_code": "399770", "region": 38}}, {"model": "cities.city", "pk": 492, "fields": {"name": "\u0433. \u0417\u0430\u0434\u043e\u043d\u0441\u043a", "postal_code": "399200", "region": 38}}, {"model": "cities.city", "pk": 493, "fields": {"name": "\u0433. \u041b\u0435\u0431\u0435\u0434\u044f\u043d\u044c", "postal_code": "399610", "region": 38}}, {"model": "cities.city", "pk": 494, "fields": {"name": "\u0433. \u041b\u0438\u043f\u0435\u0446\u043a", "postal_code": "398000", "region": 38}}, {"model": "cities.city", "pk": 495, "fields": {"name": "\u0433. \u0423\u0441\u043c\u0430\u043d\u044c", "postal_code": "399341", "region": 38}}, {"model": "cities.city", "pk": 496, "fields": {"name": "\u0433. \u0427\u0430\u043f\u043b\u044b\u0433\u0438\u043d", "postal_code": "399900", "region": 38}}, {"model": "cities.city", "pk": 497, "fields": {"name": "\u0433. \u041c\u0430\u0433\u0430\u0434\u0430\u043d", "postal_code": "685000", "region": 39}}, {"model": "cities.city", "pk": 498, "fields": {"name": "\u0433. \u0421\u0443\u0441\u0443\u043c\u0430\u043d", "postal_code": "686314", "region": 39}}, {"model": "cities.city", "pk": 499, "fields": {"name": "\u0433. \u0412\u043e\u043b\u0436\u0441\u043a", "postal_code": "425000", "region": 40}}, {"model": "cities.city", "pk": 500, "fields": {"name": "\u0433. \u0417\u0432\u0435\u043d\u0438\u0433\u043e\u0432\u043e", "postal_code": "425060", "region": 40}}, {"model": "cities.city", "pk": 501, "fields": {"name": "\u0433. \u0419\u043e\u0448\u043a\u0430\u0440-\u041e\u043b\u0430", "postal_code": "424000", "region": 40}}, {"model": "cities.city", "pk": 502, "fields": {"name": "\u0433. \u041a\u043e\u0437\u044c\u043c\u043e\u0434\u0435\u043c\u044c\u044f\u043d\u0441\u043a", "postal_code": "425350", "region": 40}}, {"model": "cities.city", "pk": 503, "fields": {"name": "\u0433. \u0410\u0440\u0434\u0430\u0442\u043e\u0432", "postal_code": "431850", "region": 41}}, {"model": "cities.city", "pk": 504, "fields": {"name": "\u0433. \u0418\u043d\u0441\u0430\u0440", "postal_code": "431430", "region": 41}}, {"model": "cities.city", "pk": 505, "fields": {"name": "\u0433. \u041a\u043e\u0432\u044b\u043b\u043a\u0438\u043d\u043e", "postal_code": "431350", "region": 41}}, {"model": "cities.city", "pk": 506, "fields": {"name": "\u0433. \u041a\u0440\u0430\u0441\u043d\u043e\u0441\u043b\u043e\u0431\u043e\u0434\u0441\u043a", "postal_code": "431260", "region": 41}}, {"model": "cities.city", "pk": 507, "fields": {"name": "\u0433. \u0420\u0443\u0437\u0430\u0435\u0432\u043a\u0430", "postal_code": "431440", "region": 41}}, {"model": "cities.city", "pk": 508, "fields": {"name": "\u0433. \u0421\u0430\u0440\u0430\u043d\u0441\u043a", "postal_code": "430000", "region": 41}}, {"model": "cities.city", "pk": 509, "fields": {"name": "\u0433. \u0422\u0435\u043c\u043d\u0438\u043a\u043e\u0432", "postal_code": "431220", "region": 41}}, {"model": "cities.city", "pk": 510, "fields": {"name": "\u0433. \u041c\u043e\u0441\u043a\u0432\u0430", "postal_code": "101000", "region": 42}}, {"model": "cities.city", "pk": 511, "fields": {"name": "\u0433. \u0410\u043f\u0440\u0435\u043b\u0435\u0432\u043a\u0430", "postal_code": "143360", "region": 43}}, {"model": "cities.city", "pk": 512, "fields": {"name": "\u0433. \u0411\u0430\u043b\u0430\u0448\u0438\u0445\u0430", "postal_code": "143900", "region": 43}}, {"model": "cities.city", "pk": 513, "fields": {"name": "\u0433. \u0411\u0435\u043b\u043e\u043e\u0437\u0451\u0440\u0441\u043a\u0438\u0439", "postal_code": "140250", "region": 43}}, {"model": "cities.city", "pk": 514, "fields": {"name": "\u0433. \u0411\u0440\u043e\u043d\u043d\u0438\u0446\u044b", "postal_code": "140170", "region": 43}}, {"model": "cities.city", "pk": 515, "fields": {"name": "\u0433. \u0412\u0435\u0440\u0435\u044f", "postal_code": "143330", "region": 43}}, {"model": "cities.city", "pk": 516, "fields": {"name": "\u0433. \u0412\u0438\u0434\u043d\u043e\u0435", "postal_code": "142700", "region": 43}}, {"model": "cities.city", "pk": 517, "fields": {"name": "\u0433. \u0412\u043e\u043b\u043e\u043a\u043e\u043b\u0430\u043c\u0441\u043a", "postal_code": "143600", "region": 43}}, {"model": "cities.city", "pk": 518, "fields": {"name": "\u0433. \u0412\u043e\u0441\u043a\u0440\u0435\u0441\u0435\u043d\u0441\u043a", "postal_code": "140200", "region": 43}}, {"model": "cities.city", "pk": 519, "fields": {"name": "\u0433. \u0412\u044b\u0441\u043e\u043a\u043e\u0432\u0441\u043a", "postal_code": "141650", "region": 43}}, {"model": "cities.city", "pk": 520, "fields": {"name": "\u0433. \u0413\u043e\u043b\u0438\u0446\u044b\u043d\u043e", "postal_code": "143040", "region": 43}}, {"model": "cities.city", "pk": 521, "fields": {"name": "\u0433. \u0414\u0435\u0434\u043e\u0432\u0441\u043a", "postal_code": "143530", "region": 43}}, {"model": "cities.city", "pk": 522, "fields": {"name": "\u0433. \u0414\u0437\u0435\u0440\u0436\u0438\u043d\u0441\u043a\u0438\u0439", "postal_code": "140090", "region": 43}}, {"model": "cities.city", "pk": 523, "fields": {"name": "\u0433. \u0414\u043c\u0438\u0442\u0440\u043e\u0432", "postal_code": "141800", "region": 43}}, {"model": "cities.city", "pk": 524, "fields": {"name": "\u0433. \u0414\u043e\u043b\u0433\u043e\u043f\u0440\u0443\u0434\u043d\u044b\u0439", "postal_code": "141700", "region": 43}}, {"model": "cities.city", "pk": 525, "fields": {"name": "\u0433. \u0414\u043e\u043c\u043e\u0434\u0435\u0434\u043e\u0432\u043e", "postal_code": "142000", "region": 43}}, {"model": "cities.city", "pk": 526, "fields": {"name": "\u0433. \u0414\u0440\u0435\u0437\u043d\u0430", "postal_code": "142660", "region": 43}}, {"model": "cities.city", "pk": 527, "fields": {"name": "\u0433. \u0414\u0443\u0431\u043d\u0430", "postal_code": "141980", "region": 43}}, {"model": "cities.city", "pk": 528, "fields": {"name": "\u0433. \u0415\u0433\u043e\u0440\u044c\u0435\u0432\u0441\u043a", "postal_code": "140300", "region": 43}}, {"model": "cities.city", "pk": 529, "fields": {"name": "\u0433. \u0416\u0443\u043a\u043e\u0432\u0441\u043a\u0438\u0439", "postal_code": "140180", "region": 43}}, {"model": "cities.city", "pk": 530, "fields": {"name": "\u0433. \u0417\u0430\u0440\u0430\u0439\u0441\u043a", "postal_code": "140600", "region": 43}}, {"model": "cities.city", "pk": 531, "fields": {"name": "\u0433. \u0417\u0432\u0435\u043d\u0438\u0433\u043e\u0440\u043e\u0434", "postal_code": "143180", "region": 43}}, {"model": "cities.city", "pk": 532, "fields": {"name": "\u0433. \u0418\u0432\u0430\u043d\u0442\u0435\u0435\u0432\u043a\u0430", "postal_code": "141280", "region": 43}}, {"model": "cities.city", "pk": 533, "fields": {"name": "\u0433. \u0418\u0441\u0442\u0440\u0430", "postal_code": "143500", "region": 43}}, {"model": "cities.city", "pk": 534, "fields": {"name": "\u0433. \u041a\u0430\u0448\u0438\u0440\u0430", "postal_code": "142900", "region": 43}}, {"model": "cities.city", "pk": 535, "fields": {"name": "\u0433. \u041a\u043b\u0438\u043d", "postal_code": "141601", "region": 43}}, {"model": "cities.city", "pk": 536, "fields": {"name": "\u0433. \u041a\u043e\u043b\u043e\u043c\u043d\u0430", "postal_code": "140400", "region": 43}}, {"model": "cities.city", "pk": 537, "fields": {"name": "\u0433. \u041a\u043e\u0440\u043e\u043b\u0451\u0432", "postal_code": "141060", "region": 43}}, {"model": "cities.city", "pk": 538, "fields": {"name": "\u0433. \u041a\u043e\u0442\u0435\u043b\u044c\u043d\u0438\u043a\u0438", "postal_code": "140053", "region": 43}}, {"model": "cities.city", "pk": 539, "fields": {"name": "\u0433. \u041a\u0440\u0430\u0441\u043d\u043e\u0430\u0440\u043c\u0435\u0439\u0441\u043a", "postal_code": "141290", "region": 43}}, {"model": "cities.city", "pk": 540, "fields": {"name": "\u0433. \u041a\u0440\u0430\u0441\u043d\u043e\u0433\u043e\u0440\u0441\u043a", "postal_code": "143401", "region": 43}}, {"model": "cities.city", "pk": 541, "fields": {"name": "\u0433. \u041a\u0440\u0430\u0441\u043d\u043e\u0437\u0430\u0432\u043e\u0434\u0441\u043a", "postal_code": "141321", "region": 43}}, {"model": "cities.city", "pk": 542, "fields": {"name": "\u0433. \u041a\u0440\u0430\u0441\u043d\u043e\u0437\u043d\u0430\u043c\u0435\u043d\u0441\u043a", "postal_code": "143090", "region": 43}}, {"model": "cities.city", "pk": 543, "fields": {"name": "\u0433. \u041a\u0443\u0431\u0438\u043d\u043a\u0430", "postal_code": "143070", "region": 43}}, {"model": "cities.city", "pk": 544, "fields": {"name": "\u0433. \u041a\u0443\u0440\u043e\u0432\u0441\u043a\u043e\u0435", "postal_code": "142620", "region": 43}}, {"model": "cities.city", "pk": 545, "fields": {"name": "\u0433. \u041b\u0438\u043a\u0438\u043d\u043e-\u0414\u0443\u043b\u0451\u0432\u043e", "postal_code": "142663", "region": 43}}, {"model": "cities.city", "pk": 546, "fields": {"name": "\u0433. \u041b\u043e\u0431\u043d\u044f", "postal_code": "141055", "region": 43}}, {"model": "cities.city", "pk": 547, "fields": {"name": "\u0433. \u041b\u043e\u0441\u0438\u043d\u043e-\u041f\u0435\u0442\u0440\u043e\u0432\u0441\u043a\u0438\u0439", "postal_code": "141150", "region": 43}}, {"model": "cities.city", "pk": 548, "fields": {"name": "\u0433. \u041b\u0443\u0445\u043e\u0432\u0438\u0446\u044b", "postal_code": "140500", "region": 43}}, {"model": "cities.city", "pk": 549, "fields": {"name": "\u0433. \u041b\u044b\u0442\u043a\u0430\u0440\u0438\u043d\u043e", "postal_code": "140080", "region": 43}}, {"model": "cities.city", "pk": 550, "fields": {"name": "\u0433. \u041b\u044e\u0431\u0435\u0440\u0446\u044b", "postal_code": "140000", "region": 43}}, {"model": "cities.city", "pk": 551, "fields": {"name": "\u0433. \u041c\u043e\u0436\u0430\u0439\u0441\u043a", "postal_code": "143200", "region": 43}}, {"model": "cities.city", "pk": 552, "fields": {"name": "\u0433. \u041c\u044b\u0442\u0438\u0449\u0438", "postal_code": "141000", "region": 43}}, {"model": "cities.city", "pk": 553, "fields": {"name": "\u0433. \u041d\u0430\u0440\u043e-\u0424\u043e\u043c\u0438\u043d\u0441\u043a", "postal_code": "143300", "region": 43}}, {"model": "cities.city", "pk": 554, "fields": {"name": "\u0433. \u041d\u043e\u0433\u0438\u043d\u0441\u043a", "postal_code": "142400", "region": 43}}, {"model": "cities.city", "pk": 555, "fields": {"name": "\u0433. \u041e\u0434\u0438\u043d\u0446\u043e\u0432\u043e", "postal_code": "143000", "region": 43}}, {"model": "cities.city", "pk": 556, "fields": {"name": "\u0433. \u041e\u0437\u0451\u0440\u044b", "postal_code": "140560", "region": 43}}, {"model": "cities.city", "pk": 557, "fields": {"name": "\u0433. \u041e\u0440\u0435\u0445\u043e\u0432\u043e-\u0417\u0443\u0435\u0432\u043e", "postal_code": "142600", "region": 43}}, {"model": "cities.city", "pk": 558, "fields": {"name": "\u0433. \u041f\u0430\u0432\u043b\u043e\u0432\u0441\u043a\u0438\u0439 \u041f\u043e\u0441\u0430\u0434", "postal_code": "142500", "region": 43}}, {"model": "cities.city", "pk": 559, "fields": {"name": "\u0433. \u041f\u0435\u0440\u0435\u0441\u0432\u0435\u0442", "postal_code": "141320", "region": 43}}, {"model": "cities.city", "pk": 560, "fields": {"name": "\u0433. \u041f\u043e\u0434\u043e\u043b\u044c\u0441\u043a", "postal_code": "142100", "region": 43}}, {"model": "cities.city", "pk": 561, "fields": {"name": "\u0433. \u041f\u0440\u043e\u0442\u0432\u0438\u043d\u043e", "postal_code": "142280", "region": 43}}, {"model": "cities.city", "pk": 562, "fields": {"name": "\u0433. \u041f\u0443\u0448\u043a\u0438\u043d\u043e", "postal_code": "141200", "region": 43}}, {"model": "cities.city", "pk": 563, "fields": {"name": "\u0433. \u041f\u0443\u0449\u0438\u043d\u043e", "postal_code": "142290", "region": 43}}, {"model": "cities.city", "pk": 564, "fields": {"name": "\u0433. \u0420\u0430\u043c\u0435\u043d\u0441\u043a\u043e\u0435", "postal_code": "140100", "region": 43}}, {"model": "cities.city", "pk": 565, "fields": {"name": "\u0433. \u0420\u0435\u0443\u0442\u043e\u0432", "postal_code": "143960", "region": 43}}, {"model": "cities.city", "pk": 566, "fields": {"name": "\u0433. \u0420\u043e\u0448\u0430\u043b\u044c", "postal_code": "140730", "region": 43}}, {"model": "cities.city", "pk": 567, "fields": {"name": "\u0433. \u0420\u0443\u0437\u0430", "postal_code": "143100", "region": 43}}, {"model": "cities.city", "pk": 568, "fields": {"name": "\u0433. \u0421\u0435\u0440\u0433\u0438\u0435\u0432 \u041f\u043e\u0441\u0430\u0434", "postal_code": "141300", "region": 43}}, {"model": "cities.city", "pk": 569, "fields": {"name": "\u0433. \u0421\u0435\u0440\u043f\u0443\u0445\u043e\u0432", "postal_code": "142200", "region": 43}}, {"model": "cities.city", "pk": 570, "fields": {"name": "\u0433. \u0421\u043e\u043b\u043d\u0435\u0447\u043d\u043e\u0433\u043e\u0440\u0441\u043a", "postal_code": "141503", "region": 43}}, {"model": "cities.city", "pk": 571, "fields": {"name": "\u0433. \u0421\u0442\u0430\u0440\u0430\u044f \u041a\u0443\u043f\u0430\u0432\u043d\u0430", "postal_code": "142450", "region": 43}}, {"model": "cities.city", "pk": 572, "fields": {"name": "\u0433. \u0421\u0442\u0443\u043f\u0438\u043d\u043e", "postal_code": "142800", "region": 43}}, {"model": "cities.city", "pk": 573, "fields": {"name": "\u0433. \u0422\u0430\u043b\u0434\u043e\u043c", "postal_code": "141900", "region": 43}}, {"model": "cities.city", "pk": 574, "fields": {"name": "\u0433. \u0424\u0440\u044f\u0437\u0438\u043d\u043e", "postal_code": "141190", "region": 43}}, {"model": "cities.city", "pk": 575, "fields": {"name": "\u0433. \u0425\u0438\u043c\u043a\u0438", "postal_code": "141402", "region": 43}}, {"model": "cities.city", "pk": 576, "fields": {"name": "\u0433. \u0425\u043e\u0442\u044c\u043a\u043e\u0432\u043e", "postal_code": "141370", "region": 43}}, {"model": "cities.city", "pk": 577, "fields": {"name": "\u0433. \u0427\u0435\u0440\u043d\u043e\u0433\u043e\u043b\u043e\u0432\u043a\u0430", "postal_code": "142432", "region": 43}}, {"model": "cities.city", "pk": 578, "fields": {"name": "\u0433. \u0427\u0435\u0445\u043e\u0432", "postal_code": "142300", "region": 43}}, {"model": "cities.city", "pk": 579, "fields": {"name": "\u0433. \u0428\u0430\u0442\u0443\u0440\u0430", "postal_code": "140700", "region": 43}}, {"model": "cities.city", "pk": 580, "fields": {"name": "\u0433. \u0429\u0451\u043b\u043a\u043e\u0432\u043e", "postal_code": "141100", "region": 43}}, {"model": "cities.city", "pk": 581, "fields": {"name": "\u0433. \u042d\u043b\u0435\u043a\u0442\u0440\u043e\u0433\u043e\u0440\u0441\u043a", "postal_code": "142530", "region": 43}}, {"model": "cities.city", "pk": 582, "fields": {"name": "\u0433. \u042d\u043b\u0435\u043a\u0442\u0440\u043e\u0441\u0442\u0430\u043b\u044c", "postal_code": "144000", "region": 43}}, {"model": "cities.city", "pk": 583, "fields": {"name": "\u0433. \u042d\u043b\u0435\u043a\u0442\u0440\u043e\u0443\u0433\u043b\u0438", "postal_code": "142455", "region": 43}}, {"model": "cities.city", "pk": 584, "fields": {"name": "\u0433. \u042f\u0445\u0440\u043e\u043c\u0430", "postal_code": "141840", "region": 43}}, {"model": "cities.city", "pk": 585, "fields": {"name": "\u0433. \u0410\u043f\u0430\u0442\u0438\u0442\u044b", "postal_code": "184200", "region": 44}}, {"model": "cities.city", "pk": 586, "fields": {"name": "\u0433. \u0413\u0430\u0434\u0436\u0438\u0435\u0432\u043e", "postal_code": "184670", "region": 44}}, {"model": "cities.city", "pk": 587, "fields": {"name": "\u0433. \u0417\u0430\u043e\u0437\u0435\u0440\u0441\u043a", "postal_code": "184310", "region": 44}}, {"model": "cities.city", "pk": 588, "fields": {"name": "\u0433. \u0417\u0430\u043f\u043e\u043b\u044f\u0440\u043d\u044b\u0439", "postal_code": "184430", "region": 44}}, {"model": "cities.city", "pk": 589, "fields": {"name": "\u0433. \u041a\u0430\u043d\u0434\u0430\u043b\u0430\u043a\u0448\u0430", "postal_code": "184042", "region": 44}}, {"model": "cities.city", "pk": 590, "fields": {"name": "\u0433. \u041a\u0438\u0440\u043e\u0432\u0441\u043a", "postal_code": "184250", "region": 44}}, {"model": "cities.city", "pk": 591, "fields": {"name": "\u0433. \u041a\u043e\u0432\u0434\u043e\u0440", "postal_code": "184144", "region": 44}}, {"model": "cities.city", "pk": 592, "fields": {"name": "\u0433. \u041a\u043e\u043b\u0430", "postal_code": "184380", "region": 44}}, {"model": "cities.city", "pk": 593, "fields": {"name": "\u0433. \u041c\u043e\u043d\u0447\u0435\u0433\u043e\u0440\u0441\u043a", "postal_code": "184505", "region": 44}}, {"model": "cities.city", "pk": 594, "fields": {"name": "\u0433. \u041c\u0443\u0440\u043c\u0430\u043d\u0441\u043a", "postal_code": "183000", "region": 44}}, {"model": "cities.city", "pk": 595, "fields": {"name": "\u0433. \u041e\u043b\u0435\u043d\u0435\u0433\u043e\u0440\u0441\u043a", "postal_code": "184530", "region": 44}}, {"model": "cities.city", "pk": 596, "fields": {"name": "\u0433. \u041e\u0441\u0442\u0440\u043e\u0432\u043d\u043e\u0439", "postal_code": "184640", "region": 44}}, {"model": "cities.city", "pk": 597, "fields": {"name": "\u0433. \u041f\u043e\u043b\u044f\u0440\u043d\u044b\u0435 \u0417\u043e\u0440\u0438", "postal_code": "184230", "region": 44}}, {"model": "cities.city", "pk": 598, "fields": {"name": "\u0433. \u041f\u043e\u043b\u044f\u0440\u043d\u044b\u0439", "postal_code": "184650", "region": 44}}, {"model": "cities.city", "pk": 599, "fields": {"name": "\u0433. \u0421\u0435\u0432\u0435\u0440\u043e\u043c\u043e\u0440\u0441\u043a", "postal_code": "184601", "region": 44}}, {"model": "cities.city", "pk": 600, "fields": {"name": "\u0433. \u0421\u043d\u0435\u0436\u043d\u043e\u0433\u043e\u0440\u0441\u043a", "postal_code": "184682", "region": 44}}, {"model": "cities.city", "pk": 601, "fields": {"name": "\u0433. \u041d\u0430\u0440\u044c\u044f\u043d-\u041c\u0430\u0440", "postal_code": "166000", "region": 45}}, {"model": "cities.city", "pk": 602, "fields": {"name": "\u0433. \u0410\u0440\u0437\u0430\u043c\u0430\u0441", "postal_code": "607220", "region": 46}}, {"model": "cities.city", "pk": 603, "fields": {"name": "\u0433. \u0411\u0430\u043b\u0430\u0445\u043d\u0430", "postal_code": "606407", "region": 46}}, {"model": "cities.city", "pk": 604, "fields": {"name": "\u0433. \u0411\u043e\u0433\u043e\u0440\u043e\u0434\u0441\u043a", "postal_code": "607600", "region": 46}}, {"model": "cities.city", "pk": 605, "fields": {"name": "\u0433. \u0411\u043e\u0440", "postal_code": "606440", "region": 46}}, {"model": "cities.city", "pk": 606, "fields": {"name": "\u0433. \u0412\u0435\u0442\u043b\u0443\u0433\u0430", "postal_code": "606860", "region": 46}}, {"model": "cities.city", "pk": 607, "fields": {"name": "\u0433. \u0412\u043e\u043b\u043e\u0434\u0430\u0440\u0441\u043a", "postal_code": "606072", "region": 46}}, {"model": "cities.city", "pk": 608, "fields": {"name": "\u0433. \u0412\u043e\u0440\u0441\u043c\u0430", "postal_code": "606120", "region": 46}}, {"model": "cities.city", "pk": 609, "fields": {"name": "\u0433. \u0412\u044b\u043a\u0441\u0430", "postal_code": "607060", "region": 46}}, {"model": "cities.city", "pk": 610, "fields": {"name": "\u0433. \u0413\u043e\u0440\u0431\u0430\u0442\u043e\u0432", "postal_code": "606125", "region": 46}}, {"model": "cities.city", "pk": 611, "fields": {"name": "\u0433. \u0413\u043e\u0440\u043e\u0434\u0435\u0446", "postal_code": "606500", "region": 46}}, {"model": "cities.city", "pk": 612, "fields": {"name": "\u0433. \u0414\u0437\u0435\u0440\u0436\u0438\u043d\u0441\u043a", "postal_code": "606000", "region": 46}}, {"model": "cities.city", "pk": 613, "fields": {"name": "\u0433. \u0417\u0430\u0432\u043e\u043b\u0436\u044c\u0435", "postal_code": "606520", "region": 46}}, {"model": "cities.city", "pk": 614, "fields": {"name": "\u0433. \u041a\u043d\u044f\u0433\u0438\u043d\u0438\u043d\u043e", "postal_code": "606340", "region": 46}}, {"model": "cities.city", "pk": 615, "fields": {"name": "\u0433. \u041a\u0441\u0442\u043e\u0432\u043e", "postal_code": "607650", "region": 46}}, {"model": "cities.city", "pk": 616, "fields": {"name": "\u0433. \u041a\u0443\u043b\u0435\u0431\u0430\u043a\u0438", "postal_code": "607010", "region": 46}}, {"model": "cities.city", "pk": 617, "fields": {"name": "\u0433. \u041b\u0443\u043a\u043e\u044f\u043d\u043e\u0432", "postal_code": "607800", "region": 46}}, {"model": "cities.city", "pk": 618, "fields": {"name": "\u0433. \u041b\u044b\u0441\u043a\u043e\u0432\u043e", "postal_code": "606210", "region": 46}}, {"model": "cities.city", "pk": 619, "fields": {"name": "\u0433. \u041d\u0430\u0432\u0430\u0448\u0438\u043d\u043e", "postal_code": "607100", "region": 46}}, {"model": "cities.city", "pk": 620, "fields": {"name": "\u0433. \u041d\u0438\u0436\u043d\u0438\u0439 \u041d\u043e\u0432\u0433\u043e\u0440\u043e\u0434", "postal_code": "603000", "region": 46}}, {"model": "cities.city", "pk": 621, "fields": {"name": "\u0433. \u041f\u0430\u0432\u043b\u043e\u0432\u043e", "postal_code": "606100", "region": 46}}, {"model": "cities.city", "pk": 622, "fields": {"name": "\u0433. \u041f\u0435\u0440\u0432\u043e\u043c\u0430\u0439\u0441\u043a", "postal_code": "607751", "region": 46}}, {"model": "cities.city", "pk": 623, "fields": {"name": "\u0433. \u041f\u0435\u0440\u0435\u0432\u043e\u0437", "postal_code": "607400", "region": 46}}, {"model": "cities.city", "pk": 624, "fields": {"name": "\u0433. \u0421\u0430\u0440\u043e\u0432", "postal_code": "607180", "region": 46}}, {"model": "cities.city", "pk": 625, "fields": {"name": "\u0433. \u0421\u0435\u043c\u0435\u043d\u043e\u0432", "postal_code": "606605", "region": 46}}, {"model": "cities.city", "pk": 626, "fields": {"name": "\u0433. \u0421\u0435\u0440\u0433\u0430\u0447", "postal_code": "607510", "region": 46}}, {"model": "cities.city", "pk": 627, "fields": {"name": "\u0433. \u0423\u0440\u0435\u043d\u044c", "postal_code": "606803", "region": 46}}, {"model": "cities.city", "pk": 628, "fields": {"name": "\u0433. \u0427\u043a\u0430\u043b\u043e\u0432\u0441\u043a", "postal_code": "606540", "region": 46}}, {"model": "cities.city", "pk": 629, "fields": {"name": "\u0433. \u0428\u0430\u0445\u0443\u043d\u044c\u044f", "postal_code": "606910", "region": 46}}, {"model": "cities.city", "pk": 630, "fields": {"name": "\u0433. \u0411\u043e\u0440\u043e\u0432\u0438\u0447\u0438", "postal_code": "174400", "region": 47}}, {"model": "cities.city", "pk": 631, "fields": {"name": "\u0433. \u0412\u0430\u043b\u0434\u0430\u0439", "postal_code": "175400", "region": 47}}, {"model": "cities.city", "pk": 632, "fields": {"name": "\u0433. \u0412\u0435\u043b\u0438\u043a\u0438\u0439 \u041d\u043e\u0432\u0433\u043e\u0440\u043e\u0434", "postal_code": "173000", "region": 47}}, {"model": "cities.city", "pk": 633, "fields": {"name": "\u0433. \u041c\u0430\u043b\u0430\u044f \u0412\u0438\u0448\u0435\u0440\u0430", "postal_code": "174260", "region": 47}}, {"model": "cities.city", "pk": 634, "fields": {"name": "\u0433. \u041e\u043a\u0443\u043b\u043e\u0432\u043a\u0430", "postal_code": "174350", "region": 47}}, {"model": "cities.city", "pk": 635, "fields": {"name": "\u0433. \u041f\u0435\u0441\u0442\u043e\u0432\u043e", "postal_code": "174510", "region": 47}}, {"model": "cities.city", "pk": 636, "fields": {"name": "\u0433. \u0421\u043e\u043b\u044c\u0446\u044b", "postal_code": "175040", "region": 47}}, {"model": "cities.city", "pk": 637, "fields": {"name": "\u0433. \u0421\u0442\u0430\u0440\u0430\u044f \u0420\u0443\u0441\u0441\u0430", "postal_code": "175200", "region": 47}}, {"model": "cities.city", "pk": 638, "fields": {"name": "\u0433. \u0425\u043e\u043b\u043c", "postal_code": "175270", "region": 47}}, {"model": "cities.city", "pk": 639, "fields": {"name": "\u0433. \u0427\u0443\u0434\u043e\u0432\u043e", "postal_code": "174210", "region": 47}}, {"model": "cities.city", "pk": 640, "fields": {"name": "\u0433. \u0411\u0430\u0440\u0430\u0431\u0438\u043d\u0441\u043a", "postal_code": "632330", "region": 48}}, {"model": "cities.city", "pk": 641, "fields": {"name": "\u0433. \u0411\u0435\u0440\u0434\u0441\u043a", "postal_code": "633000", "region": 48}}, {"model": "cities.city", "pk": 642, "fields": {"name": "\u0433. \u0411\u043e\u043b\u043e\u0442\u043d\u043e\u0435", "postal_code": "633340", "region": 48}}, {"model": "cities.city", "pk": 643, "fields": {"name": "\u0433. \u0418\u0441\u043a\u0438\u0442\u0438\u043c", "postal_code": "633200", "region": 48}}, {"model": "cities.city", "pk": 644, "fields": {"name": "\u0433. \u041a\u0430\u0440\u0430\u0441\u0443\u043a", "postal_code": "632860", "region": 48}}, {"model": "cities.city", "pk": 645, "fields": {"name": "\u0433. \u041a\u0430\u0440\u0433\u0430\u0442", "postal_code": "632400", "region": 48}}, {"model": "cities.city", "pk": 646, "fields": {"name": "\u0433. \u041a\u0443\u0439\u0431\u044b\u0448\u0435\u0432", "postal_code": "632380", "region": 48}}, {"model": "cities.city", "pk": 647, "fields": {"name": "\u0433. \u041a\u0443\u043f\u0438\u043d\u043e", "postal_code": "632730", "region": 48}}, {"model": "cities.city", "pk": 648, "fields": {"name": "\u0433. \u041d\u043e\u0432\u043e\u0441\u0438\u0431\u0438\u0440\u0441\u043a", "postal_code": "630000", "region": 48}}, {"model": "cities.city", "pk": 649, "fields": {"name": "\u0433. \u041e\u0431\u044c", "postal_code": "633100", "region": 48}}, {"model": "cities.city", "pk": 650, "fields": {"name": "\u0433. \u0422\u0430\u0442\u0430\u0440\u0441\u043a", "postal_code": "632120", "region": 48}}, {"model": "cities.city", "pk": 651, "fields": {"name": "\u0433. \u0422\u043e\u0433\u0443\u0447\u0438\u043d", "postal_code": "633450", "region": 48}}, {"model": "cities.city", "pk": 652, "fields": {"name": "\u0433. \u0427\u0435\u0440\u0435\u043f\u0430\u043d\u043e\u0432\u043e", "postal_code": "633520", "region": 48}}, {"model": "cities.city", "pk": 653, "fields": {"name": "\u0433. \u0427\u0443\u043b\u044b\u043c", "postal_code": "632550", "region": 48}}, {"model": "cities.city", "pk": 654, "fields": {"name": "\u0433. \u0418\u0441\u0438\u043b\u044c\u043a\u0443\u043b\u044c", "postal_code": "646020", "region": 49}}, {"model": "cities.city", "pk": 655, "fields": {"name": "\u0433. \u041a\u0430\u043b\u0430\u0447\u0438\u043d\u0441\u043a", "postal_code": "646900", "region": 49}}, {"model": "cities.city", "pk": 656, "fields": {"name": "\u0433. \u041d\u0430\u0437\u044b\u0432\u0430\u0435\u0432\u0441\u043a", "postal_code": "646100", "region": 49}}, {"model": "cities.city", "pk": 657, "fields": {"name": "\u0433. \u041e\u043c\u0441\u043a", "postal_code": "644000", "region": 49}}, {"model": "cities.city", "pk": 658, "fields": {"name": "\u0433. \u0422\u0430\u0440\u0430", "postal_code": "646530", "region": 49}}, {"model": "cities.city", "pk": 659, "fields": {"name": "\u0433. \u0422\u044e\u043a\u0430\u043b\u0438\u043d\u0441\u043a", "postal_code": "646330", "region": 49}}, {"model": "cities.city", "pk": 660, "fields": {"name": "\u0433. \u0410\u0431\u0434\u0443\u043b\u0438\u043d\u043e", "postal_code": "461743", "region": 50}}, {"model": "cities.city", "pk": 661, "fields": {"name": "\u0433. \u0411\u0443\u0433\u0443\u0440\u0443\u0441\u043b\u0430\u043d", "postal_code": "461630", "region": 50}}, {"model": "cities.city", "pk": 662, "fields": {"name": "\u0433. \u0411\u0443\u0437\u0443\u043b\u0443\u043a", "postal_code": "461040", "region": 50}}, {"model": "cities.city", "pk": 663, "fields": {"name": "\u0433. \u0413\u0430\u0439", "postal_code": "462631", "region": 50}}, {"model": "cities.city", "pk": 664, "fields": {"name": "\u0433. \u041a\u0443\u0432\u0430\u043d\u0434\u044b\u043a", "postal_code": "462240", "region": 50}}, {"model": "cities.city", "pk": 665, "fields": {"name": "\u0433. \u041c\u0435\u0434\u043d\u043e\u0433\u043e\u0440\u0441\u043a", "postal_code": "462271", "region": 50}}, {"model": "cities.city", "pk": 666, "fields": {"name": "\u0433. \u041d\u043e\u0432\u043e\u0442\u0440\u043e\u0438\u0446\u043a", "postal_code": "462351", "region": 50}}, {"model": "cities.city", "pk": 667, "fields": {"name": "\u0433. \u041e\u0440\u0435\u043d\u0431\u0443\u0440\u0433", "postal_code": "460000", "region": 50}}, {"model": "cities.city", "pk": 668, "fields": {"name": "\u0433. \u041e\u0440\u0441\u043a", "postal_code": "462400", "region": 50}}, {"model": "cities.city", "pk": 669, "fields": {"name": "\u0433. \u0421\u043e\u043b\u044c-\u0418\u043b\u0435\u0446\u043a", "postal_code": "461504", "region": 50}}, {"model": "cities.city", "pk": 670, "fields": {"name": "\u0433. \u0421\u043e\u0440\u043e\u0447\u0438\u043d\u0441\u043a", "postal_code": "461900", "region": 50}}, {"model": "cities.city", "pk": 671, "fields": {"name": "\u0433. \u042f\u0441\u043d\u044b\u0439", "postal_code": "462780", "region": 50}}, {"model": "cities.city", "pk": 672, "fields": {"name": "\u0433. \u0411\u043e\u043b\u0445\u043e\u0432", "postal_code": "303140", "region": 51}}, {"model": "cities.city", "pk": 673, "fields": {"name": "\u0433. \u0414\u043c\u0438\u0442\u0440\u043e\u0432\u0441\u043a", "postal_code": "303240", "region": 51}}, {"model": "cities.city", "pk": 674, "fields": {"name": "\u0433. \u041b\u0438\u0432\u043d\u044b", "postal_code": "303850", "region": 51}}, {"model": "cities.city", "pk": 675, "fields": {"name": "\u0433. \u041c\u0430\u043b\u043e\u0430\u0440\u0445\u0430\u043d\u0433\u0435\u043b\u044c\u0441\u043a", "postal_code": "303369", "region": 51}}, {"model": "cities.city", "pk": 676, "fields": {"name": "\u0433. \u041c\u0446\u0435\u043d\u0441\u043a", "postal_code": "303030", "region": 51}}, {"model": "cities.city", "pk": 677, "fields": {"name": "\u0433. \u041d\u043e\u0432\u043e\u0441\u0438\u043b\u044c", "postal_code": "303500", "region": 51}}, {"model": "cities.city", "pk": 678, "fields": {"name": "\u0433. \u041e\u0440\u0451\u043b", "postal_code": "302000", "region": 51}}, {"model": "cities.city", "pk": 679, "fields": {"name": "\u0433. \u0411\u0435\u043b\u0438\u043d\u0441\u043a\u0438\u0439", "postal_code": "442250", "region": 52}}, {"model": "cities.city", "pk": 680, "fields": {"name": "\u0433. \u0413\u043e\u0440\u043e\u0434\u0438\u0449\u0435", "postal_code": "442310", "region": 52}}, {"model": "cities.city", "pk": 681, "fields": {"name": "\u0433. \u0417\u0430\u0440\u0435\u0447\u043d\u044b\u0439", "postal_code": "442960", "region": 52}}, {"model": "cities.city", "pk": 682, "fields": {"name": "\u0433. \u041a\u0430\u043c\u0435\u043d\u043a\u0430", "postal_code": "442240", "region": 52}}, {"model": "cities.city", "pk": 683, "fields": {"name": "\u0433. \u041a\u0443\u0437\u043d\u0435\u0446\u043a", "postal_code": "442530", "region": 52}}, {"model": "cities.city", "pk": 684, "fields": {"name": "\u0433. \u041d\u0438\u0436\u043d\u0438\u0439 \u041b\u043e\u043c\u043e\u0432", "postal_code": "442150", "region": 52}}, {"model": "cities.city", "pk": 685, "fields": {"name": "\u0433. \u041d\u0438\u043a\u043e\u043b\u044c\u0441\u043a", "postal_code": "442680", "region": 52}}, {"model": "cities.city", "pk": 686, "fields": {"name": "\u0433. \u041f\u0435\u043d\u0437\u0430", "postal_code": "440000", "region": 52}}, {"model": "cities.city", "pk": 687, "fields": {"name": "\u0433. \u0421\u0435\u0440\u0434\u043e\u0431\u0441\u043a", "postal_code": "442890", "region": 52}}, {"model": "cities.city", "pk": 688, "fields": {"name": "\u0433. \u0421\u043f\u0430\u0441\u0441\u043a", "postal_code": "442600", "region": 52}}, {"model": "cities.city", "pk": 689, "fields": {"name": "\u0433. \u0421\u0443\u0440\u0441\u043a", "postal_code": "442300", "region": 52}}, {"model": "cities.city", "pk": 690, "fields": {"name": "\u0433. \u0410\u043b\u0435\u043a\u0441\u0430\u043d\u0434\u0440\u043e\u0432\u0441\u043a", "postal_code": "618320", "region": 53}}, {"model": "cities.city", "pk": 691, "fields": {"name": "\u0433. \u0411\u0435\u0440\u0435\u0437\u043d\u0438\u043a\u0438", "postal_code": "618400", "region": 53}}, {"model": "cities.city", "pk": 692, "fields": {"name": "\u0433. \u0412\u0435\u0440\u0435\u0449\u0430\u0433\u0438\u043d\u043e", "postal_code": "617119", "region": 53}}, {"model": "cities.city", "pk": 693, "fields": {"name": "\u0433. \u0413\u043e\u0440\u043d\u043e\u0437\u0430\u0432\u043e\u0434\u0441\u043a", "postal_code": "618820", "region": 53}}, {"model": "cities.city", "pk": 694, "fields": {"name": "\u0433. \u0413\u0440\u0435\u043c\u044f\u0447\u0438\u043d\u0441\u043a", "postal_code": "618270", "region": 53}}, {"model": "cities.city", "pk": 695, "fields": {"name": "\u0433. \u0413\u0443\u0431\u0430\u0445\u0430", "postal_code": "618250", "region": 53}}, {"model": "cities.city", "pk": 696, "fields": {"name": "\u0433. \u0414\u043e\u0431\u0440\u044f\u043d\u043a\u0430", "postal_code": "618730", "region": 53}}, {"model": "cities.city", "pk": 697, "fields": {"name": "\u0433. \u041a\u0438\u0437\u0435\u043b", "postal_code": "618350", "region": 53}}, {"model": "cities.city", "pk": 698, "fields": {"name": "\u0433. \u041a\u0440\u0430\u0441\u043d\u043e\u0432\u0438\u0448\u0435\u0440\u0441\u043a", "postal_code": "618590", "region": 53}}, {"model": "cities.city", "pk": 699, "fields": {"name": "\u0433. \u041a\u0440\u0430\u0441\u043d\u043e\u043a\u0430\u043c\u0441\u043a", "postal_code": "617060", "region": 53}}, {"model": "cities.city", "pk": 700, "fields": {"name": "\u0433. \u041a\u0443\u0434\u044b\u043c\u043a\u0430\u0440", "postal_code": "619000", "region": 53}}, {"model": "cities.city", "pk": 701, "fields": {"name": "\u0433. \u041a\u0443\u043d\u0433\u0443\u0440", "postal_code": "617470", "region": 53}}, {"model": "cities.city", "pk": 702, "fields": {"name": "\u0433. \u041b\u044b\u0441\u044c\u0432\u0430", "postal_code": "618900", "region": 53}}, {"model": "cities.city", "pk": 703, "fields": {"name": "\u0433. \u041d\u044b\u0442\u0432\u0430", "postal_code": "617000", "region": 53}}, {"model": "cities.city", "pk": 704, "fields": {"name": "\u0433. \u041e\u0441\u0430", "postal_code": "618120", "region": 53}}, {"model": "cities.city", "pk": 705, "fields": {"name": "\u0433. \u041e\u0445\u0430\u043d\u0441\u043a", "postal_code": "618100", "region": 53}}, {"model": "cities.city", "pk": 706, "fields": {"name": "\u0433. \u041e\u0447\u0435\u0440", "postal_code": "617140", "region": 53}}, {"model": "cities.city", "pk": 707, "fields": {"name": "\u0433. \u041f\u0435\u0440\u043c\u044c", "postal_code": "614000", "region": 53}}, {"model": "cities.city", "pk": 708, "fields": {"name": "\u0433. \u0421\u043e\u043b\u0438\u043a\u0430\u043c\u0441\u043a", "postal_code": "618541", "region": 53}}, {"model": "cities.city", "pk": 709, "fields": {"name": "\u0433. \u0423\u0441\u043e\u043b\u044c\u0435", "postal_code": "618460", "region": 53}}, {"model": "cities.city", "pk": 710, "fields": {"name": "\u0433. \u0427\u0430\u0439\u043a\u043e\u0432\u0441\u043a\u0438\u0439", "postal_code": "617760", "region": 53}}, {"model": "cities.city", "pk": 711, "fields": {"name": "\u0433. \u0427\u0435\u0440\u0434\u044b\u043d\u044c", "postal_code": "618601", "region": 53}}, {"model": "cities.city", "pk": 712, "fields": {"name": "\u0433. \u0427\u0435\u0440\u043c\u043e\u0437", "postal_code": "617040", "region": 53}}, {"model": "cities.city", "pk": 713, "fields": {"name": "\u0433. \u0427\u0435\u0440\u043d\u0443\u0448\u043a\u0430", "postal_code": "617830", "region": 53}}, {"model": "cities.city", "pk": 714, "fields": {"name": "\u0433. \u0427\u0443\u0441\u043e\u0432\u043e\u0439", "postal_code": "618200", "region": 53}}, {"model": "cities.city", "pk": 715, "fields": {"name": "\u0433. \u0410\u0440\u0441\u0435\u043d\u044c\u0435\u0432", "postal_code": "692330", "region": 54}}, {"model": "cities.city", "pk": 716, "fields": {"name": "\u0433. \u0410\u0440\u0442\u0435\u043c", "postal_code": "692486", "region": 54}}, {"model": "cities.city", "pk": 717, "fields": {"name": "\u0433. \u0411\u043e\u043b\u044c\u0448\u043e\u0439 \u041a\u0430\u043c\u0435\u043d\u044c", "postal_code": "692801", "region": 54}}, {"model": "cities.city", "pk": 718, "fields": {"name": "\u0433. \u0412\u043b\u0430\u0434\u0438\u0432\u043e\u0441\u0442\u043e\u043a", "postal_code": "690000", "region": 54}}, {"model": "cities.city", "pk": 719, "fields": {"name": "\u0433. \u0414\u0430\u043b\u044c\u043d\u0435\u0433\u043e\u0440\u0441\u043a", "postal_code": "692441", "region": 54}}, {"model": "cities.city", "pk": 720, "fields": {"name": "\u0433. \u0414\u0430\u043b\u044c\u043d\u0435\u0440\u0435\u0447\u0435\u043d\u0441\u043a", "postal_code": "692130", "region": 54}}, {"model": "cities.city", "pk": 721, "fields": {"name": "\u0433. \u041b\u0435\u0441\u043e\u0437\u0430\u0432\u043e\u0434\u0441\u043a", "postal_code": "692031", "region": 54}}, {"model": "cities.city", "pk": 722, "fields": {"name": "\u0433. \u041d\u0430\u0445\u043e\u0434\u043a\u0430", "postal_code": "692900", "region": 54}}, {"model": "cities.city", "pk": 723, "fields": {"name": "\u0433. \u041f\u0430\u0440\u0442\u0438\u0437\u0430\u043d\u0441\u043a", "postal_code": "692851", "region": 54}}, {"model": "cities.city", "pk": 724, "fields": {"name": "\u0433. \u0421\u043f\u0430\u0441\u0441\u043a-\u0414\u0430\u043b\u044c\u043d\u0438\u0439", "postal_code": "692230", "region": 54}}, {"model": "cities.city", "pk": 725, "fields": {"name": "\u0433. \u0423\u0441\u0441\u0443\u0440\u0438\u0439\u0441\u043a", "postal_code": "692500", "region": 54}}, {"model": "cities.city", "pk": 726, "fields": {"name": "\u0433. \u0424\u043e\u043a\u0438\u043d\u043e", "postal_code": "692880", "region": 54}}, {"model": "cities.city", "pk": 727, "fields": {"name": "\u0433. \u0412\u0435\u043b\u0438\u043a\u0438\u0435 \u041b\u0443\u043a\u0438", "postal_code": "182100", "region": 55}}, {"model": "cities.city", "pk": 728, "fields": {"name": "\u0433. \u0413\u0434\u043e\u0432", "postal_code": "181600", "region": 55}}, {"model": "cities.city", "pk": 729, "fields": {"name": "\u0433. \u0414\u043d\u043e", "postal_code": "182670", "region": 55}}, {"model": "cities.city", "pk": 730, "fields": {"name": "\u0433. \u041d\u0435\u0432\u0435\u043b\u044c", "postal_code": "182500", "region": 55}}, {"model": "cities.city", "pk": 731, "fields": {"name": "\u0433. \u041d\u043e\u0432\u043e\u0440\u0436\u0435\u0432", "postal_code": "182440", "region": 55}}, {"model": "cities.city", "pk": 732, "fields": {"name": "\u0433. \u041d\u043e\u0432\u043e\u0441\u043e\u043a\u043e\u043b\u044c\u043d\u0438\u043a\u0438", "postal_code": "182200", "region": 55}}, {"model": "cities.city", "pk": 733, "fields": {"name": "\u0433. \u041e\u043f\u043e\u0447\u043a\u0430", "postal_code": "182333", "region": 55}}, {"model": "cities.city", "pk": 734, "fields": {"name": "\u0433. \u041e\u0441\u0442\u0440\u043e\u0432", "postal_code": "181353", "region": 55}}, {"model": "cities.city", "pk": 735, "fields": {"name": "\u0433. \u041f\u0435\u0447\u043e\u0440\u044b", "postal_code": "181502", "region": 55}}, {"model": "cities.city", "pk": 736, "fields": {"name": "\u0433. \u041f\u043e\u0440\u0445\u043e\u0432", "postal_code": "182620", "region": 55}}, {"model": "cities.city", "pk": 737, "fields": {"name": "\u0433. \u041f\u0441\u043a\u043e\u0432", "postal_code": "180000", "region": 55}}, {"model": "cities.city", "pk": 738, "fields": {"name": "\u0433. \u041f\u0443\u0441\u0442\u043e\u0448\u043a\u0430", "postal_code": "182300", "region": 55}}, {"model": "cities.city", "pk": 739, "fields": {"name": "\u0433. \u041f\u044b\u0442\u0430\u043b\u043e\u0432\u043e", "postal_code": "181410", "region": 55}}, {"model": "cities.city", "pk": 740, "fields": {"name": "\u0433. \u0421\u0435\u0431\u0435\u0436", "postal_code": "182250", "region": 55}}, {"model": "cities.city", "pk": 741, "fields": {"name": "\u0433. \u0410\u0437\u043e\u0432", "postal_code": "346780", "region": 56}}, {"model": "cities.city", "pk": 742, "fields": {"name": "\u0433. \u0410\u043a\u0441\u0430\u0439", "postal_code": "346720", "region": 56}}, {"model": "cities.city", "pk": 743, "fields": {"name": "\u0433. \u0411\u0430\u0442\u0430\u0439\u0441\u043a", "postal_code": "346880", "region": 56}}, {"model": "cities.city", "pk": 744, "fields": {"name": "\u0433. \u0411\u0435\u043b\u0430\u044f \u041a\u0430\u043b\u0438\u0442\u0432\u0430", "postal_code": "347040", "region": 56}}, {"model": "cities.city", "pk": 745, "fields": {"name": "\u0433. \u0412\u043e\u043b\u0433\u043e\u0434\u043e\u043d\u0441\u043a", "postal_code": "347360", "region": 56}}, {"model": "cities.city", "pk": 746, "fields": {"name": "\u0433. \u0413\u0443\u043a\u043e\u0432\u043e", "postal_code": "347870", "region": 56}}, {"model": "cities.city", "pk": 747, "fields": {"name": "\u0433. \u0414\u043e\u043d\u0435\u0446\u043a", "postal_code": "346330", "region": 56}}, {"model": "cities.city", "pk": 748, "fields": {"name": "\u0433. \u0417\u0432\u0435\u0440\u0435\u0432\u043e", "postal_code": "346310", "region": 56}}, {"model": "cities.city", "pk": 749, "fields": {"name": "\u0433. \u0417\u0435\u0440\u043d\u043e\u0433\u0440\u0430\u0434", "postal_code": "347740", "region": 56}}, {"model": "cities.city", "pk": 750, "fields": {"name": "\u0433. \u041a\u0430\u043c\u0435\u043d\u0441\u043a-\u0428\u0430\u0445\u0442\u0438\u043d\u0441\u043a\u0438\u0439", "postal_code": "347800", "region": 56}}, {"model": "cities.city", "pk": 751, "fields": {"name": "\u0433. \u041a\u043e\u043d\u0441\u0442\u0430\u043d\u0442\u0438\u043d\u043e\u0432\u0441\u043a", "postal_code": "347250", "region": 56}}, {"model": "cities.city", "pk": 752, "fields": {"name": "\u0433. \u041a\u0440\u0430\u0441\u043d\u044b\u0439 \u0421\u0443\u043b\u0438\u043d", "postal_code": "346350", "region": 56}}, {"model": "cities.city", "pk": 753, "fields": {"name": "\u0433. \u041c\u0438\u043b\u043b\u0435\u0440\u043e\u0432\u043e", "postal_code": "346130", "region": 56}}, {"model": "cities.city", "pk": 754, "fields": {"name": "\u0433. \u041c\u043e\u0440\u043e\u0437\u043e\u0432\u0441\u043a", "postal_code": "347210", "region": 56}}, {"model": "cities.city", "pk": 755, "fields": {"name": "\u0433. \u041d\u043e\u0432\u043e\u0447\u0435\u0440\u043a\u0430\u0441\u0441\u043a", "postal_code": "346400", "region": 56}}, {"model": "cities.city", "pk": 756, "fields": {"name": "\u0433. \u041d\u043e\u0432\u043e\u0448\u0430\u0445\u0442\u0438\u043d\u0441\u043a", "postal_code": "346900", "region": 56}}, {"model": "cities.city", "pk": 757, "fields": {"name": "\u0433. \u041f\u0440\u043e\u043b\u0435\u0442\u0430\u0440\u0441\u043a", "postal_code": "347540", "region": 56}}, {"model": "cities.city", "pk": 758, "fields": {"name": "\u0433. \u0420\u043e\u0441\u0442\u043e\u0432-\u043d\u0430-\u0414\u043e\u043d\u0443", "postal_code": "344000", "region": 56}}, {"model": "cities.city", "pk": 759, "fields": {"name": "\u0433. \u0421\u0430\u043b\u044c\u0441\u043a", "postal_code": "347630", "region": 56}}, {"model": "cities.city", "pk": 760, "fields": {"name": "\u0433. \u0421\u0435\u043c\u0438\u043a\u0430\u0440\u0430\u043a\u043e\u0440\u0441\u043a", "postal_code": "346630", "region": 56}}, {"model": "cities.city", "pk": 761, "fields": {"name": "\u0433. \u0422\u0430\u0433\u0430\u043d\u0440\u043e\u0433", "postal_code": "347900", "region": 56}}, {"model": "cities.city", "pk": 762, "fields": {"name": "\u0433. \u0426\u0438\u043c\u043b\u044f\u043d\u0441\u043a", "postal_code": "347320", "region": 56}}, {"model": "cities.city", "pk": 763, "fields": {"name": "\u0433. \u0428\u0430\u0445\u0442\u044b", "postal_code": "346500", "region": 56}}, {"model": "cities.city", "pk": 764, "fields": {"name": "\u0433. \u041a\u0430\u0441\u0438\u043c\u043e\u0432", "postal_code": "391300", "region": 57}}, {"model": "cities.city", "pk": 765, "fields": {"name": "\u0433. \u041a\u043e\u0440\u0430\u0431\u043b\u0438\u043d\u043e", "postal_code": "391200", "region": 57}}, {"model": "cities.city", "pk": 766, "fields": {"name": "\u0433. \u041c\u0438\u0445\u0430\u0439\u043b\u043e\u0432", "postal_code": "391710", "region": 57}}, {"model": "cities.city", "pk": 767, "fields": {"name": "\u0433. \u041d\u043e\u0432\u043e\u043c\u0438\u0447\u0443\u0440\u0438\u043d\u0441\u043a", "postal_code": "391160", "region": 57}}, {"model": "cities.city", "pk": 768, "fields": {"name": "\u0433. \u0420\u044b\u0431\u043d\u043e\u0435", "postal_code": "391110", "region": 57}}, {"model": "cities.city", "pk": 769, "fields": {"name": "\u0433. \u0420\u044f\u0436\u0441\u043a", "postal_code": "391960", "region": 57}}, {"model": "cities.city", "pk": 770, "fields": {"name": "\u0433. \u0420\u044f\u0437\u0430\u043d\u044c", "postal_code": "390000", "region": 57}}, {"model": "cities.city", "pk": 771, "fields": {"name": "\u0433. \u0421\u0430\u0441\u043e\u0432\u043e", "postal_code": "391430", "region": 57}}, {"model": "cities.city", "pk": 772, "fields": {"name": "\u0433. \u0421\u043a\u043e\u043f\u0438\u043d", "postal_code": "391800", "region": 57}}, {"model": "cities.city", "pk": 773, "fields": {"name": "\u0433. \u0421\u043f\u0430\u0441-\u041a\u043b\u0435\u043f\u0438\u043a\u0438", "postal_code": "391030", "region": 57}}, {"model": "cities.city", "pk": 774, "fields": {"name": "\u0433. \u0421\u043f\u0430\u0441\u0441\u043a-\u0420\u044f\u0437\u0430\u043d\u0441\u043a\u0438\u0439", "postal_code": "391050", "region": 57}}, {"model": "cities.city", "pk": 775, "fields": {"name": "\u0433. \u0428\u0430\u0446\u043a", "postal_code": "391550", "region": 57}}, {"model": "cities.city", "pk": 776, "fields": {"name": "\u0433. \u0416\u0438\u0433\u0443\u043b\u0435\u0432\u0441\u043a", "postal_code": "445350", "region": 58}}, {"model": "cities.city", "pk": 777, "fields": {"name": "\u0433. \u041a\u0438\u043d\u0435\u043b\u044c", "postal_code": "446430", "region": 58}}, {"model": "cities.city", "pk": 778, "fields": {"name": "\u0433. \u041d\u0435\u0444\u0442\u0435\u0433\u043e\u0440\u0441\u043a", "postal_code": "446600", "region": 58}}, {"model": "cities.city", "pk": 779, "fields": {"name": "\u0433. \u041d\u043e\u0432\u043e\u043a\u0443\u0439\u0431\u044b\u0448\u0435\u0432\u0441\u043a", "postal_code": "446200", "region": 58}}, {"model": "cities.city", "pk": 780, "fields": {"name": "\u0433. \u041e\u043a\u0442\u044f\u0431\u0440\u044c\u0441\u043a", "postal_code": "445240", "region": 58}}, {"model": "cities.city", "pk": 781, "fields": {"name": "\u0433. \u041e\u0442\u0440\u0430\u0434\u043d\u044b\u0439", "postal_code": "446300", "region": 58}}, {"model": "cities.city", "pk": 782, "fields": {"name": "\u0433. \u041f\u043e\u0445\u0432\u0438\u0441\u0442\u043d\u0435\u0432\u043e", "postal_code": "446450", "region": 58}}, {"model": "cities.city", "pk": 783, "fields": {"name": "\u0433. \u0421\u0430\u043c\u0430\u0440\u0430", "postal_code": "443000", "region": 58}}, {"model": "cities.city", "pk": 784, "fields": {"name": "\u0433. \u0421\u044b\u0437\u0440\u0430\u043d\u044c", "postal_code": "446000", "region": 58}}, {"model": "cities.city", "pk": 785, "fields": {"name": "\u0433. \u0422\u043e\u043b\u044c\u044f\u0442\u0442\u0438", "postal_code": "445000", "region": 58}}, {"model": "cities.city", "pk": 786, "fields": {"name": "\u0433. \u0427\u0430\u043f\u0430\u0435\u0432\u0441\u043a", "postal_code": "446100", "region": 58}}, {"model": "cities.city", "pk": 787, "fields": {"name": "\u0433. \u0421\u0430\u043d\u043a\u0442-\u041f\u0435\u0442\u0435\u0440\u0431\u0443\u0440\u0433", "postal_code": "190000", "region": 42}}, {"model": "cities.city", "pk": 788, "fields": {"name": "\u0433. \u0410\u0440\u043a\u0430\u0434\u0430\u043a", "postal_code": "412210", "region": 59}}, {"model": "cities.city", "pk": 789, "fields": {"name": "\u0433. \u0410\u0442\u043a\u0430\u0440\u0441\u043a", "postal_code": "412420", "region": 59}}, {"model": "cities.city", "pk": 790, "fields": {"name": "\u0433. \u0411\u0430\u043b\u0430\u043a\u043e\u0432\u043e", "postal_code": "413840", "region": 59}}, {"model": "cities.city", "pk": 791, "fields": {"name": "\u0433. \u0411\u0430\u043b\u0430\u0448\u043e\u0432", "postal_code": "412300", "region": 59}}, {"model": "cities.city", "pk": 792, "fields": {"name": "\u0433. \u0412\u043e\u043b\u044c\u0441\u043a", "postal_code": "412900", "region": 59}}, {"model": "cities.city", "pk": 793, "fields": {"name": "\u0433. \u0415\u0440\u0448\u043e\u0432", "postal_code": "413500", "region": 59}}, {"model": "cities.city", "pk": 794, "fields": {"name": "\u0433. \u041a\u0430\u043b\u0438\u043d\u0438\u043d\u0441\u043a", "postal_code": "412480", "region": 59}}, {"model": "cities.city", "pk": 795, "fields": {"name": "\u0433. \u041a\u0440\u0430\u0441\u043d\u043e\u0430\u0440\u043c\u0435\u0439\u0441\u043a", "postal_code": "412800", "region": 59}}, {"model": "cities.city", "pk": 796, "fields": {"name": "\u0433. \u041a\u0440\u0430\u0441\u043d\u044b\u0439 \u041a\u0443\u0442", "postal_code": "413230", "region": 59}}, {"model": "cities.city", "pk": 797, "fields": {"name": "\u0433. \u041c\u0430\u0440\u043a\u0441", "postal_code": "413090", "region": 59}}, {"model": "cities.city", "pk": 798, "fields": {"name": "\u0433. \u041d\u043e\u0432\u043e\u0443\u0437\u0435\u043d\u0441\u043a", "postal_code": "413360", "region": 59}}, {"model": "cities.city", "pk": 799, "fields": {"name": "\u0433. \u041f\u0435\u0442\u0440\u043e\u0432\u0441\u043a", "postal_code": "412540", "region": 59}}, {"model": "cities.city", "pk": 800, "fields": {"name": "\u0433. \u041f\u0443\u0433\u0430\u0447\u0435\u0432", "postal_code": "413720", "region": 59}}, {"model": "cities.city", "pk": 801, "fields": {"name": "\u0433. \u0420\u0442\u0438\u0449\u0435\u0432\u043e", "postal_code": "412030", "region": 59}}, {"model": "cities.city", "pk": 802, "fields": {"name": "\u0433. \u0421\u0430\u0440\u0430\u0442\u043e\u0432", "postal_code": "410000", "region": 59}}, {"model": "cities.city", "pk": 803, "fields": {"name": "\u0433. \u0425\u0432\u0430\u043b\u044b\u043d\u0441\u043a", "postal_code": "412780", "region": 59}}, {"model": "cities.city", "pk": 804, "fields": {"name": "\u0433. \u0428\u0438\u0445\u0430\u043d\u044b", "postal_code": "412950", "region": 59}}, {"model": "cities.city", "pk": 805, "fields": {"name": "\u0433. \u042d\u043d\u0433\u0435\u043b\u044c\u0441", "postal_code": "413100", "region": 59}}, {"model": "cities.city", "pk": 806, "fields": {"name": "\u0433. \u0410\u043b\u0435\u043a\u0441\u0430\u043d\u0434\u0440\u043e\u0432\u0441\u043a-\u0421\u0430\u0445\u0430\u043b\u0438\u043d\u0441\u043a\u0438\u0439", "postal_code": "694420", "region": 60}}, {"model": "cities.city", "pk": 807, "fields": {"name": "\u0433. \u0410\u043d\u0438\u0432\u0430", "postal_code": "694030", "region": 60}}, {"model": "cities.city", "pk": 808, "fields": {"name": "\u0433. \u0414\u043e\u043b\u0438\u043d\u0441\u043a", "postal_code": "694051", "region": 60}}, {"model": "cities.city", "pk": 809, "fields": {"name": "\u0433. \u041a\u043e\u0440\u0441\u0430\u043a\u043e\u0432", "postal_code": "694020", "region": 60}}, {"model": "cities.city", "pk": 810, "fields": {"name": "\u0433. \u041a\u0443\u0440\u0438\u043b\u044c\u0441\u043a", "postal_code": "694530", "region": 60}}, {"model": "cities.city", "pk": 811, "fields": {"name": "\u0433. \u041c\u0430\u043a\u0430\u0440\u043e\u0432", "postal_code": "694140", "region": 60}}, {"model": "cities.city", "pk": 812, "fields": {"name": "\u0433. \u041d\u0435\u0432\u0435\u043b\u044c\u0441\u043a", "postal_code": "694740", "region": 60}}, {"model": "cities.city", "pk": 813, "fields": {"name": "\u0433. \u041e\u0445\u0430", "postal_code": "694490", "region": 60}}, {"model": "cities.city", "pk": 814, "fields": {"name": "\u0433. \u041f\u043e\u0440\u043e\u043d\u0430\u0439\u0441\u043a", "postal_code": "694240", "region": 60}}, {"model": "cities.city", "pk": 815, "fields": {"name": "\u0433. \u0421\u0435\u0432\u0435\u0440\u043e-\u041a\u0443\u0440\u0438\u043b\u044c\u0441\u043a", "postal_code": "694550", "region": 60}}, {"model": "cities.city", "pk": 816, "fields": {"name": "\u0433. \u0422\u043e\u043c\u0430\u0440\u0438", "postal_code": "694820", "region": 60}}, {"model": "cities.city", "pk": 817, "fields": {"name": "\u0433. \u0423\u0433\u043b\u0435\u0433\u043e\u0440\u0441\u043a", "postal_code": "694920", "region": 60}}, {"model": "cities.city", "pk": 818, "fields": {"name": "\u0433. \u0425\u043e\u043b\u043c\u0441\u043a", "postal_code": "694620", "region": 60}}, {"model": "cities.city", "pk": 819, "fields": {"name": "\u0433. \u042e\u0436\u043d\u043e-\u0421\u0430\u0445\u0430\u043b\u0438\u043d\u0441\u043a", "postal_code": "693000", "region": 60}}, {"model": "cities.city", "pk": 820, "fields": {"name": "\u0433. \u0410\u043b\u0430\u043f\u0430\u0435\u0432\u0441\u043a", "postal_code": "624600", "region": 61}}, {"model": "cities.city", "pk": 821, "fields": {"name": "\u0433. \u0410\u0440\u0430\u043c\u0438\u043b\u044c", "postal_code": "624000", "region": 61}}, {"model": "cities.city", "pk": 822, "fields": {"name": "\u0433. \u0410\u0440\u0442\u0435\u043c\u043e\u0432\u0441\u043a\u0438\u0439", "postal_code": "623780", "region": 61}}, {"model": "cities.city", "pk": 823, "fields": {"name": "\u0433. \u0410\u0441\u0431\u0435\u0441\u0442", "postal_code": "624260", "region": 61}}, {"model": "cities.city", "pk": 824, "fields": {"name": "\u0433. \u0411\u0435\u0440\u0435\u0437\u043e\u0432\u0441\u043a\u0438\u0439", "postal_code": "623700", "region": 61}}, {"model": "cities.city", "pk": 825, "fields": {"name": "\u0433. \u0411\u043e\u0433\u0434\u0430\u043d\u043e\u0432\u0438\u0447", "postal_code": "623530", "region": 61}}, {"model": "cities.city", "pk": 826, "fields": {"name": "\u0433. \u0412\u0435\u0440\u0445\u043d\u0438\u0439 \u0422\u0430\u0433\u0438\u043b", "postal_code": "624160", "region": 61}}, {"model": "cities.city", "pk": 827, "fields": {"name": "\u0433. \u0412\u0435\u0440\u0445\u043d\u044f\u044f \u041f\u044b\u0448\u043c\u0430", "postal_code": "624090", "region": 61}}, {"model": "cities.city", "pk": 828, "fields": {"name": "\u0433. \u0412\u0435\u0440\u0445\u043d\u044f\u044f \u0421\u0430\u043b\u0434\u0430", "postal_code": "624760", "region": 61}}, {"model": "cities.city", "pk": 829, "fields": {"name": "\u0433. \u0412\u0435\u0440\u0445\u043d\u044f\u044f \u0422\u0443\u0440\u0430", "postal_code": "624320", "region": 61}}, {"model": "cities.city", "pk": 830, "fields": {"name": "\u0433. \u0412\u0435\u0440\u0445\u043e\u0442\u0443\u0440\u044c\u0435", "postal_code": "624380", "region": 61}}, {"model": "cities.city", "pk": 831, "fields": {"name": "\u0433. \u0412\u043e\u043b\u0447\u0430\u043d\u0441\u043a", "postal_code": "624940", "region": 61}}, {"model": "cities.city", "pk": 832, "fields": {"name": "\u0433. \u0414\u0435\u0433\u0442\u044f\u0440\u0441\u043a", "postal_code": "623270", "region": 61}}, {"model": "cities.city", "pk": 833, "fields": {"name": "\u0433. \u0415\u043a\u0430\u0442\u0435\u0440\u0438\u043d\u0431\u0443\u0440\u0433", "postal_code": "620000", "region": 61}}, {"model": "cities.city", "pk": 834, "fields": {"name": "\u0433. \u0417\u0430\u0440\u0435\u0447\u043d\u044b\u0439", "postal_code": "624250", "region": 61}}, {"model": "cities.city", "pk": 835, "fields": {"name": "\u0433. \u0418\u0432\u0434\u0435\u043b\u044c", "postal_code": "624590", "region": 61}}, {"model": "cities.city", "pk": 836, "fields": {"name": "\u0433. \u0418\u0440\u0431\u0438\u0442", "postal_code": "623850", "region": 61}}, {"model": "cities.city", "pk": 837, "fields": {"name": "\u0433. \u041a\u0430\u043c\u0435\u043d\u0441\u043a-\u0423\u0440\u0430\u043b\u044c\u0441\u043a\u0438\u0439", "postal_code": "623400", "region": 61}}, {"model": "cities.city", "pk": 838, "fields": {"name": "\u0433. \u041a\u0430\u043c\u044b\u0448\u043b\u043e\u0432", "postal_code": "624860", "region": 61}}, {"model": "cities.city", "pk": 839, "fields": {"name": "\u0433. \u041a\u0430\u0440\u043f\u0438\u043d\u0441\u043a", "postal_code": "624930", "region": 61}}, {"model": "cities.city", "pk": 840, "fields": {"name": "\u0433. \u041a\u0430\u0447\u043a\u0430\u043d\u0430\u0440", "postal_code": "624350", "region": 61}}, {"model": "cities.city", "pk": 841, "fields": {"name": "\u0433. \u041a\u0438\u0440\u043e\u0432\u0433\u0440\u0430\u0434", "postal_code": "624140", "region": 61}}, {"model": "cities.city", "pk": 842, "fields": {"name": "\u0433. \u041a\u0440\u0430\u0441\u043d\u043e\u0442\u0443\u0440\u044c\u0438\u043d\u0441\u043a", "postal_code": "624440", "region": 61}}, {"model": "cities.city", "pk": 843, "fields": {"name": "\u0433. \u041a\u0440\u0430\u0441\u043d\u043e\u0443\u0440\u0430\u043b\u044c\u0441\u043a", "postal_code": "624330", "region": 61}}, {"model": "cities.city", "pk": 844, "fields": {"name": "\u0433. \u041a\u0440\u0430\u0441\u043d\u043e\u0443\u0444\u0438\u043c\u0441\u043a", "postal_code": "623300", "region": 61}}, {"model": "cities.city", "pk": 845, "fields": {"name": "\u0433. \u041a\u0443\u0448\u0432\u0430", "postal_code": "624300", "region": 61}}, {"model": "cities.city", "pk": 846, "fields": {"name": "\u0433. \u041b\u0435\u0441\u043d\u043e\u0439", "postal_code": "624200", "region": 61}}, {"model": "cities.city", "pk": 847, "fields": {"name": "\u0433. \u041c\u0438\u0445\u0430\u0439\u043b\u043e\u0432\u0441\u043a", "postal_code": "623080", "region": 61}}, {"model": "cities.city", "pk": 848, "fields": {"name": "\u0433. \u041d\u0435\u0432\u044c\u044f\u043d\u0441\u043a", "postal_code": "624191", "region": 61}}, {"model": "cities.city", "pk": 849, "fields": {"name": "\u0433. \u041d\u0438\u0436\u043d\u0438\u0435 \u0421\u0435\u0440\u0433\u0438", "postal_code": "623090", "region": 61}}, {"model": "cities.city", "pk": 850, "fields": {"name": "\u0433. \u041d\u0438\u0436\u043d\u0438\u0439 \u0422\u0430\u0433\u0438\u043b", "postal_code": "622000", "region": 61}}, {"model": "cities.city", "pk": 851, "fields": {"name": "\u0433. \u041d\u0438\u0436\u043d\u044f\u044f \u0421\u0430\u043b\u0434\u0430", "postal_code": "624740", "region": 61}}, {"model": "cities.city", "pk": 852, "fields": {"name": "\u0433. \u041d\u0438\u0436\u043d\u044f\u044f \u0422\u0443\u0440\u0430", "postal_code": "624220", "region": 61}}, {"model": "cities.city", "pk": 853, "fields": {"name": "\u0433. \u041d\u043e\u0432\u0430\u044f \u041b\u044f\u043b\u044f", "postal_code": "624400", "region": 61}}, {"model": "cities.city", "pk": 854, "fields": {"name": "\u0433. \u041d\u043e\u0432\u043e\u0443\u0440\u0430\u043b\u044c\u0441\u043a", "postal_code": "624130", "region": 61}}, {"model": "cities.city", "pk": 855, "fields": {"name": "\u0433. \u041f\u0435\u0440\u0432\u043e\u0443\u0440\u0430\u043b\u044c\u0441\u043a", "postal_code": "623100", "region": 61}}, {"model": "cities.city", "pk": 856, "fields": {"name": "\u0433. \u041f\u043e\u043b\u0435\u0432\u0441\u043a\u043e\u0439", "postal_code": "623382", "region": 61}}, {"model": "cities.city", "pk": 857, "fields": {"name": "\u0433. \u0420\u0435\u0432\u0434\u0430", "postal_code": "623280", "region": 61}}, {"model": "cities.city", "pk": 858, "fields": {"name": "\u0433. \u0420\u0435\u0436", "postal_code": "623750", "region": 61}}, {"model": "cities.city", "pk": 859, "fields": {"name": "\u0433. \u0421\u0435\u0432\u0435\u0440\u043e\u0443\u0440\u0430\u043b\u044c\u0441\u043a", "postal_code": "624480", "region": 61}}, {"model": "cities.city", "pk": 860, "fields": {"name": "\u0433. \u0421\u0435\u0440\u043e\u0432", "postal_code": "624981", "region": 61}}, {"model": "cities.city", "pk": 861, "fields": {"name": "\u0433. \u0421\u0440\u0435\u0434\u043d\u0435\u0443\u0440\u0430\u043b\u044c\u0441\u043a", "postal_code": "624070", "region": 61}}, {"model": "cities.city", "pk": 862, "fields": {"name": "\u0433. \u0421\u0443\u0445\u043e\u0439 \u041b\u043e\u0433", "postal_code": "624800", "region": 61}}, {"model": "cities.city", "pk": 863, "fields": {"name": "\u0433. \u0421\u044b\u0441\u0435\u0440\u0442\u044c", "postal_code": "624021", "region": 61}}, {"model": "cities.city", "pk": 864, "fields": {"name": "\u0433. \u0422\u0430\u0432\u0434\u0430", "postal_code": "623950", "region": 61}}, {"model": "cities.city", "pk": 865, "fields": {"name": "\u0433. \u0422\u0430\u043b\u0438\u0446\u0430", "postal_code": "623640", "region": 61}}, {"model": "cities.city", "pk": 866, "fields": {"name": "\u0433. \u0422\u0443\u0440\u0438\u043d\u0441\u043a", "postal_code": "623900", "region": 61}}, {"model": "cities.city", "pk": 867, "fields": {"name": "\u0433. \u0421\u0435\u0432\u0430\u0441\u0442\u043e\u043f\u043e\u043b\u044c", "postal_code": "299700", "region": 42}}, {"model": "cities.city", "pk": 868, "fields": {"name": "\u0433. \u0410\u043b\u0430\u0433\u0438\u0440", "postal_code": "363240", "region": 62}}, {"model": "cities.city", "pk": 869, "fields": {"name": "\u0433. \u0410\u0440\u0434\u043e\u043d", "postal_code": "363331", "region": 62}}, {"model": "cities.city", "pk": 870, "fields": {"name": "\u0433. \u0411\u0435\u0441\u043b\u0430\u043d", "postal_code": "363020", "region": 62}}, {"model": "cities.city", "pk": 871, "fields": {"name": "\u0433. \u0412\u043b\u0430\u0434\u0438\u043a\u0430\u0432\u043a\u0430\u0437", "postal_code": "362000", "region": 62}}, {"model": "cities.city", "pk": 872, "fields": {"name": "\u0433. \u0414\u0438\u0433\u043e\u0440\u0430", "postal_code": "363410", "region": 62}}, {"model": "cities.city", "pk": 873, "fields": {"name": "\u0433. \u041c\u043e\u0437\u0434\u043e\u043a", "postal_code": "363750", "region": 62}}, {"model": "cities.city", "pk": 874, "fields": {"name": "\u0433. \u0412\u0435\u043b\u0438\u0436", "postal_code": "216290", "region": 63}}, {"model": "cities.city", "pk": 875, "fields": {"name": "\u0433. \u0412\u044f\u0437\u044c\u043c\u0430", "postal_code": "215110", "region": 63}}, {"model": "cities.city", "pk": 876, "fields": {"name": "\u0433. \u0413\u0430\u0433\u0430\u0440\u0438\u043d", "postal_code": "215010", "region": 63}}, {"model": "cities.city", "pk": 877, "fields": {"name": "\u0433. \u0414\u0435\u043c\u0438\u0434\u043e\u0432", "postal_code": "216240", "region": 63}}, {"model": "cities.city", "pk": 878, "fields": {"name": "\u0433. \u0414\u0435\u0441\u043d\u043e\u0433\u043e\u0440\u0441\u043a", "postal_code": "216400", "region": 63}}, {"model": "cities.city", "pk": 879, "fields": {"name": "\u0433. \u0414\u043e\u0440\u043e\u0433\u043e\u0431\u0443\u0436", "postal_code": "215710", "region": 63}}, {"model": "cities.city", "pk": 880, "fields": {"name": "\u0433. \u0414\u0443\u0445\u043e\u0432\u0449\u0438\u043d\u0430", "postal_code": "216200", "region": 63}}, {"model": "cities.city", "pk": 881, "fields": {"name": "\u0433. \u0415\u043b\u044c\u043d\u044f", "postal_code": "216330", "region": 63}}, {"model": "cities.city", "pk": 882, "fields": {"name": "\u0433. \u041f\u043e\u0447\u0438\u043d\u043e\u043a", "postal_code": "216450", "region": 63}}, {"model": "cities.city", "pk": 883, "fields": {"name": "\u0433. \u0420\u043e\u0441\u043b\u0430\u0432\u043b\u044c", "postal_code": "216500", "region": 63}}, {"model": "cities.city", "pk": 884, "fields": {"name": "\u0433. \u0420\u0443\u0434\u043d\u044f", "postal_code": "216790", "region": 63}}, {"model": "cities.city", "pk": 885, "fields": {"name": "\u0433. \u0421\u0430\u0444\u043e\u043d\u043e\u0432\u043e", "postal_code": "215500", "region": 63}}, {"model": "cities.city", "pk": 886, "fields": {"name": "\u0433. \u0421\u043c\u043e\u043b\u0435\u043d\u0441\u043a", "postal_code": "214000", "region": 63}}, {"model": "cities.city", "pk": 887, "fields": {"name": "\u0433. \u0421\u044b\u0447\u0435\u0432\u043a\u0430", "postal_code": "215279", "region": 63}}, {"model": "cities.city", "pk": 888, "fields": {"name": "\u0433. \u042f\u0440\u0446\u0435\u0432\u043e", "postal_code": "215800", "region": 63}}, {"model": "cities.city", "pk": 889, "fields": {"name": "\u0433. \u0411\u043b\u0430\u0433\u043e\u0434\u0430\u0440\u043d\u044b\u0439", "postal_code": "356420", "region": 64}}, {"model": "cities.city", "pk": 890, "fields": {"name": "\u0433. \u0411\u0443\u0434\u0435\u043d\u043d\u043e\u0432\u0441\u043a", "postal_code": "356800", "region": 64}}, {"model": "cities.city", "pk": 891, "fields": {"name": "\u0433. \u0413\u0435\u043e\u0440\u0433\u0438\u0435\u0432\u0441\u043a", "postal_code": "357820", "region": 64}}, {"model": "cities.city", "pk": 892, "fields": {"name": "\u0433. \u0415\u0441\u0441\u0435\u043d\u0442\u0443\u043a\u0438", "postal_code": "357600", "region": 64}}, {"model": "cities.city", "pk": 893, "fields": {"name": "\u0433. \u0416\u0435\u043b\u0435\u0437\u043d\u043e\u0432\u043e\u0434\u0441\u043a", "postal_code": "357400", "region": 64}}, {"model": "cities.city", "pk": 894, "fields": {"name": "\u0433. \u0417\u0435\u043b\u0435\u043d\u043e\u043a\u0443\u043c\u0441\u043a", "postal_code": "357910", "region": 64}}, {"model": "cities.city", "pk": 895, "fields": {"name": "\u0433. \u0418\u0437\u043e\u0431\u0438\u043b\u044c\u043d\u044b\u0439", "postal_code": "356140", "region": 64}}, {"model": "cities.city", "pk": 896, "fields": {"name": "\u0433. \u0418\u043f\u0430\u0442\u043e\u0432\u043e", "postal_code": "356630", "region": 64}}, {"model": "cities.city", "pk": 897, "fields": {"name": "\u0433. \u041a\u0438\u0441\u043b\u043e\u0432\u043e\u0434\u0441\u043a", "postal_code": "357700", "region": 64}}, {"model": "cities.city", "pk": 898, "fields": {"name": "\u0433. \u041b\u0435\u0440\u043c\u043e\u043d\u0442\u043e\u0432", "postal_code": "357340", "region": 64}}, {"model": "cities.city", "pk": 899, "fields": {"name": "\u0433. \u041c\u0438\u043d\u0435\u0440\u0430\u043b\u044c\u043d\u044b\u0435 \u0412\u043e\u0434\u044b", "postal_code": "357200", "region": 64}}, {"model": "cities.city", "pk": 900, "fields": {"name": "\u0433. \u041c\u0438\u0445\u0430\u0439\u043b\u043e\u0432\u0441\u043a", "postal_code": "356240", "region": 64}}, {"model": "cities.city", "pk": 901, "fields": {"name": "\u0433. \u041d\u0435\u0432\u0438\u043d\u043d\u043e\u043c\u044b\u0441\u0441\u043a", "postal_code": "357100", "region": 64}}, {"model": "cities.city", "pk": 902, "fields": {"name": "\u0433. \u041d\u0435\u0444\u0442\u0435\u043a\u0443\u043c\u0441\u043a", "postal_code": "356880", "region": 64}}, {"model": "cities.city", "pk": 903, "fields": {"name": "\u0433. \u041d\u043e\u0432\u043e\u0430\u043b\u0435\u043a\u0441\u0430\u043d\u0434\u0440\u043e\u0432\u0441\u043a", "postal_code": "356000", "region": 64}}, {"model": "cities.city", "pk": 904, "fields": {"name": "\u0433. \u041d\u043e\u0432\u043e\u043f\u0430\u0432\u043b\u043e\u0432\u0441\u043a", "postal_code": "357300", "region": 64}}, {"model": "cities.city", "pk": 905, "fields": {"name": "\u0433. \u041f\u044f\u0442\u0438\u0433\u043e\u0440\u0441\u043a", "postal_code": "357500", "region": 64}}, {"model": "cities.city", "pk": 906, "fields": {"name": "\u0433. \u0421\u0432\u0435\u0442\u043b\u043e\u0433\u0440\u0430\u0434", "postal_code": "356530", "region": 64}}, {"model": "cities.city", "pk": 907, "fields": {"name": "\u0433. \u0421\u0442\u0430\u0432\u0440\u043e\u043f\u043e\u043b\u044c", "postal_code": "355000", "region": 64}}, {"model": "cities.city", "pk": 908, "fields": {"name": "\u0433. \u0416\u0435\u0440\u0434\u0435\u0432\u043a\u0430", "postal_code": "393670", "region": 65}}, {"model": "cities.city", "pk": 909, "fields": {"name": "\u0433. \u041a\u0438\u0440\u0441\u0430\u043d\u043e\u0432", "postal_code": "393360", "region": 65}}, {"model": "cities.city", "pk": 910, "fields": {"name": "\u0433. \u041a\u043e\u0442\u043e\u0432\u0441\u043a", "postal_code": "393190", "region": 65}}, {"model": "cities.city", "pk": 911, "fields": {"name": "\u0433. \u041c\u0438\u0447\u0443\u0440\u0438\u043d\u0441\u043a", "postal_code": "393760", "region": 65}}, {"model": "cities.city", "pk": 912, "fields": {"name": "\u0433. \u041c\u043e\u0440\u0448\u0430\u043d\u0441\u043a", "postal_code": "393950", "region": 65}}, {"model": "cities.city", "pk": 913, "fields": {"name": "\u0433. \u0420\u0430\u0441\u0441\u043a\u0430\u0437\u043e\u0432\u043e", "postal_code": "393250", "region": 65}}, {"model": "cities.city", "pk": 914, "fields": {"name": "\u0433. \u0422\u0430\u043c\u0431\u043e\u0432", "postal_code": "392000", "region": 65}}, {"model": "cities.city", "pk": 915, "fields": {"name": "\u0433. \u0423\u0432\u0430\u0440\u043e\u0432\u043e", "postal_code": "393460", "region": 65}}, {"model": "cities.city", "pk": 916, "fields": {"name": "\u0433. \u0410\u0433\u0440\u044b\u0437", "postal_code": "422230", "region": 66}}, {"model": "cities.city", "pk": 917, "fields": {"name": "\u0433. \u0410\u0437\u043d\u0430\u043a\u0430\u0435\u0432\u043e", "postal_code": "423330", "region": 66}}, {"model": "cities.city", "pk": 918, "fields": {"name": "\u0433. \u0410\u043b\u044c\u043c\u0435\u0442\u044c\u0435\u0432\u0441\u043a", "postal_code": "423403", "region": 66}}, {"model": "cities.city", "pk": 919, "fields": {"name": "\u0433. \u0410\u0440\u0441\u043a", "postal_code": "422000", "region": 66}}, {"model": "cities.city", "pk": 920, "fields": {"name": "\u0433. \u0411\u0430\u0432\u043b\u044b", "postal_code": "423930", "region": 66}}, {"model": "cities.city", "pk": 921, "fields": {"name": "\u0433. \u0411\u043e\u043b\u0433\u0430\u0440", "postal_code": "422840", "region": 66}}, {"model": "cities.city", "pk": 922, "fields": {"name": "\u0433. \u0411\u0443\u0433\u0443\u043b\u044c\u043c\u0430", "postal_code": "423230", "region": 66}}, {"model": "cities.city", "pk": 923, "fields": {"name": "\u0433. \u0411\u0443\u0438\u043d\u0441\u043a", "postal_code": "422430", "region": 66}}, {"model": "cities.city", "pk": 924, "fields": {"name": "\u0433. \u0415\u043b\u0430\u0431\u0443\u0433\u0430", "postal_code": "423600", "region": 66}}, {"model": "cities.city", "pk": 925, "fields": {"name": "\u0433. \u0417\u0430\u0438\u043d\u0441\u043a", "postal_code": "423520", "region": 66}}, {"model": "cities.city", "pk": 926, "fields": {"name": "\u0433. \u0417\u0435\u043b\u0435\u043d\u043e\u0434\u043e\u043b\u044c\u0441\u043a", "postal_code": "422521", "region": 66}}, {"model": "cities.city", "pk": 927, "fields": {"name": "\u0433. \u0418\u043d\u043d\u043e\u043f\u043e\u043b\u0438\u0441", "postal_code": "420500", "region": 66}}, {"model": "cities.city", "pk": 928, "fields": {"name": "\u0433. \u041a\u0430\u0437\u0430\u043d\u044c", "postal_code": "420000", "region": 66}}, {"model": "cities.city", "pk": 929, "fields": {"name": "\u0433. \u041a\u0443\u043a\u043c\u043e\u0440", "postal_code": "422110", "region": 66}}, {"model": "cities.city", "pk": 930, "fields": {"name": "\u0433. \u041b\u0430\u0438\u0448\u0435\u0432\u043e", "postal_code": "422610", "region": 66}}, {"model": "cities.city", "pk": 931, "fields": {"name": "\u0433. \u041b\u0435\u043d\u0438\u043d\u043e\u0433\u043e\u0440\u0441\u043a", "postal_code": "423250", "region": 66}}, {"model": "cities.city", "pk": 932, "fields": {"name": "\u0433. \u041c\u0430\u043c\u0430\u0434\u044b\u0448", "postal_code": "422190", "region": 66}}, {"model": "cities.city", "pk": 933, "fields": {"name": "\u0433. \u041c\u0435\u043d\u0434\u0435\u043b\u0435\u0435\u0432\u0441\u043a", "postal_code": "423650", "region": 66}}, {"model": "cities.city", "pk": 934, "fields": {"name": "\u0433. \u041c\u0435\u043d\u0437\u0435\u043b\u0438\u043d\u0441\u043a", "postal_code": "423700", "region": 66}}, {"model": "cities.city", "pk": 935, "fields": {"name": "\u0433. \u041d\u0430\u0431\u0435\u0440\u0435\u0436\u043d\u044b\u0435 \u0427\u0435\u043b\u043d\u044b", "postal_code": "423800", "region": 66}}, {"model": "cities.city", "pk": 936, "fields": {"name": "\u0433. \u041d\u0438\u0436\u043d\u0435\u043a\u0430\u043c\u0441\u043a", "postal_code": "423570", "region": 66}}, {"model": "cities.city", "pk": 937, "fields": {"name": "\u0433. \u041d\u0443\u0440\u043b\u0430\u0442", "postal_code": "423040", "region": 66}}, {"model": "cities.city", "pk": 938, "fields": {"name": "\u0433. \u0422\u0435\u0442\u044e\u0448\u0438", "postal_code": "422370", "region": 66}}, {"model": "cities.city", "pk": 939, "fields": {"name": "\u0433. \u0427\u0438\u0441\u0442\u043e\u043f\u043e\u043b\u044c", "postal_code": "422951", "region": 66}}, {"model": "cities.city", "pk": 940, "fields": {"name": "\u0433. \u0410\u043d\u0434\u0440\u0435\u0430\u043f\u043e\u043b\u044c", "postal_code": "172800", "region": 67}}, {"model": "cities.city", "pk": 941, "fields": {"name": "\u0433. \u0411\u0435\u0436\u0435\u0446\u043a", "postal_code": "171980", "region": 67}}, {"model": "cities.city", "pk": 942, "fields": {"name": "\u0433. \u0411\u0435\u043b\u044b\u0439", "postal_code": "172530", "region": 67}}, {"model": "cities.city", "pk": 943, "fields": {"name": "\u0433. \u0411\u043e\u043b\u043e\u0433\u043e\u0435", "postal_code": "171070", "region": 67}}, {"model": "cities.city", "pk": 944, "fields": {"name": "\u0433. \u0412\u0435\u0441\u044c\u0435\u0433\u043e\u043d\u0441\u043a", "postal_code": "171720", "region": 67}}, {"model": "cities.city", "pk": 945, "fields": {"name": "\u0433. \u0412\u044b\u0448\u043d\u0438\u0439 \u0412\u043e\u043b\u043e\u0447\u0435\u043a", "postal_code": "171150", "region": 67}}, {"model": "cities.city", "pk": 946, "fields": {"name": "\u0433. \u0417\u0430\u043f\u0430\u0434\u043d\u0430\u044f \u0414\u0432\u0438\u043d\u0430", "postal_code": "172610", "region": 67}}, {"model": "cities.city", "pk": 947, "fields": {"name": "\u0433. \u0417\u0443\u0431\u0446\u043e\u0432", "postal_code": "172332", "region": 67}}, {"model": "cities.city", "pk": 948, "fields": {"name": "\u0433. \u041a\u0430\u043b\u044f\u0437\u0438\u043d", "postal_code": "171571", "region": 67}}, {"model": "cities.city", "pk": 949, "fields": {"name": "\u0433. \u041a\u0430\u0448\u0438\u043d", "postal_code": "171640", "region": 67}}, {"model": "cities.city", "pk": 950, "fields": {"name": "\u0433. \u041a\u0438\u043c\u0440\u044b", "postal_code": "171500", "region": 67}}, {"model": "cities.city", "pk": 951, "fields": {"name": "\u0433. \u041a\u043e\u043d\u0430\u043a\u043e\u0432\u043e", "postal_code": "171250", "region": 67}}, {"model": "cities.city", "pk": 952, "fields": {"name": "\u0433. \u041a\u0440\u0430\u0441\u043d\u044b\u0439 \u0425\u043e\u043b\u043c", "postal_code": "171660", "region": 67}}, {"model": "cities.city", "pk": 953, "fields": {"name": "\u0433. \u041a\u0443\u0432\u0448\u0438\u043d\u043e\u0432\u043e", "postal_code": "172110", "region": 67}}, {"model": "cities.city", "pk": 954, "fields": {"name": "\u0433. \u041b\u0438\u0445\u043e\u0441\u043b\u0430\u0432\u043b\u044c", "postal_code": "171210", "region": 67}}, {"model": "cities.city", "pk": 955, "fields": {"name": "\u0433. \u041d\u0435\u043b\u0438\u0434\u043e\u0432\u043e", "postal_code": "172520", "region": 67}}, {"model": "cities.city", "pk": 956, "fields": {"name": "\u0433. \u041e\u0441\u0442\u0430\u0448\u043a\u043e\u0432", "postal_code": "172730", "region": 67}}, {"model": "cities.city", "pk": 957, "fields": {"name": "\u0433. \u0420\u0436\u0435\u0432", "postal_code": "172380", "region": 67}}, {"model": "cities.city", "pk": 958, "fields": {"name": "\u0433. \u0421\u0442\u0430\u0440\u0438\u0446\u0430", "postal_code": "171360", "region": 67}}, {"model": "cities.city", "pk": 959, "fields": {"name": "\u0433. \u0422\u0432\u0435\u0440\u044c", "postal_code": "170000", "region": 67}}, {"model": "cities.city", "pk": 960, "fields": {"name": "\u0433. \u0422\u043e\u0440\u0436\u043e\u043a", "postal_code": "172000", "region": 67}}, {"model": "cities.city", "pk": 961, "fields": {"name": "\u0433. \u0422\u043e\u0440\u043e\u043f\u0435\u0446", "postal_code": "172842", "region": 67}}, {"model": "cities.city", "pk": 962, "fields": {"name": "\u0433. \u0423\u0434\u043e\u043c\u043b\u044f", "postal_code": "171841", "region": 67}}, {"model": "cities.city", "pk": 963, "fields": {"name": "\u0433. \u0410\u0441\u0438\u043d\u043e", "postal_code": "636840", "region": 68}}, {"model": "cities.city", "pk": 964, "fields": {"name": "\u0433. \u041a\u0435\u0434\u0440\u043e\u0432\u044b\u0439", "postal_code": "636615", "region": 68}}, {"model": "cities.city", "pk": 965, "fields": {"name": "\u0433. \u041a\u043e\u043b\u043f\u0430\u0448\u0435\u0432\u043e", "postal_code": "636460", "region": 68}}, {"model": "cities.city", "pk": 966, "fields": {"name": "\u0433. \u0421\u0435\u0432\u0435\u0440\u0441\u043a", "postal_code": "636000", "region": 68}}, {"model": "cities.city", "pk": 967, "fields": {"name": "\u0433. \u0421\u0442\u0440\u0435\u0436\u0435\u0432\u043e\u0439", "postal_code": "636780", "region": 68}}, {"model": "cities.city", "pk": 968, "fields": {"name": "\u0433. \u0422\u043e\u043c\u0441\u043a", "postal_code": "634000", "region": 68}}, {"model": "cities.city", "pk": 969, "fields": {"name": "\u0433. \u0410\u043b\u0435\u043a\u0441\u0438\u043d", "postal_code": "301352", "region": 69}}, {"model": "cities.city", "pk": 970, "fields": {"name": "\u0433. \u0411\u0435\u043b\u0435\u0432", "postal_code": "301530", "region": 69}}, {"model": "cities.city", "pk": 971, "fields": {"name": "\u0433. \u0411\u043e\u0433\u043e\u0440\u043e\u0434\u0438\u0446\u043a", "postal_code": "301830", "region": 69}}, {"model": "cities.city", "pk": 972, "fields": {"name": "\u0433. \u0411\u043e\u043b\u043e\u0445\u043e\u0432\u043e", "postal_code": "301280", "region": 69}}, {"model": "cities.city", "pk": 973, "fields": {"name": "\u0433. \u0412\u0435\u043d\u0435\u0432", "postal_code": "301320", "region": 69}}, {"model": "cities.city", "pk": 974, "fields": {"name": "\u0433. \u0414\u043e\u043d\u0441\u043a\u043e\u0439", "postal_code": "301760", "region": 69}}, {"model": "cities.city", "pk": 975, "fields": {"name": "\u0433. \u0415\u0444\u0440\u0435\u043c\u043e\u0432", "postal_code": "301840", "region": 69}}, {"model": "cities.city", "pk": 976, "fields": {"name": "\u0433. \u041a\u0438\u043c\u043e\u0432\u0441\u043a", "postal_code": "301720", "region": 69}}, {"model": "cities.city", "pk": 977, "fields": {"name": "\u0433. \u041a\u0438\u0440\u0435\u0435\u0432\u0441\u043a", "postal_code": "301260", "region": 69}}, {"model": "cities.city", "pk": 978, "fields": {"name": "\u0433. \u041b\u0438\u043f\u043a\u0438", "postal_code": "301264", "region": 69}}, {"model": "cities.city", "pk": 979, "fields": {"name": "\u0433. \u041d\u043e\u0432\u043e\u043c\u043e\u0441\u043a\u043e\u0432\u0441\u043a", "postal_code": "301650", "region": 69}}, {"model": "cities.city", "pk": 980, "fields": {"name": "\u0433. \u041f\u043b\u0430\u0432\u0441\u043a", "postal_code": "301470", "region": 69}}, {"model": "cities.city", "pk": 981, "fields": {"name": "\u0433. \u0421\u043e\u0432\u0435\u0442\u0441\u043a", "postal_code": "301205", "region": 69}}, {"model": "cities.city", "pk": 982, "fields": {"name": "\u0433. \u0421\u0443\u0432\u043e\u0440\u043e\u0432", "postal_code": "301430", "region": 69}}, {"model": "cities.city", "pk": 983, "fields": {"name": "\u0433. \u0422\u0443\u043b\u0430", "postal_code": "300000", "region": 69}}, {"model": "cities.city", "pk": 984, "fields": {"name": "\u0433. \u0423\u0437\u043b\u043e\u0432\u0430\u044f", "postal_code": "301600", "region": 69}}, {"model": "cities.city", "pk": 985, "fields": {"name": "\u0433. \u0427\u0435\u043a\u0430\u043b\u0438\u043d", "postal_code": "301414", "region": 69}}, {"model": "cities.city", "pk": 986, "fields": {"name": "\u0433. \u0429\u0435\u043a\u0438\u043d\u043e", "postal_code": "301240", "region": 69}}, {"model": "cities.city", "pk": 987, "fields": {"name": "\u0433. \u042f\u0441\u043d\u043e\u0433\u043e\u0440\u0441\u043a", "postal_code": "301030", "region": 69}}, {"model": "cities.city", "pk": 988, "fields": {"name": "\u0433. \u0410\u043a-\u0414\u043e\u0432\u0443\u0440\u0430\u043a", "postal_code": "668050", "region": 70}}, {"model": "cities.city", "pk": 989, "fields": {"name": "\u0433. \u041a\u044b\u0437\u044b\u043b", "postal_code": "667000", "region": 70}}, {"model": "cities.city", "pk": 990, "fields": {"name": "\u0433. \u0422\u0443\u0440\u0430\u043d", "postal_code": "668510", "region": 70}}, {"model": "cities.city", "pk": 991, "fields": {"name": "\u0433. \u0427\u0430\u0434\u0430\u043d", "postal_code": "668110", "region": 70}}, {"model": "cities.city", "pk": 992, "fields": {"name": "\u0433. \u0428\u0430\u0433\u043e\u043d\u0430\u0440", "postal_code": "668210", "region": 70}}, {"model": "cities.city", "pk": 993, "fields": {"name": "\u0433. \u0417\u0430\u0432\u043e\u0434\u043e\u0443\u043a\u043e\u0432\u0441\u043a", "postal_code": "627140", "region": 71}}, {"model": "cities.city", "pk": 994, "fields": {"name": "\u0433. \u0418\u0448\u0438\u043c", "postal_code": "627705", "region": 71}}, {"model": "cities.city", "pk": 995, "fields": {"name": "\u0433. \u0422\u043e\u0431\u043e\u043b\u044c\u0441\u043a", "postal_code": "626150", "region": 71}}, {"model": "cities.city", "pk": 996, "fields": {"name": "\u0433. \u0422\u044e\u043c\u0435\u043d\u044c", "postal_code": "625000", "region": 71}}, {"model": "cities.city", "pk": 997, "fields": {"name": "\u0433. \u042f\u043b\u0443\u0442\u043e\u0440\u043e\u0432\u0441\u043a", "postal_code": "627010", "region": 71}}, {"model": "cities.city", "pk": 998, "fields": {"name": "\u0433. \u0412\u043e\u0442\u043a\u0438\u043d\u0441\u043a", "postal_code": "427430", "region": 72}}, {"model": "cities.city", "pk": 999, "fields": {"name": "\u0433. \u0413\u043b\u0430\u0437\u043e\u0432", "postal_code": "427620", "region": 72}}, {"model": "cities.city", "pk": 1000, "fields": {"name": "\u0433. \u0418\u0436\u0435\u0432\u0441\u043a", "postal_code": "426000", "region": 72}}, {"model": "cities.city", "pk": 1001, "fields": {"name": "\u0433. \u041a\u0430\u043c\u0431\u0430\u0440\u043a\u0430", "postal_code": "427950", "region": 72}}, {"model": "cities.city", "pk": 1002, "fields": {"name": "\u0433. \u041c\u043e\u0436\u0433\u0430", "postal_code": "427759", "region": 72}}, {"model": "cities.city", "pk": 1003, "fields": {"name": "\u0433. \u0421\u0430\u0440\u0430\u043f\u0443\u043b", "postal_code": "427960", "region": 72}}, {"model": "cities.city", "pk": 1004, "fields": {"name": "\u0433. \u0411\u0430\u0440\u044b\u0448", "postal_code": "433750", "region": 73}}, {"model": "cities.city", "pk": 1005, "fields": {"name": "\u0433. \u0414\u0438\u043c\u0438\u0442\u0440\u043e\u0432\u0433\u0440\u0430\u0434", "postal_code": "433500", "region": 73}}, {"model": "cities.city", "pk": 1006, "fields": {"name": "\u0433. \u0418\u043d\u0437\u0430", "postal_code": "433030", "region": 73}}, {"model": "cities.city", "pk": 1007, "fields": {"name": "\u0433. \u041d\u043e\u0432\u043e\u0443\u043b\u044c\u044f\u043d\u043e\u0432\u0441\u043a", "postal_code": "433300", "region": 73}}, {"model": "cities.city", "pk": 1008, "fields": {"name": "\u0433. \u0421\u0435\u043d\u0433\u0438\u043b\u0435\u0439", "postal_code": "433380", "region": 73}}, {"model": "cities.city", "pk": 1009, "fields": {"name": "\u0433. \u0423\u043b\u044c\u044f\u043d\u043e\u0432\u0441\u043a", "postal_code": "432000", "region": 73}}, {"model": "cities.city", "pk": 1010, "fields": {"name": "\u0433. \u0410\u043c\u0443\u0440\u0441\u043a", "postal_code": "682640", "region": 74}}, {"model": "cities.city", "pk": 1011, "fields": {"name": "\u0433. \u0411\u0438\u043a\u0438\u043d", "postal_code": "682970", "region": 74}}, {"model": "cities.city", "pk": 1012, "fields": {"name": "\u0433. \u0412\u044f\u0437\u0435\u043c\u0441\u043a\u0438\u0439", "postal_code": "682950", "region": 74}}, {"model": "cities.city", "pk": 1013, "fields": {"name": "\u0433. \u041a\u043e\u043c\u0441\u043e\u043c\u043e\u043b\u044c\u0441\u043a-\u043d\u0430-\u0410\u043c\u0443\u0440\u0435", "postal_code": "681000", "region": 74}}, {"model": "cities.city", "pk": 1014, "fields": {"name": "\u0433. \u041d\u0438\u043a\u043e\u043b\u0430\u0435\u0432\u0441\u043a-\u043d\u0430-\u0410\u043c\u0443\u0440\u0435", "postal_code": "682460", "region": 74}}, {"model": "cities.city", "pk": 1015, "fields": {"name": "\u0433. \u0421\u043e\u0432\u0435\u0442\u0441\u043a\u0430\u044f \u0413\u0430\u0432\u0430\u043d\u044c", "postal_code": "682800", "region": 74}}, {"model": "cities.city", "pk": 1016, "fields": {"name": "\u0433. \u0425\u0430\u0431\u0430\u0440\u043e\u0432\u0441\u043a", "postal_code": "680000", "region": 74}}, {"model": "cities.city", "pk": 1017, "fields": {"name": "\u0433. \u0410\u0431\u0430\u0437\u0430", "postal_code": "655750", "region": 75}}, {"model": "cities.city", "pk": 1018, "fields": {"name": "\u0433. \u0410\u0431\u0430\u043a\u0430\u043d", "postal_code": "655000", "region": 75}}, {"model": "cities.city", "pk": 1019, "fields": {"name": "\u0433. \u0421\u0430\u044f\u043d\u043e\u0433\u043e\u0440\u0441\u043a", "postal_code": "655602", "region": 75}}, {"model": "cities.city", "pk": 1020, "fields": {"name": "\u0433. \u0421\u043e\u0440\u0441\u043a", "postal_code": "655111", "region": 75}}, {"model": "cities.city", "pk": 1021, "fields": {"name": "\u0433. \u0427\u0435\u0440\u043d\u043e\u0433\u043e\u0440\u0441\u043a", "postal_code": "655151", "region": 75}}, {"model": "cities.city", "pk": 1022, "fields": {"name": "\u0433. \u0411\u0435\u043b\u043e\u044f\u0440\u0441\u043a\u0438\u0439", "postal_code": "628160", "region": 76}}, {"model": "cities.city", "pk": 1023, "fields": {"name": "\u0433. \u041a\u043e\u0433\u0430\u043b\u044b\u043c", "postal_code": "628481", "region": 76}}, {"model": "cities.city", "pk": 1024, "fields": {"name": "\u0433. \u041b\u0430\u043d\u0433\u0435\u043f\u0430\u0441", "postal_code": "628671", "region": 76}}, {"model": "cities.city", "pk": 1025, "fields": {"name": "\u0433. \u041b\u044f\u043d\u0442\u043e\u0440", "postal_code": "628449", "region": 76}}, {"model": "cities.city", "pk": 1026, "fields": {"name": "\u0433. \u041c\u0435\u0433\u0438\u043e\u043d", "postal_code": "628680", "region": 76}}, {"model": "cities.city", "pk": 1027, "fields": {"name": "\u0433. \u041d\u0435\u0444\u0442\u0435\u044e\u0433\u0430\u043d\u0441\u043a", "postal_code": "628301", "region": 76}}, {"model": "cities.city", "pk": 1028, "fields": {"name": "\u0433. \u041d\u0438\u0436\u043d\u0435\u0432\u0430\u0440\u0442\u043e\u0432\u0441\u043a", "postal_code": "628600", "region": 76}}, {"model": "cities.city", "pk": 1029, "fields": {"name": "\u0433. \u041d\u044f\u0433\u0430\u043d\u044c", "postal_code": "628181", "region": 76}}, {"model": "cities.city", "pk": 1030, "fields": {"name": "\u0433. \u041f\u043e\u043a\u0430\u0447\u0438", "postal_code": "628660", "region": 76}}, {"model": "cities.city", "pk": 1031, "fields": {"name": "\u0433. \u041f\u044b\u0442\u044c-\u042f\u0445", "postal_code": "628380", "region": 76}}, {"model": "cities.city", "pk": 1032, "fields": {"name": "\u0433. \u0420\u0430\u0434\u0443\u0436\u043d\u044b\u0439", "postal_code": "628461", "region": 76}}, {"model": "cities.city", "pk": 1033, "fields": {"name": "\u0433. \u0421\u043e\u0432\u0435\u0442\u0441\u043a\u0438\u0439", "postal_code": "628240", "region": 76}}, {"model": "cities.city", "pk": 1034, "fields": {"name": "\u0433. \u0421\u0443\u0440\u0433\u0443\u0442", "postal_code": "628400", "region": 76}}, {"model": "cities.city", "pk": 1035, "fields": {"name": "\u0433. \u0423\u0440\u0430\u0439", "postal_code": "628280", "region": 76}}, {"model": "cities.city", "pk": 1036, "fields": {"name": "\u0433. \u0425\u0430\u043d\u0442\u044b-\u041c\u0430\u043d\u0441\u0438\u0439\u0441\u043a", "postal_code": "628000", "region": 76}}, {"model": "cities.city", "pk": 1037, "fields": {"name": "\u0433. \u042e\u0433\u043e\u0440\u0441\u043a", "postal_code": "628260", "region": 76}}, {"model": "cities.city", "pk": 1038, "fields": {"name": "\u0433. \u0410\u0448\u0430", "postal_code": "456015", "region": 77}}, {"model": "cities.city", "pk": 1039, "fields": {"name": "\u0433. \u0411\u0430\u043a\u0430\u043b", "postal_code": "456900", "region": 77}}, {"model": "cities.city", "pk": 1040, "fields": {"name": "\u0433. \u0412\u0435\u0440\u0445\u043d\u0435\u0443\u0440\u0430\u043b\u044c\u0441\u043a", "postal_code": "457670", "region": 77}}, {"model": "cities.city", "pk": 1041, "fields": {"name": "\u0433. \u0412\u0435\u0440\u0445\u043d\u0438\u0439 \u0423\u0444\u0430\u043b\u0435\u0439", "postal_code": "456800", "region": 77}}, {"model": "cities.city", "pk": 1042, "fields": {"name": "\u0433. \u0415\u043c\u0430\u043d\u0436\u0435\u043b\u0438\u043d\u0441\u043a", "postal_code": "456580", "region": 77}}, {"model": "cities.city", "pk": 1043, "fields": {"name": "\u0433. \u0417\u043b\u0430\u0442\u043e\u0443\u0441\u0442", "postal_code": "456200", "region": 77}}, {"model": "cities.city", "pk": 1044, "fields": {"name": "\u0433. \u041a\u0430\u0440\u0430\u0431\u0430\u0448", "postal_code": "456140", "region": 77}}, {"model": "cities.city", "pk": 1045, "fields": {"name": "\u0433. \u041a\u0430\u0440\u0442\u0430\u043b\u044b", "postal_code": "457353", "region": 77}}, {"model": "cities.city", "pk": 1046, "fields": {"name": "\u0433. \u041a\u0430\u0441\u043b\u0438", "postal_code": "456833", "region": 77}}, {"model": "cities.city", "pk": 1047, "fields": {"name": "\u0433. \u041a\u0430\u0442\u0430\u0432-\u0418\u0432\u0430\u043d\u043e\u0432\u0441\u043a", "postal_code": "456110", "region": 77}}, {"model": "cities.city", "pk": 1048, "fields": {"name": "\u0433. \u041a\u043e\u043f\u0435\u0439\u0441\u043a", "postal_code": "456600", "region": 77}}, {"model": "cities.city", "pk": 1049, "fields": {"name": "\u0433. \u041a\u043e\u0440\u043a\u0438\u043d\u043e", "postal_code": "456550", "region": 77}}, {"model": "cities.city", "pk": 1050, "fields": {"name": "\u0433. \u041a\u0443\u0441\u0430", "postal_code": "456940", "region": 77}}, {"model": "cities.city", "pk": 1051, "fields": {"name": "\u0433. \u041a\u044b\u0448\u0442\u044b\u043c", "postal_code": "456870", "region": 77}}, {"model": "cities.city", "pk": 1052, "fields": {"name": "\u0433. \u041c\u0430\u0433\u043d\u0438\u0442\u043e\u0433\u043e\u0440\u0441\u043a", "postal_code": "455000", "region": 77}}, {"model": "cities.city", "pk": 1053, "fields": {"name": "\u0433. \u041c\u0438\u0430\u0441\u0441", "postal_code": "456300", "region": 77}}, {"model": "cities.city", "pk": 1054, "fields": {"name": "\u0433. \u041c\u0438\u043d\u044c\u044f\u0440", "postal_code": "456007", "region": 77}}, {"model": "cities.city", "pk": 1055, "fields": {"name": "\u0433. \u041d\u044f\u0437\u0435\u043f\u0435\u0442\u0440\u043e\u0432\u0441\u043a", "postal_code": "456971", "region": 77}}, {"model": "cities.city", "pk": 1056, "fields": {"name": "\u0433. \u041e\u0437\u0435\u0440\u0441\u043a", "postal_code": "456780", "region": 77}}, {"model": "cities.city", "pk": 1057, "fields": {"name": "\u0433. \u041f\u043b\u0430\u0441\u0442", "postal_code": "457020", "region": 77}}, {"model": "cities.city", "pk": 1058, "fields": {"name": "\u0433. \u0421\u0430\u0442\u043a\u0430", "postal_code": "456913", "region": 77}}, {"model": "cities.city", "pk": 1059, "fields": {"name": "\u0433. \u0421\u0438\u043c", "postal_code": "456020", "region": 77}}, {"model": "cities.city", "pk": 1060, "fields": {"name": "\u0433. \u0421\u043d\u0435\u0436\u0438\u043d\u0441\u043a", "postal_code": "456770", "region": 77}}, {"model": "cities.city", "pk": 1061, "fields": {"name": "\u0433. \u0422\u0440\u0435\u0445\u0433\u043e\u0440\u043d\u044b\u0439", "postal_code": "456080", "region": 77}}, {"model": "cities.city", "pk": 1062, "fields": {"name": "\u0433. \u0422\u0440\u043e\u0438\u0446\u043a", "postal_code": "457100", "region": 77}}, {"model": "cities.city", "pk": 1063, "fields": {"name": "\u0433. \u0423\u0441\u0442\u044c-\u041a\u0430\u0442\u0430\u0432", "postal_code": "456040", "region": 77}}, {"model": "cities.city", "pk": 1064, "fields": {"name": "\u0433. \u0427\u0435\u0431\u0430\u0440\u043a\u0443\u043b\u044c", "postal_code": "456439", "region": 77}}, {"model": "cities.city", "pk": 1065, "fields": {"name": "\u0433. \u0427\u0435\u043b\u044f\u0431\u0438\u043d\u0441\u043a", "postal_code": "454000", "region": 77}}, {"model": "cities.city", "pk": 1066, "fields": {"name": "\u0433. \u042e\u0436\u043d\u043e\u0443\u0440\u0430\u043b\u044c\u0441\u043a", "postal_code": "457040", "region": 77}}, {"model": "cities.city", "pk": 1067, "fields": {"name": "\u0433. \u042e\u0440\u044e\u0437\u0430\u043d\u044c", "postal_code": "456120", "region": 77}}, {"model": "cities.city", "pk": 1068, "fields": {"name": "\u0433. \u0410\u0440\u0433\u0443\u043d", "postal_code": "366026", "region": 78}}, {"model": "cities.city", "pk": 1069, "fields": {"name": "\u0433. \u0413\u0440\u043e\u0437\u043d\u044b\u0439", "postal_code": "364000", "region": 78}}, {"model": "cities.city", "pk": 1070, "fields": {"name": "\u0433. \u0413\u0443\u0434\u0435\u0440\u043c\u0435\u0441", "postal_code": "366200", "region": 78}}, {"model": "cities.city", "pk": 1071, "fields": {"name": "\u0433. \u041a\u0443\u0440\u0447\u0430\u043b\u043e\u0439", "postal_code": "366314", "region": 78}}, {"model": "cities.city", "pk": 1072, "fields": {"name": "\u0433. \u0423\u0440\u0443\u0441-\u041c\u0430\u0440\u0442\u0430\u043d", "postal_code": "366500", "region": 78}}, {"model": "cities.city", "pk": 1073, "fields": {"name": "\u0433. \u0428\u0430\u043b\u0438", "postal_code": "366300", "region": 78}}, {"model": "cities.city", "pk": 1074, "fields": {"name": "\u0433. \u0410\u043b\u0430\u0442\u044b\u0440\u044c", "postal_code": "429820", "region": 79}}, {"model": "cities.city", "pk": 1075, "fields": {"name": "\u0433. \u041a\u0430\u043d\u0430\u0448", "postal_code": "429330", "region": 79}}, {"model": "cities.city", "pk": 1076, "fields": {"name": "\u0433. \u041a\u043e\u0437\u043b\u043e\u0432\u043a\u0430", "postal_code": "429430", "region": 79}}, {"model": "cities.city", "pk": 1077, "fields": {"name": "\u0433. \u041c\u0430\u0440\u0438\u0438\u043d\u0441\u043a\u0438\u0439 \u041f\u043e\u0441\u0430\u0434", "postal_code": "429570", "region": 79}}, {"model": "cities.city", "pk": 1078, "fields": {"name": "\u0433. \u041d\u043e\u0432\u043e\u0447\u0435\u0431\u043e\u043a\u0441\u0430\u0440\u0441\u043a", "postal_code": "429950", "region": 79}}, {"model": "cities.city", "pk": 1079, "fields": {"name": "\u0433. \u0426\u0438\u0432\u0438\u043b\u044c\u0441\u043a", "postal_code": "429900", "region": 79}}, {"model": "cities.city", "pk": 1080, "fields": {"name": "\u0433. \u0427\u0435\u0431\u043e\u043a\u0441\u0430\u0440\u044b", "postal_code": "428000", "region": 79}}, {"model": "cities.city", "pk": 1081, "fields": {"name": "\u0433. \u0428\u0443\u043c\u0435\u0440\u043b\u044f", "postal_code": "429120", "region": 79}}, {"model": "cities.city", "pk": 1082, "fields": {"name": "\u0433. \u042f\u0434\u0440\u0438\u043d", "postal_code": "429061", "region": 79}}, {"model": "cities.city", "pk": 1083, "fields": {"name": "\u0433. \u0410\u043d\u0430\u0434\u044b\u0440\u044c", "postal_code": "689000", "region": 80}}, {"model": "cities.city", "pk": 1084, "fields": {"name": "\u0433. \u0411\u0438\u043b\u0438\u0431\u0438\u043d\u043e", "postal_code": "689450", "region": 80}}, {"model": "cities.city", "pk": 1085, "fields": {"name": "\u0433. \u041f\u0435\u0432\u0435\u043a", "postal_code": "689400", "region": 80}}, {"model": "cities.city", "pk": 1086, "fields": {"name": "\u0433. \u0410\u043b\u0434\u0430\u043d", "postal_code": "678900", "region": 81}}, {"model": "cities.city", "pk": 1087, "fields": {"name": "\u0433. \u0412\u0435\u0440\u0445\u043e\u044f\u043d\u0441\u043a", "postal_code": "678530", "region": 81}}, {"model": "cities.city", "pk": 1088, "fields": {"name": "\u0433. \u0412\u0438\u043b\u044e\u0439\u0441\u043a", "postal_code": "678200", "region": 81}}, {"model": "cities.city", "pk": 1089, "fields": {"name": "\u0433. \u041b\u0435\u043d\u0441\u043a", "postal_code": "678141", "region": 81}}, {"model": "cities.city", "pk": 1090, "fields": {"name": "\u0433. \u041c\u0438\u0440\u043d\u044b\u0439", "postal_code": "678170", "region": 81}}, {"model": "cities.city", "pk": 1091, "fields": {"name": "\u0433. \u041d\u0435\u0440\u044e\u043d\u0433\u0440\u0438", "postal_code": "678960", "region": 81}}, {"model": "cities.city", "pk": 1092, "fields": {"name": "\u0433. \u041d\u044e\u0440\u0431\u0430", "postal_code": "678450", "region": 81}}, {"model": "cities.city", "pk": 1093, "fields": {"name": "\u0433. \u041e\u043b\u0435\u043a\u043c\u0438\u043d\u0441\u043a", "postal_code": "678100", "region": 81}}, {"model": "cities.city", "pk": 1094, "fields": {"name": "\u0433. \u041f\u043e\u043a\u0440\u043e\u0432\u0441\u043a", "postal_code": "678000", "region": 81}}, {"model": "cities.city", "pk": 1095, "fields": {"name": "\u0433. \u0421\u0440\u0435\u0434\u043d\u0435\u043a\u043e\u043b\u044b\u043c\u0441\u043a", "postal_code": "678790", "region": 81}}, {"model": "cities.city", "pk": 1096, "fields": {"name": "\u0433. \u0422\u043e\u043c\u043c\u043e\u0442", "postal_code": "678953", "region": 81}}, {"model": "cities.city", "pk": 1097, "fields": {"name": "\u0433. \u0423\u0434\u0430\u0447\u043d\u044b\u0439", "postal_code": "678188", "region": 81}}, {"model": "cities.city", "pk": 1098, "fields": {"name": "\u0433. \u042f\u043a\u0443\u0442\u0441\u043a", "postal_code": "677000", "region": 81}}, {"model": "cities.city", "pk": 1099, "fields": {"name": "\u0433. \u0413\u0443\u0431\u043a\u0438\u043d\u0441\u043a\u0438\u0439", "postal_code": "629830", "region": 82}}, {"model": "cities.city", "pk": 1100, "fields": {"name": "\u0433. \u041b\u0430\u0431\u044b\u0442\u043d\u0430\u043d\u0433\u0438", "postal_code": "629400", "region": 82}}, {"model": "cities.city", "pk": 1101, "fields": {"name": "\u0433. \u041c\u0443\u0440\u0430\u0432\u043b\u0435\u043d\u043a\u043e", "postal_code": "629601", "region": 82}}, {"model": "cities.city", "pk": 1102, "fields": {"name": "\u0433. \u041d\u0430\u0434\u044b\u043c", "postal_code": "629734", "region": 82}}, {"model": "cities.city", "pk": 1103, "fields": {"name": "\u0433. \u041d\u043e\u0432\u044b\u0439 \u0423\u0440\u0435\u043d\u0433\u043e\u0439", "postal_code": "629300", "region": 82}}, {"model": "cities.city", "pk": 1104, "fields": {"name": "\u0433. \u041d\u043e\u044f\u0431\u0440\u044c\u0441\u043a", "postal_code": "629800", "region": 82}}, {"model": "cities.city", "pk": 1105, "fields": {"name": "\u0433. \u0421\u0430\u043b\u0435\u0445\u0430\u0440\u0434", "postal_code": "629000", "region": 82}}, {"model": "cities.city", "pk": 1106, "fields": {"name": "\u0433. \u0422\u0430\u0440\u043a\u043e-\u0421\u0430\u043b\u0435", "postal_code": "629850", "region": 82}}, {"model": "cities.city", "pk": 1107, "fields": {"name": "\u0433. \u0413\u0430\u0432\u0440\u0438\u043b\u043e\u0432-\u042f\u043c", "postal_code": "152240", "region": 83}}, {"model": "cities.city", "pk": 1108, "fields": {"name": "\u0433. \u0414\u0430\u043d\u0438\u043b\u043e\u0432", "postal_code": "152070", "region": 83}}, {"model": "cities.city", "pk": 1109, "fields": {"name": "\u0433. \u041b\u044e\u0431\u0438\u043c", "postal_code": "152470", "region": 83}}, {"model": "cities.city", "pk": 1110, "fields": {"name": "\u0433. \u041c\u044b\u0448\u043a\u0438\u043d", "postal_code": "152830", "region": 83}}, {"model": "cities.city", "pk": 1111, "fields": {"name": "\u0433. \u041f\u0435\u0440\u0435\u0441\u043b\u0430\u0432\u043b\u044c-\u0417\u0430\u043b\u0435\u0441\u0441\u043a\u0438\u0439", "postal_code": "152020", "region": 83}}, {"model": "cities.city", "pk": 1112, "fields": {"name": "\u0433. \u041f\u043e\u0448\u0435\u0445\u043e\u043d\u044c\u0435", "postal_code": "152850", "region": 83}}, {"model": "cities.city", "pk": 1113, "fields": {"name": "\u0433. \u0420\u043e\u0441\u0442\u043e\u0432", "postal_code": "152150", "region": 83}}, {"model": "cities.city", "pk": 1114, "fields": {"name": "\u0433. \u0420\u044b\u0431\u0438\u043d\u0441\u043a", "postal_code": "152900", "region": 83}}, {"model": "cities.city", "pk": 1115, "fields": {"name": "\u0433. \u0422\u0443\u0442\u0430\u0435\u0432", "postal_code": "152300", "region": 83}}, {"model": "cities.city", "pk": 1116, "fields": {"name": "\u0433. \u0423\u0433\u043b\u0438\u0447", "postal_code": "152610", "region": 83}}, {"model": "cities.city", "pk": 1117, "fields": {"name": "\u0433. \u042f\u0440\u043e\u0441\u043b\u0430\u0432\u043b\u044c", "postal_code": "150000", "region": 83}}]
